{
"type": "FeatureCollection",
"name": "irkutsk_hn_KV5_24818_25736-01_KANOPUS_20230618_035304_20",
"crs": { "type": "name", "properties": { "name": "urn:ogc:def:crs:EPSG::3857" } },
"features": [
{"type":"Feature","properties":{"fid":1,"class":0},"geometry":{"type":"Polygon","coordinates":[[[11471042.110416257753968,6897039.522554708644748],[11471116.347109930589795,6897070.566990245133638],[11471204.081384273245931,6897102.961183848790824],[11471274.268803747370839,6897140.754409718327224],[11471351.205013554543257,6897151.55247425287962],[11471426.791465295478702,6897112.409490316174924],[11471478.082271832972765,6897073.266506378538907],[11471556.368239708244801,6897085.414328980259597],[11471584.713159114122391,6897100.261667714454234],[11471649.501546319574118,6897117.808522582985461],[11471673.797191523015499,6897159.651022654026747],[11471671.097675388678908,6897217.690619526430964],[11471683.245497990399599,6897298.676103534176946],[11471706.191385125741363,6897352.6664262060076],[11471795.275417534634471,6897408.006506945006549],[11471846.566224072128534,6897443.100216682069004],[11471937.000014547258615,6897490.341749019920826],[11472039.581627624109387,6897533.534007157199085],[11472094.92170836403966,6897548.381345892325044],[11472142.163240700960159,6897501.139813553541899],[11472181.306224638596177,6897455.248039282858372],[11472165.109127836301923,6897378.311829475685954],[11472173.20767623744905,6897317.572716468945146],[11472205.601869840174913,6897258.183361530303955],[11472242.045337645336986,6897152.902232320047915],[11472256.892676379531622,6897096.212393514811993],[11472225.848240843042731,6896990.931264304555953],[11472213.700418241322041,6896918.044328697025776],[11472271.740015113726258,6896873.502312492579222],[11472278.488805446773767,6896838.408602755516768],[11472258.242434445768595,6896806.014409152790904],[11472240.695579577237368,6896780.36900588311255],[11472275.789289314299822,6896710.181586409918964],[11472320.331305518746376,6896634.595134668983519],[11472355.42501525580883,6896542.811586126685143],[11472397.267515325918794,6896495.57005378883332],[11472383.76993465796113,6896425.382634315639734],[11472383.76993465796113,6896375.441585845313966],[11472404.016305660828948,6896291.756585704162717],[11472421.563160529360175,6896210.771101695485413],[11472437.760257329791784,6896137.884166088886559],[11472443.159289598464966,6896052.849407880567014],[11472476.903241267427802,6895947.568278670310974],[11472463.405660599470139,6895898.976988265290856],[11472486.351547734811902,6895809.892955856397748],[11472493.100338069722056,6895753.203117051161826],[11472514.696467136964202,6895657.370294308289886],[11472528.194047804921865,6895569.636019966565073],[11472564.637515610083938,6895491.35005209222436],[11472587.583402745425701,6895426.56166488584131],[11472618.627838281914592,6895421.162632619030774],[11472645.622999617829919,6895379.320132547989488],[11472663.169854486361146,6895326.679567943327129],[11472661.820096418261528,6895247.04384200181812],[11472634.824935082346201,6895202.501825797371566],[11472578.135096278041601,6895183.605212862603366],[11472556.53896720893681,6895156.610051526688039],[11472565.98727367632091,6895109.368519188836217],[11472530.893563937395811,6895114.767551455646753],[11472494.450096134096384,6895093.171422386541963],[11472459.35638639703393,6895045.92989004869014],[11472471.504208998754621,6894974.392712508328259],[11472483.652031598612666,6894923.101905969902873],[11472452.607596062123775,6894893.407228500582278],[11472362.173805586993694,6894848.865212296135724],[11472336.52840231731534,6894815.121260626241565],[11472260.941950576379895,6894840.766663894988596],[11472212.350660173222423,6894878.559889765456319],[11472138.113966498523951,6894983.841018975712359],[11472020.685014687478542,6895095.870938519947231],[11471962.645417815074325,6895163.358841859735548],[11471876.260901538655162,6895218.698922598734498],[11471812.822272399440408,6895202.501825797371566],[11471672.447433453053236,6895252.442874268628657],[11471575.264852643013,6895279.438035604543984],[11471514.525739638134837,6895306.433196940459311],[11471476.732513766735792,6895353.674729278311133],[11471456.486142765730619,6895404.965535816736519],[11471440.289045963436365,6895500.798358559608459],[11471455.136384697631001,6895580.434084500186145],[11471498.328642835840583,6895643.872713640332222],[11471428.141223361715674,6895704.611826648004353],[11471393.04751362465322,6895742.405052518472075],[11471384.948965223506093,6895805.84368165768683],[11471374.15090068988502,6895835.538359127007425],[11471317.461061887443066,6895851.735455927439034],[11471247.273642413318157,6895876.031101129949093],[11471164.938400339335203,6895915.174085066653788],[11471125.795416401699185,6895942.169246402569115],[11471098.800255065783858,6895977.262956139631569],[11471071.805093729868531,6896077.145053082145751],[11471062.356787262484431,6896127.086101553402841],[11471069.105577597394586,6896195.923762960359454],[11471105.549045400694013,6896256.66287596616894],[11471098.800255065783858,6896295.805859903804958],[11471015.115254923701286,6896406.486021382734179],[11470957.075658051297069,6896461.826102121733129],[11470908.484367646276951,6896487.471505390480161],[11470867.99162564240396,6896554.959408729337156],[11470835.597432039678097,6896599.50142493378371],[11470824.799367504194379,6896649.442473405040801],[11470838.296948172152042,6896673.738118607550859],[11470831.548157839104533,6896738.526505813933909],[11470814.001302970573306,6896780.369005884975195],[11470789.70565776899457,6896811.413441421464086],[11470812.651544904336333,6896881.600860894657671],[11470863.942351441830397,6896920.743844831362367],[11470897.686303112655878,6896969.335135236382484],[11470971.92299678735435,6897028.724490175023675],[11471032.662109794095159,6897053.020135377533734],[11471050.208964660763741,6897053.020135377533734],[11471042.110416257753968,6897039.522554708644748]]]}}
]
}
