{
"type": "FeatureCollection",
"name": "irkutks_KV5_24818_25736-01_KANOPUS_20230618_035304_20",
"crs": { "type": "name", "properties": { "name": "urn:ogc:def:crs:EPSG::3857" } },
"features": [
{"type":"Feature","properties":{"fid":1,"class":0,"_mlsystem2_role":"hard_negative"},"geometry":{"type":"Polygon","coordinates":[[[11471214.879448812454939,6903229.17560953181237],[11471310.037392523139715,6903295.988633838482201],[11471417.343158833682537,6903358.752383944578469],[11471465.93444923684001,6903395.195851747877896],[11471512.501102542504668,6903368.875569445081055],[11471573.240215547382832,6903326.358190340921283],[11471617.782231751829386,6903302.062545138411224],[11471658.274973755702376,6903275.742262835614383],[11471700.792352860793471,6903255.495891833677888],[11471739.260457765311003,6903241.323432132601738],[11471775.70392556861043,6903243.34806923288852],[11471789.87638526968658,6903269.66835153568536],[11471802.02420787140727,6903306.111819338984787],[11471830.36912727355957,6903352.678472643718123],[11471864.787957975640893,6903407.343674348667264],[11471901.231425780802965,6903508.575529358349741],[11471966.019812986254692,6903650.300126371905208],[11472006.512554990127683,6903725.211699079722166],[11472051.054571194574237,6903765.704441083595157],[11472115.842958400025964,6903808.221820187754929],[11472192.779168209061027,6903850.739199291914701],[11472217.074813410639763,6903921.601497799158096],[11472279.838563516736031,6903998.537707606330514],[11472391.193604027852416,6904045.10436091106385],[11472460.031265433877707,6904012.710167307406664],[11472502.548644538968801,6903978.291336604394019],[11472549.11529784463346,6903958.044965602457523],[11472607.829773750156164,6904010.685530208051205],[11472690.839894857257605,6904067.375369013287127],[11472856.860137073323131,6904022.833352808840573],[11472962.141266284510493,6904002.586981806904078],[11473057.299209993332624,6903986.389885004609823],[11473105.890500398352742,6903986.389885004609823],[11473124.112234300002456,6904004.611618907190859],[11473126.136871399357915,6904030.931901209056377],[11473116.013685898855329,6904067.375369013287127],[11473116.013685898855329,6904124.065207818523049],[11473136.260056901723146,6904180.755046623758972],[11473225.34408930875361,6904166.582586922682822],[11473800.341025764122605,6904032.956538309343159],[11473881.326509771868587,6904043.079723809845746],[11473935.991711478680372,6904075.473917413502932],[11474029.125018088147044,6904061.301457712426782],[11474079.740945592522621,6904097.744925515726209],[11474154.65251830033958,6904083.572465814650059],[11474294.352478213608265,6904041.055086710490286],[11474393.55969612300396,6904006.636256006546319],[11474430.003163926303387,6904032.956538309343159],[11474482.643728531897068,6904024.857989908196032],[11474472.520543031394482,6903958.044965601526201],[11474466.446631729602814,6903875.034844493493438],[11474421.90461552515626,6903806.197183087468147],[11474344.968405717983842,6903731.285610379651189],[11474263.982921710237861,6903670.546497373841703],[11474178.948163501918316,6903583.487102065235376],[11474087.839493993669748,6903496.42770675662905],[11474029.125018088147044,6903455.934964752756059],[11473960.287356680259109,6903464.033513153903186],[11473921.819251777604222,6903462.008876053616405],[11473901.572880774736404,6903413.417585648596287],[11473919.794614676386118,6903328.382827440276742],[11473913.720703376457095,6903065.180004415102303],[11473931.942437278106809,6902970.022060705348849],[11473881.326509773731232,6902852.593108894303441],[11473818.562759667634964,6902745.287342583760619],[11473761.872920861467719,6902714.917786080390215],[11473676.838162653148174,6902706.81923768017441],[11473581.680218944326043,6902690.622140877880156],[11473529.039654338732362,6902684.548229577951133],[11473478.423726834356785,6902723.016334481537342],[11473448.054170330986381,6902812.10036689043045],[11473405.536791227757931,6902858.667020194232464],[11473255.713645806536078,6902829.984661275520921],[11473161.230581130832434,6902883.974983947351575],[11473058.648968053981662,6902890.723774281330407],[11472974.96396791189909,6902885.32474201451987],[11472915.574612973257899,6902933.916032418608665],[11472788.697354694828391,6902942.014580819755793],[11472726.60848362185061,6902936.615548552945256],[11472678.017193216830492,6902883.974983947351575],[11472678.017193216830492,6902827.285145142115653],[11472636.174693146720529,6902763.846516002900898],[11472551.139934938400984,6902731.452322399243712],[11472405.366063721477985,6902680.161515860818326],[11472286.587353844195604,6902618.072644788771868],[11472151.611547164618969,6902562.732564049772918],[11472082.773885756731033,6902501.993451043963432],[11472003.138159815222025,6902466.899741306900978],[11471872.211627336218953,6902501.993451043963432],[11471760.181707791984081,6902538.436918845400214],[11471680.545981850475073,6902492.545144574716687],[11471575.264852641150355,6902415.60893476754427],[11471526.673562236130238,6902376.465950829908252],[11471452.436868561431766,6902474.99828970618546],[11471393.047513622790575,6902584.328693117015064],[11471348.505497418344021,6902682.861031993292272],[11471305.313239280134439,6902813.787564473226666],[11471241.874610140919685,6903062.143048763275146],[11471209.480416538193822,6903184.971032842062414],[11471214.879448812454939,6903229.17560953181237]]]}}
]
}
