{
"type": "FeatureCollection",
"name": "irkutsk_KV5_24818_25736-01_KANOPUS_20230618_035304_20",
"crs": { "type": "name", "properties": { "name": "urn:ogc:def:crs:EPSG::3857" } },
"features": [
{"type":"Feature","properties":{"fid":1,"class":0,"_mlsystem2_role":"hard_negative"},"geometry":{"type":"Polygon","coordinates":[[[11469137.601784,6896193.224246824160218],[11469126.803719466552138,6896140.583682219497859],[11469116.00565493106842,6896096.041666015051305],[11469113.306138798594475,6895997.509327138774097],[11469083.611461328342557,6895903.026262463070452],[11469080.911945194005966,6895847.686181724071503],[11469117.355413,6895776.149004183709621],[11469152.449122734367847,6895728.907471845857799],[11469187.542832471430302,6895697.863036310300231],[11469248.281945476308465,6895592.581907100044191],[11469287.424929413944483,6895503.497874691151083],[11469375.159203756600618,6895252.442874266766012],[11469468.29251036606729,6895109.368519186042249],[11469562.775575041770935,6894955.496099570766091],[11469654.559123586863279,6894820.520292891189456],[11469774.687591532245278,6894650.450776474550366],[11469870.520414274185896,6894555.967711797915399],[11469857.022833604365587,6894514.125211727805436],[11469862.421865871176124,6894438.538759986869991],[11469919.111704677343369,6894338.65666304435581],[11469991.998640283942223,6894257.671179035678506],[11469915.062430476769805,6894264.419969369657338],[11469915.062430476769805,6894200.981340230442584],[11469939.358075678348541,6894129.444162690080702],[11469969.052753148600459,6894105.148517487570643],[11470056.787027491256595,6894083.552388419397175],[11470118.875898562371731,6894070.054807751439512],[11470147.220817966386676,6893991.768839877098799],[11470263.300011711195111,6893844.645210596732795],[11470346.985011851415038,6893758.260694321244955],[11470400.975334523245692,6893746.112871720455587],[11470477.911544332280755,6893759.61045238841325],[11470576.443883208557963,6893709.669403916224837],[11470668.227431749925017,6893684.024000647477806],[11470685.774286618456244,6893754.211420120671391],[11470693.872835019603372,6893851.394000930711627],[11470712.769447954371572,6893925.630694604478776],[11470710.069931820034981,6894039.010372214950621],[11470638.5327542796731,6894134.843194957822561],[11470558.897028340026736,6894175.335936961695552],[11470580.493157409131527,6894298.163921040482819],[11470533.251625072211027,6894381.848921182565391],[11470465.763721732422709,6894403.445050251670182],[11470386.127995790913701,6894470.932953591458499],[11470469.812995934858918,6894666.647873275913298],[11470540.000415407121181,6894688.244002345018089],[11470572.39460901170969,6894696.342550745233893],[11470599.389770347625017,6894755.731905684806406],[11470602.089286480098963,6894836.717389692552388],[11470540.000415407121181,6894979.791744772344828],[11470459.0149313993752,6895085.07287398353219],[11470469.812995934858918,6895149.861261188983917],[11470542.699931543320417,6895201.152067728340626],[11470566.995576744899154,6895301.034164670854807],[11470526.502834741026163,6895395.517229347489774],[11470415.822673263028264,6895387.418680946342647],[11470307.842027919366956,6895468.404164954088628],[11470226.856543909758329,6895630.375132970511913],[11470178.265253506600857,6895722.15868151281029],[11470105.378317898139358,6895803.144165520556271],[11469983.900091886520386,6895862.533520459197462],[11469862.421865874901414,6895943.519004467874765],[11469708.549446260556579,6896002.908359407447278],[11469719.347510794177651,6896056.898682079277933],[11469641.061542920768261,6896105.489972483366728],[11469568.174607314169407,6896159.480295155197382],[11469511.484768508002162,6896205.372069426812232],[11469427.79976836591959,6896235.066746896132827],[11469325.218155289068818,6896232.367230762727559],[11469228.035574480891228,6896226.968198495917022],[11469137.601784,6896193.224246824160218]]]}},
{"type":"Feature","properties":{"fid":2,"class":0,"_mlsystem2_role":"hard_negative"},"geometry":{"type":"Polygon","coordinates":[[[11470950.822033897042274,6896995.652542375028133],[11470882.696610167622566,6896921.038983053527772],[11470853.499999998137355,6896830.205084748566151],[11470814.571186440065503,6896723.150847460143268],[11470837.279661016538739,6896538.238983052782714],[11470931.357627118006349,6896450.64915254432708],[11471074.096610167995095,6896392.255932205356658],[11471087.072881354019046,6896268.981355934403837],[11471106.537288134917617,6896116.510169493965805],[11471077.340677965432405,6896009.455932205542922],[11471138.977966099977493,6895934.842372883111238],[11471249.276271184906363,6895889.425423731096089],[11471330.377966100350022,6895834.276271188631654],[11471396.881355931982398,6895780.749152543954551],[11471486.093220338225365,6895647.742372882552445],[11471481.227118641138077,6895613.679661018773913],[11471443.920338980853558,6895581.238983052782714],[11471435.81016949005425,6895526.089830510318279],[11471442.298305083066225,6895453.098305086605251],[11471452.030508471652865,6895378.484745764173567],[11471500.691525422036648,6895294.138983052223921],[11471599.6355932187289,6895263.320338984020054],[11471713.177966099232435,6895243.855932204984128],[11471810.499999998137355,6895214.659322035498917],[11471906.199999997392297,6895211.415254238992929],[11472048.938983047381043,6895148.155932202935219],[11472168.969491522759199,6894998.928813559003174],[11472243.583050843328238,6894852.945762711577117],[11472360.369491523131728,6894823.749152542091906],[11472467.423728810623288,6894891.874576270580292],[11472545.281355928629637,6894956.75593220256269],[11472574.477966098114848,6895011.905084745027125],[11472613.406779658049345,6895193.572881355881691],[11472649.091525420546532,6895316.847457626834512],[11472600.430508472025394,6895556.908474575728178],[11472486.888135589659214,6895925.110169492661953],[11472360.369491521269083,6896424.696610170416534],[11472277.645762708038092,6896762.079661017283797],[11472254.937288131564856,6896802.630508476868272],[11472280.889830505475402,6896826.96101695112884],[11472297.110169488936663,6896844.803389832377434],[11472285.755932200700045,6896870.755932205356658],[11472253.315254233777523,6896898.330508477054536],[11472214.386440675705671,6896937.259322036057711],[11472240.338983047753572,6896985.92033898551017],[11472263.047457624226809,6897067.022033900022507],[11472266.291525419801474,6897112.438983052968979],[11472243.583050845190883,6897200.028813561424613],[11472198.166101692244411,6897360.610169493593276],[11472162.481355929747224,6897485.506779663264751],[11472065.159322030842304,6897556.876271189190447],[11471828.342372877523303,6897444.955932205542922],[11471656.406779658049345,6897354.1220339005813],[11471627.210169488564134,6897274.642372883856297],[11471656.406779658049345,6897170.832203391939402],[11471610.989830505102873,6897127.037288137711585],[11471526.644067794084549,6897091.352542373351753],[11471393.637288132682443,6897123.793220339342952],[11471268.740677963942289,6897144.879661018028855],[11471156.820338981226087,6897096.218644068576396],[11471015.703389827162027,6897036.203389830887318],[11470950.822033897042274,6896995.652542375028133]]]}}
]
}
