{
"type": "FeatureCollection",
"name": "pred_захламление_hn_tile003",
"crs": { "type": "name", "properties": { "name": "urn:ogc:def:crs:EPSG::3857" } },
"features": [
{ "type": "Feature", "properties": { "class": 1 }, "geometry": { "type": "Polygon", "coordinates": [ [ [ 4022017.898285672068596, 6966989.882744248956442 ], [ 4022017.898285672068596, 6966987.410882945172489 ], [ 4022015.426424368284643, 6966987.410882945172489 ], [ 4022015.426424368284643, 6966984.939021641388535 ], [ 4022012.95456306450069, 6966984.939021641388535 ], [ 4022012.95456306450069, 6966979.995299033820629 ], [ 4022010.482701760716736, 6966979.995299033820629 ], [ 4022010.482701760716736, 6966972.57971512246877 ], [ 4022008.010840456932783, 6966972.57971512246877 ], [ 4022008.010840456932783, 6966967.635992514900863 ], [ 4022005.53897915314883, 6966967.635992514900863 ], [ 4022005.53897915314883, 6966965.16413121111691 ], [ 4022003.067117849364877, 6966965.16413121111691 ], [ 4022003.067117849364877, 6966957.74854729976505 ], [ 4022000.595256545580924, 6966957.74854729976505 ], [ 4022000.595256545580924, 6966955.276685995981097 ], [ 4021998.12339524179697, 6966955.276685995981097 ], [ 4021998.12339524179697, 6966950.332963388413191 ], [ 4022008.010840456932783, 6966950.332963388413191 ], [ 4022008.010840456932783, 6966952.804824692197144 ], [ 4022012.95456306450069, 6966952.804824692197144 ], [ 4022012.95456306450069, 6966955.276685995981097 ], [ 4022017.898285672068596, 6966955.276685995981097 ], [ 4022017.898285672068596, 6966957.74854729976505 ], [ 4022022.842008279636502, 6966957.74854729976505 ], [ 4022022.842008279636502, 6966960.220408603549004 ], [ 4022027.785730887204409, 6966960.220408603549004 ], [ 4022027.785730887204409, 6966965.16413121111691 ], [ 4022030.257592190988362, 6966965.16413121111691 ], [ 4022030.257592190988362, 6966982.467160337604582 ], [ 4022027.785730887204409, 6966982.467160337604582 ], [ 4022027.785730887204409, 6966987.410882945172489 ], [ 4022020.370146975852549, 6966987.410882945172489 ], [ 4022020.370146975852549, 6966989.882744248956442 ], [ 4022017.898285672068596, 6966989.882744248956442 ] ] ] } },
{ "type": "Feature", "properties": { "class": 1 }, "geometry": { "type": "Polygon", "coordinates": [ [ [ 4021975.876643507741392, 6966933.029934261925519 ], [ 4021975.876643507741392, 6966930.558072958141565 ], [ 4021970.932920900173485, 6966930.558072958141565 ], [ 4021970.932920900173485, 6966928.086211654357612 ], [ 4021968.461059596389532, 6966928.086211654357612 ], [ 4021968.461059596389532, 6966925.614350350573659 ], [ 4021965.989198292605579, 6966925.614350350573659 ], [ 4021965.989198292605579, 6966923.142489046789706 ], [ 4021963.517336988821626, 6966923.142489046789706 ], [ 4021963.517336988821626, 6966913.255043831653893 ], [ 4021965.989198292605579, 6966913.255043831653893 ], [ 4021965.989198292605579, 6966908.311321224085987 ], [ 4021968.461059596389532, 6966908.311321224085987 ], [ 4021968.461059596389532, 6966903.36759861651808 ], [ 4021970.932920900173485, 6966903.36759861651808 ], [ 4021970.932920900173485, 6966900.895737312734127 ], [ 4021973.404782203957438, 6966900.895737312734127 ], [ 4021973.404782203957438, 6966898.423876008950174 ], [ 4021975.876643507741392, 6966898.423876008950174 ], [ 4021975.876643507741392, 6966895.952014705166221 ], [ 4021980.820366115309298, 6966895.952014705166221 ], [ 4021980.820366115309298, 6966898.423876008950174 ], [ 4021983.292227419093251, 6966898.423876008950174 ], [ 4021983.292227419093251, 6966900.895737312734127 ], [ 4021988.235950026661158, 6966900.895737312734127 ], [ 4021988.235950026661158, 6966903.36759861651808 ], [ 4021990.707811330445111, 6966903.36759861651808 ], [ 4021990.707811330445111, 6966900.895737312734127 ], [ 4021993.179672634229064, 6966900.895737312734127 ], [ 4021993.179672634229064, 6966898.423876008950174 ], [ 4021995.651533938013017, 6966898.423876008950174 ], [ 4021995.651533938013017, 6966891.008292097598314 ], [ 4022000.595256545580924, 6966891.008292097598314 ], [ 4022000.595256545580924, 6966893.480153401382267 ], [ 4022003.067117849364877, 6966893.480153401382267 ], [ 4022003.067117849364877, 6966895.952014705166221 ], [ 4022000.595256545580924, 6966895.952014705166221 ], [ 4022000.595256545580924, 6966905.839459920302033 ], [ 4021998.12339524179697, 6966905.839459920302033 ], [ 4021998.12339524179697, 6966915.726905135437846 ], [ 4021995.651533938013017, 6966915.726905135437846 ], [ 4021995.651533938013017, 6966918.198766439221799 ], [ 4021993.179672634229064, 6966918.198766439221799 ], [ 4021993.179672634229064, 6966925.614350350573659 ], [ 4021990.707811330445111, 6966925.614350350573659 ], [ 4021990.707811330445111, 6966930.558072958141565 ], [ 4021983.292227419093251, 6966930.558072958141565 ], [ 4021983.292227419093251, 6966933.029934261925519 ], [ 4021975.876643507741392, 6966933.029934261925519 ] ] ] } },
{ "type": "Feature", "properties": { "class": 1 }, "geometry": { "type": "Polygon", "coordinates": [ [ [ 4022015.426424368284643, 6966886.064569490030408 ], [ 4022015.426424368284643, 6966883.592708186246455 ], [ 4022008.010840456932783, 6966883.592708186246455 ], [ 4022008.010840456932783, 6966881.120846882462502 ], [ 4022005.53897915314883, 6966881.120846882462502 ], [ 4022005.53897915314883, 6966878.648985578678548 ], [ 4022000.595256545580924, 6966878.648985578678548 ], [ 4022000.595256545580924, 6966876.177124274894595 ], [ 4021998.12339524179697, 6966876.177124274894595 ], [ 4021998.12339524179697, 6966873.705262971110642 ], [ 4021995.651533938013017, 6966873.705262971110642 ], [ 4021995.651533938013017, 6966861.345956452190876 ], [ 4022030.257592190988362, 6966861.345956452190876 ], [ 4022030.257592190988362, 6966863.817817755974829 ], [ 4022035.201314798556268, 6966863.817817755974829 ], [ 4022035.201314798556268, 6966866.289679059758782 ], [ 4022037.673176102340221, 6966866.289679059758782 ], [ 4022037.673176102340221, 6966868.761540363542736 ], [ 4022040.145037406124175, 6966868.761540363542736 ], [ 4022040.145037406124175, 6966871.233401667326689 ], [ 4022045.088760013692081, 6966871.233401667326689 ], [ 4022045.088760013692081, 6966878.648985578678548 ], [ 4022040.145037406124175, 6966878.648985578678548 ], [ 4022040.145037406124175, 6966881.120846882462502 ], [ 4022037.673176102340221, 6966881.120846882462502 ], [ 4022037.673176102340221, 6966883.592708186246455 ], [ 4022030.257592190988362, 6966883.592708186246455 ], [ 4022030.257592190988362, 6966886.064569490030408 ], [ 4022015.426424368284643, 6966886.064569490030408 ] ] ] } }
]
}
