{
"type": "FeatureCollection",
"name": "pred_захламление_hn_tile009",
"crs": { "type": "name", "properties": { "name": "urn:ogc:def:crs:EPSG::3857" } },
"features": [
{ "type": "Feature", "properties": { "class": 1 }, "geometry": { "type": "Polygon", "coordinates": [ [ [ 5089774.122063789516687, 7036880.832971828989685 ], [ 5089774.122063789516687, 7036878.351848683319986 ], [ 5089756.754201773554087, 7036878.351848683319986 ], [ 5089756.754201773554087, 7036875.87072553858161 ], [ 5089754.273078627884388, 7036875.87072553858161 ], [ 5089754.273078627884388, 7036870.908479248173535 ], [ 5089759.235324918292463, 7036870.908479248173535 ], [ 5089759.235324918292463, 7036868.427356103435159 ], [ 5089771.640940643846989, 7036868.427356103435159 ], [ 5089771.640940643846989, 7036870.908479248173535 ], [ 5089776.603186934255064, 7036870.908479248173535 ], [ 5089776.603186934255064, 7036880.832971828989685 ], [ 5089774.122063789516687, 7036880.832971828989685 ] ] ] } },
{ "type": "Feature", "properties": { "class": 1 }, "geometry": { "type": "Polygon", "coordinates": [ [ [ 5092371.857996753416955, 7037084.285069730132818 ], [ 5092371.857996753416955, 7037081.803946585394442 ], [ 5092361.933504172600806, 7037081.803946585394442 ], [ 5092361.933504172600806, 7037079.322823439724743 ], [ 5092332.160026431083679, 7037079.322823439724743 ], [ 5092332.160026431083679, 7037076.841700294986367 ], [ 5092282.537563527934253, 7037076.841700294986367 ], [ 5092282.537563527934253, 7037074.360577150247991 ], [ 5092262.688578367233276, 7037074.360577150247991 ], [ 5092262.688578367233276, 7037071.879454004578292 ], [ 5092250.282962641678751, 7037071.879454004578292 ], [ 5092250.282962641678751, 7037069.398330859839916 ], [ 5092210.584992319345474, 7037069.398330859839916 ], [ 5092210.584992319345474, 7037066.917207714170218 ], [ 5092203.141622883267701, 7037066.917207714170218 ], [ 5092203.141622883267701, 7037064.436084569431841 ], [ 5092198.179376593790948, 7037064.436084569431841 ], [ 5092198.179376593790948, 7037061.954961423762143 ], [ 5092195.69825344812125, 7037061.954961423762143 ], [ 5092195.69825344812125, 7037059.473838279023767 ], [ 5092193.217130303382874, 7037059.473838279023767 ], [ 5092193.217130303382874, 7037056.99271513428539 ], [ 5092190.736007157713175, 7037056.99271513428539 ], [ 5092190.736007157713175, 7037049.549345698207617 ], [ 5092188.254884012974799, 7037049.549345698207617 ], [ 5092188.254884012974799, 7037039.624853117391467 ], [ 5092185.7737608673051, 7037039.624853117391467 ], [ 5092185.7737608673051, 7037022.256991101428866 ], [ 5092183.292637722566724, 7037022.256991101428866 ], [ 5092183.292637722566724, 7037002.40800594072789 ], [ 5092180.811514577828348, 7037002.40800594072789 ], [ 5092180.811514577828348, 7036982.55902077909559 ], [ 5092183.292637722566724, 7036982.55902077909559 ], [ 5092183.292637722566724, 7036967.672281908802688 ], [ 5092185.7737608673051, 7036967.672281908802688 ], [ 5092185.7737608673051, 7036960.228912473656237 ], [ 5092188.254884012974799, 7036960.228912473656237 ], [ 5092188.254884012974799, 7036950.304419892840087 ], [ 5092190.736007157713175, 7036950.304419892840087 ], [ 5092190.736007157713175, 7036932.936557876877487 ], [ 5092193.217130303382874, 7036932.936557876877487 ], [ 5092193.217130303382874, 7036923.012065296061337 ], [ 5092195.69825344812125, 7036923.012065296061337 ], [ 5092195.69825344812125, 7036913.087572715245187 ], [ 5092198.179376593790948, 7036913.087572715245187 ], [ 5092198.179376593790948, 7036905.644203280098736 ], [ 5092200.660499738529325, 7036905.644203280098736 ], [ 5092200.660499738529325, 7036898.200833844952285 ], [ 5092203.141622883267701, 7036898.200833844952285 ], [ 5092203.141622883267701, 7036888.276341264136136 ], [ 5092205.622746028937399, 7036888.276341264136136 ], [ 5092205.622746028937399, 7036878.351848683319986 ], [ 5092208.103869173675776, 7036878.351848683319986 ], [ 5092208.103869173675776, 7036868.427356103435159 ], [ 5092210.584992319345474, 7036868.427356103435159 ], [ 5092210.584992319345474, 7036856.02174037694931 ], [ 5092213.06611546408385, 7036856.02174037694931 ], [ 5092213.06611546408385, 7036841.135001506656408 ], [ 5092215.547238609753549, 7036841.135001506656408 ], [ 5092215.547238609753549, 7036826.248262635432184 ], [ 5092218.028361754491925, 7036826.248262635432184 ], [ 5092218.028361754491925, 7036806.399277474731207 ], [ 5092220.509484899230301, 7036806.399277474731207 ], [ 5092220.509484899230301, 7036789.031415458768606 ], [ 5092222.9906080449, 7036789.031415458768606 ], [ 5092222.9906080449, 7036774.144676587544382 ], [ 5092225.471731189638376, 7036774.144676587544382 ], [ 5092225.471731189638376, 7036764.220184006728232 ], [ 5092227.952854335308075, 7036764.220184006728232 ], [ 5092227.952854335308075, 7036754.295691426843405 ], [ 5092230.433977480046451, 7036754.295691426843405 ], [ 5092230.433977480046451, 7036749.33344513643533 ], [ 5092232.91510062571615, 7036749.33344513643533 ], [ 5092232.91510062571615, 7036739.40895255561918 ], [ 5092235.396223770454526, 7036739.40895255561918 ], [ 5092235.396223770454526, 7036722.041090539656579 ], [ 5092237.877346916124225, 7036722.041090539656579 ], [ 5092237.877346916124225, 7036707.154351668432355 ], [ 5092240.358470060862601, 7036707.154351668432355 ], [ 5092240.358470060862601, 7036697.229859088547528 ], [ 5092242.839593205600977, 7036697.229859088547528 ], [ 5092242.839593205600977, 7036689.786489652469754 ], [ 5092245.320716351270676, 7036689.786489652469754 ], [ 5092245.320716351270676, 7036682.343120217323303 ], [ 5092247.801839496009052, 7036682.343120217323303 ], [ 5092247.801839496009052, 7036674.899750782176852 ], [ 5092250.282962641678751, 7036674.899750782176852 ], [ 5092250.282962641678751, 7036667.456381346099079 ], [ 5092252.764085786417127, 7036667.456381346099079 ], [ 5092252.764085786417127, 7036662.494135056622326 ], [ 5092255.245208932086825, 7036662.494135056622326 ], [ 5092255.245208932086825, 7036655.050765620544553 ], [ 5092257.726332076825202, 7036655.050765620544553 ], [ 5092257.726332076825202, 7036652.569642475806177 ], [ 5092262.688578367233276, 7036652.569642475806177 ], [ 5092262.688578367233276, 7036650.088519330136478 ], [ 5092265.169701511971653, 7036650.088519330136478 ], [ 5092265.169701511971653, 7036647.607396185398102 ], [ 5092309.829918124713004, 7036647.607396185398102 ], [ 5092309.829918124713004, 7036645.126273039728403 ], [ 5092314.792164415121078, 7036645.126273039728403 ], [ 5092314.792164415121078, 7036642.645149894990027 ], [ 5092319.754410705529153, 7036642.645149894990027 ], [ 5092319.754410705529153, 7036640.164026750251651 ], [ 5092322.235533850267529, 7036640.164026750251651 ], [ 5092322.235533850267529, 7036637.682903604581952 ], [ 5092324.716656995937228, 7036637.682903604581952 ], [ 5092324.716656995937228, 7036635.201780459843576 ], [ 5092327.197780140675604, 7036635.201780459843576 ], [ 5092327.197780140675604, 7036632.720657314173877 ], [ 5092332.160026431083679, 7036632.720657314173877 ], [ 5092332.160026431083679, 7036630.239534169435501 ], [ 5092337.122272721491754, 7036630.239534169435501 ], [ 5092337.122272721491754, 7036627.758411023765802 ], [ 5092339.60339586623013, 7036627.758411023765802 ], [ 5092339.60339586623013, 7036625.277287879027426 ], [ 5092342.084519011899829, 7036625.277287879027426 ], [ 5092342.084519011899829, 7036622.79616473428905 ], [ 5092347.046765302307904, 7036622.79616473428905 ], [ 5092347.046765302307904, 7036620.315041588619351 ], [ 5092354.490134737454355, 7036620.315041588619351 ], [ 5092354.490134737454355, 7036617.833918443880975 ], [ 5092371.857996753416955, 7036617.833918443880975 ], [ 5092371.857996753416955, 7036615.352795298211277 ], [ 5092394.188105059787631, 7036615.352795298211277 ], [ 5092394.188105059787631, 7036612.8716721534729 ], [ 5092411.555967075750232, 7036612.8716721534729 ], [ 5092411.555967075750232, 7036610.390549007803202 ], [ 5092426.442705946043134, 7036610.390549007803202 ], [ 5092426.442705946043134, 7036607.909425863064826 ], [ 5092448.772814252413809, 7036607.909425863064826 ], [ 5092448.772814252413809, 7036610.390549007803202 ], [ 5092463.659553123638034, 7036610.390549007803202 ], [ 5092463.659553123638034, 7036612.8716721534729 ], [ 5092476.06516884919256, 7036612.8716721534729 ], [ 5092476.06516884919256, 7036615.352795298211277 ], [ 5092495.914154010824859, 7036615.352795298211277 ], [ 5092495.914154010824859, 7036617.833918443880975 ], [ 5092505.838646590709686, 7036617.833918443880975 ], [ 5092505.838646590709686, 7036620.315041588619351 ], [ 5092510.800892881117761, 7036620.315041588619351 ], [ 5092510.800892881117761, 7036622.79616473428905 ], [ 5092518.244262317195535, 7036622.79616473428905 ], [ 5092518.244262317195535, 7036625.277287879027426 ], [ 5092520.725385461933911, 7036625.277287879027426 ], [ 5092520.725385461933911, 7036630.239534169435501 ], [ 5092523.206508606672287, 7036630.239534169435501 ], [ 5092523.206508606672287, 7036632.720657314173877 ], [ 5092525.687631752341986, 7036632.720657314173877 ], [ 5092525.687631752341986, 7036635.201780459843576 ], [ 5092528.168754897080362, 7036635.201780459843576 ], [ 5092528.168754897080362, 7036637.682903604581952 ], [ 5092530.649878042750061, 7036637.682903604581952 ], [ 5092530.649878042750061, 7036640.164026750251651 ], [ 5092535.612124333158135, 7036640.164026750251651 ], [ 5092535.612124333158135, 7036642.645149894990027 ], [ 5092538.093247477896512, 7036642.645149894990027 ], [ 5092538.093247477896512, 7036645.126273039728403 ], [ 5092543.055493768304586, 7036645.126273039728403 ], [ 5092543.055493768304586, 7036647.607396185398102 ], [ 5092548.017740058712661, 7036647.607396185398102 ], [ 5092548.017740058712661, 7036650.088519330136478 ], [ 5092552.979986349120736, 7036650.088519330136478 ], [ 5092552.979986349120736, 7036652.569642475806177 ], [ 5092557.942232638597488, 7036652.569642475806177 ], [ 5092557.942232638597488, 7036655.050765620544553 ], [ 5092560.423355784267187, 7036655.050765620544553 ], [ 5092560.423355784267187, 7036657.531888766214252 ], [ 5092562.904478929005563, 7036657.531888766214252 ], [ 5092562.904478929005563, 7036660.013011910952628 ], [ 5092565.385602074675262, 7036660.013011910952628 ], [ 5092565.385602074675262, 7036662.494135056622326 ], [ 5092567.866725219413638, 7036662.494135056622326 ], [ 5092567.866725219413638, 7036667.456381346099079 ], [ 5092570.347848365083337, 7036667.456381346099079 ], [ 5092570.347848365083337, 7036674.899750782176852 ], [ 5092572.828971509821713, 7036674.899750782176852 ], [ 5092572.828971509821713, 7036684.824243362061679 ], [ 5092575.310094655491412, 7036684.824243362061679 ], [ 5092575.310094655491412, 7036692.267612798139453 ], [ 5092577.791217800229788, 7036692.267612798139453 ], [ 5092577.791217800229788, 7036697.229859088547528 ], [ 5092580.272340944968164, 7036697.229859088547528 ], [ 5092580.272340944968164, 7036704.673228523693979 ], [ 5092582.753464090637863, 7036704.673228523693979 ], [ 5092582.753464090637863, 7036709.635474814102054 ], [ 5092585.234587235376239, 7036709.635474814102054 ], [ 5092585.234587235376239, 7036714.597721104510128 ], [ 5092587.715710381045938, 7036714.597721104510128 ], [ 5092587.715710381045938, 7036722.041090539656579 ], [ 5092590.196833525784314, 7036722.041090539656579 ], [ 5092590.196833525784314, 7036729.48445997480303 ], [ 5092592.677956671454012, 7036729.48445997480303 ], [ 5092592.677956671454012, 7036759.257937716320157 ], [ 5092595.159079816192389, 7036759.257937716320157 ], [ 5092595.159079816192389, 7036803.918154329061508 ], [ 5092592.677956671454012, 7036803.918154329061508 ], [ 5092592.677956671454012, 7036813.842646909877658 ], [ 5092590.196833525784314, 7036813.842646909877658 ], [ 5092590.196833525784314, 7036826.248262635432184 ], [ 5092587.715710381045938, 7036826.248262635432184 ], [ 5092587.715710381045938, 7036851.059494087472558 ], [ 5092590.196833525784314, 7036851.059494087472558 ], [ 5092590.196833525784314, 7036856.02174037694931 ], [ 5092587.715710381045938, 7036856.02174037694931 ], [ 5092587.715710381045938, 7036863.465109813027084 ], [ 5092585.234587235376239, 7036863.465109813027084 ], [ 5092585.234587235376239, 7036865.94623295776546 ], [ 5092582.753464090637863, 7036865.94623295776546 ], [ 5092582.753464090637863, 7036868.427356103435159 ], [ 5092580.272340944968164, 7036868.427356103435159 ], [ 5092580.272340944968164, 7036870.908479248173535 ], [ 5092577.791217800229788, 7036870.908479248173535 ], [ 5092577.791217800229788, 7036873.389602392911911 ], [ 5092575.310094655491412, 7036873.389602392911911 ], [ 5092575.310094655491412, 7036875.87072553858161 ], [ 5092572.828971509821713, 7036875.87072553858161 ], [ 5092572.828971509821713, 7036878.351848683319986 ], [ 5092570.347848365083337, 7036878.351848683319986 ], [ 5092570.347848365083337, 7036883.314094973728061 ], [ 5092567.866725219413638, 7036883.314094973728061 ], [ 5092567.866725219413638, 7036885.795218119397759 ], [ 5092562.904478929005563, 7036885.795218119397759 ], [ 5092562.904478929005563, 7036888.276341264136136 ], [ 5092560.423355784267187, 7036888.276341264136136 ], [ 5092560.423355784267187, 7036890.757464408874512 ], [ 5092555.461109493859112, 7036890.757464408874512 ], [ 5092555.461109493859112, 7036893.23858755454421 ], [ 5092548.017740058712661, 7036893.23858755454421 ], [ 5092548.017740058712661, 7036895.719710699282587 ], [ 5092540.574370622634888, 7036895.719710699282587 ], [ 5092540.574370622634888, 7036898.200833844952285 ], [ 5092533.131001187488437, 7036898.200833844952285 ], [ 5092533.131001187488437, 7036900.681956989690661 ], [ 5092528.168754897080362, 7036900.681956989690661 ], [ 5092528.168754897080362, 7036903.16308013536036 ], [ 5092525.687631752341986, 7036903.16308013536036 ], [ 5092525.687631752341986, 7036905.644203280098736 ], [ 5092520.725385461933911, 7036905.644203280098736 ], [ 5092520.725385461933911, 7036908.125326424837112 ], [ 5092518.244262317195535, 7036908.125326424837112 ], [ 5092518.244262317195535, 7036910.606449570506811 ], [ 5092513.28201602678746, 7036910.606449570506811 ], [ 5092513.28201602678746, 7036913.087572715245187 ], [ 5092510.800892881117761, 7036913.087572715245187 ], [ 5092510.800892881117761, 7036915.568695860914886 ], [ 5092505.838646590709686, 7036915.568695860914886 ], [ 5092505.838646590709686, 7036918.049819005653262 ], [ 5092503.35752344597131, 7036918.049819005653262 ], [ 5092503.35752344597131, 7036920.530942151322961 ], [ 5092500.876400300301611, 7036920.530942151322961 ], [ 5092500.876400300301611, 7036923.012065296061337 ], [ 5092498.395277155563235, 7036923.012065296061337 ], [ 5092498.395277155563235, 7036927.974311586469412 ], [ 5092495.914154010824859, 7036927.974311586469412 ], [ 5092495.914154010824859, 7036930.455434731207788 ], [ 5092493.43303086515516, 7036930.455434731207788 ], [ 5092493.43303086515516, 7036935.417681021615863 ], [ 5092490.951907720416784, 7036935.417681021615863 ], [ 5092490.951907720416784, 7036940.379927312023938 ], [ 5092488.470784574747086, 7036940.379927312023938 ], [ 5092488.470784574747086, 7036947.823296747170389 ], [ 5092485.989661430008709, 7036947.823296747170389 ], [ 5092485.989661430008709, 7036955.266666183248162 ], [ 5092483.508538284339011, 7036955.266666183248162 ], [ 5092483.508538284339011, 7036962.710035618394613 ], [ 5092481.027415139600635, 7036962.710035618394613 ], [ 5092481.027415139600635, 7036975.115651343949139 ], [ 5092478.546291994862258, 7036975.115651343949139 ], [ 5092478.546291994862258, 7037024.738114247098565 ], [ 5092476.06516884919256, 7037024.738114247098565 ], [ 5092476.06516884919256, 7037034.662606827914715 ], [ 5092473.584045704454184, 7037034.662606827914715 ], [ 5092473.584045704454184, 7037037.143729972653091 ], [ 5092471.102922558784485, 7037037.143729972653091 ], [ 5092471.102922558784485, 7037042.105976263061166 ], [ 5092468.621799414046109, 7037042.105976263061166 ], [ 5092468.621799414046109, 7037044.587099407799542 ], [ 5092463.659553123638034, 7037044.587099407799542 ], [ 5092463.659553123638034, 7037047.068222553469241 ], [ 5092461.178429978899658, 7037047.068222553469241 ], [ 5092461.178429978899658, 7037049.549345698207617 ], [ 5092458.697306833229959, 7037049.549345698207617 ], [ 5092458.697306833229959, 7037052.030468843877316 ], [ 5092456.216183688491583, 7037052.030468843877316 ], [ 5092456.216183688491583, 7037054.511591988615692 ], [ 5092451.253937398083508, 7037054.511591988615692 ], [ 5092451.253937398083508, 7037056.99271513428539 ], [ 5092448.772814252413809, 7037056.99271513428539 ], [ 5092448.772814252413809, 7037059.473838279023767 ], [ 5092446.291691107675433, 7037059.473838279023767 ], [ 5092446.291691107675433, 7037061.954961423762143 ], [ 5092443.810567962937057, 7037061.954961423762143 ], [ 5092443.810567962937057, 7037064.436084569431841 ], [ 5092441.329444817267358, 7037064.436084569431841 ], [ 5092441.329444817267358, 7037066.917207714170218 ], [ 5092438.848321672528982, 7037066.917207714170218 ], [ 5092438.848321672528982, 7037069.398330859839916 ], [ 5092433.886075382120907, 7037069.398330859839916 ], [ 5092433.886075382120907, 7037071.879454004578292 ], [ 5092431.404952236451209, 7037071.879454004578292 ], [ 5092431.404952236451209, 7037074.360577150247991 ], [ 5092423.961582801304758, 7037074.360577150247991 ], [ 5092423.961582801304758, 7037076.841700294986367 ], [ 5092416.518213366158307, 7037076.841700294986367 ], [ 5092416.518213366158307, 7037079.322823439724743 ], [ 5092406.593720785342157, 7037079.322823439724743 ], [ 5092406.593720785342157, 7037081.803946585394442 ], [ 5092396.669228204526007, 7037081.803946585394442 ], [ 5092396.669228204526007, 7037084.285069730132818 ], [ 5092371.857996753416955, 7037084.285069730132818 ] ] ] } }
]
}
