{
"type": "FeatureCollection",
"name": "pred_захламление_hn_tile008",
"crs": { "type": "name", "properties": { "name": "urn:ogc:def:crs:EPSG::3857" } },
"features": [
{ "type": "Feature", "properties": { "class": 1 }, "geometry": { "type": "Polygon", "coordinates": [ [ [ 6082818.627205074764788, 7970548.436588805168867 ], [ 6082818.627205074764788, 7970545.814900209195912 ], [ 6082813.3838278837502, 7970545.814900209195912 ], [ 6082813.3838278837502, 7970543.193211614154279 ], [ 6082810.762139287777245, 7970543.193211614154279 ], [ 6082810.762139287777245, 7970540.571523018181324 ], [ 6082808.14045069180429, 7970540.571523018181324 ], [ 6082808.14045069180429, 7970537.949834422208369 ], [ 6082805.518762096762657, 7970537.949834422208369 ], [ 6082805.518762096762657, 7970535.328145827166736 ], [ 6082802.897073500789702, 7970535.328145827166736 ], [ 6082802.897073500789702, 7970532.706457231193781 ], [ 6082800.275384904816747, 7970532.706457231193781 ], [ 6082800.275384904816747, 7970530.084768635220826 ], [ 6082795.032007713802159, 7970530.084768635220826 ], [ 6082795.032007713802159, 7970527.46308003924787 ], [ 6082792.410319117829204, 7970527.46308003924787 ], [ 6082792.410319117829204, 7970524.841391444206238 ], [ 6082789.788630521856248, 7970524.841391444206238 ], [ 6082789.788630521856248, 7970522.219702848233283 ], [ 6082784.54525333084166, 7970522.219702848233283 ], [ 6082784.54525333084166, 7970519.598014252260327 ], [ 6082779.301876139827073, 7970519.598014252260327 ], [ 6082779.301876139827073, 7970516.976325657218695 ], [ 6082774.058498947881162, 7970516.976325657218695 ], [ 6082774.058498947881162, 7970514.354637061245739 ], [ 6082768.815121756866574, 7970514.354637061245739 ], [ 6082768.815121756866574, 7970511.732948465272784 ], [ 6082766.193433160893619, 7970511.732948465272784 ], [ 6082766.193433160893619, 7970509.111259870231152 ], [ 6082760.950055969879031, 7970509.111259870231152 ], [ 6082760.950055969879031, 7970506.489571274258196 ], [ 6082758.328367373906076, 7970506.489571274258196 ], [ 6082758.328367373906076, 7970501.246194082312286 ], [ 6082755.706678777933121, 7970501.246194082312286 ], [ 6082755.706678777933121, 7970496.002816891297698 ], [ 6082753.084990182891488, 7970496.002816891297698 ], [ 6082753.084990182891488, 7970482.894373913295567 ], [ 6082750.463301586918533, 7970482.894373913295567 ], [ 6082750.463301586918533, 7970461.92086514737457 ], [ 6082747.841612990945578, 7970461.92086514737457 ], [ 6082747.841612990945578, 7970433.082290594466031 ], [ 6082750.463301586918533, 7970433.082290594466031 ], [ 6082750.463301586918533, 7970412.108781829476357 ], [ 6082753.084990182891488, 7970412.108781829476357 ], [ 6082753.084990182891488, 7970399.000338850542903 ], [ 6082750.463301586918533, 7970399.000338850542903 ], [ 6082750.463301586918533, 7970378.026830085553229 ], [ 6082747.841612990945578, 7970378.026830085553229 ], [ 6082747.841612990945578, 7970359.675009915605187 ], [ 6082750.463301586918533, 7970359.675009915605187 ], [ 6082750.463301586918533, 7970325.59305817168206 ], [ 6082753.084990182891488, 7970325.59305817168206 ], [ 6082753.084990182891488, 7970301.997860809788108 ], [ 6082750.463301586918533, 7970301.997860809788108 ], [ 6082750.463301586918533, 7970288.889417831785977 ], [ 6082747.841612990945578, 7970288.889417831785977 ], [ 6082747.841612990945578, 7970262.672531874850392 ], [ 6082750.463301586918533, 7970262.672531874850392 ], [ 6082750.463301586918533, 7970249.564088896848261 ], [ 6082753.084990182891488, 7970249.564088896848261 ], [ 6082753.084990182891488, 7970239.077334513887763 ], [ 6082755.706678777933121, 7970239.077334513887763 ], [ 6082755.706678777933121, 7970231.21226872690022 ], [ 6082758.328367373906076, 7970231.21226872690022 ], [ 6082758.328367373906076, 7970223.347202939912677 ], [ 6082760.950055969879031, 7970223.347202939912677 ], [ 6082760.950055969879031, 7970215.482137151993811 ], [ 6082763.571744564920664, 7970215.482137151993811 ], [ 6082763.571744564920664, 7970207.617071365006268 ], [ 6082766.193433160893619, 7970207.617071365006268 ], [ 6082766.193433160893619, 7970194.508628387004137 ], [ 6082768.815121756866574, 7970194.508628387004137 ], [ 6082768.815121756866574, 7970186.643562600016594 ], [ 6082766.193433160893619, 7970186.643562600016594 ], [ 6082766.193433160893619, 7970176.156808217056096 ], [ 6082763.571744564920664, 7970176.156808217056096 ], [ 6082763.571744564920664, 7970170.913431026041508 ], [ 6082760.950055969879031, 7970170.913431026041508 ], [ 6082760.950055969879031, 7970163.048365239053965 ], [ 6082758.328367373906076, 7970163.048365239053965 ], [ 6082758.328367373906076, 7970155.183299451135099 ], [ 6082755.706678777933121, 7970155.183299451135099 ], [ 6082755.706678777933121, 7970118.479659112170339 ], [ 6082758.328367373906076, 7970118.479659112170339 ], [ 6082758.328367373906076, 7970094.884461750276387 ], [ 6082760.950055969879031, 7970094.884461750276387 ], [ 6082760.950055969879031, 7970071.289264389313757 ], [ 6082763.571744564920664, 7970071.289264389313757 ], [ 6082763.571744564920664, 7970063.424198602326214 ], [ 6082766.193433160893619, 7970063.424198602326214 ], [ 6082766.193433160893619, 7970058.180821411311626 ], [ 6082768.815121756866574, 7970058.180821411311626 ], [ 6082768.815121756866574, 7970052.937444219365716 ], [ 6082771.43681035283953, 7970052.937444219365716 ], [ 6082771.43681035283953, 7970047.694067028351128 ], [ 6082774.058498947881162, 7970047.694067028351128 ], [ 6082774.058498947881162, 7970042.450689836405218 ], [ 6082776.680187543854117, 7970042.450689836405218 ], [ 6082776.680187543854117, 7970039.829001241363585 ], [ 6082779.301876139827073, 7970039.829001241363585 ], [ 6082779.301876139827073, 7970037.20731264539063 ], [ 6082781.923564734868705, 7970037.20731264539063 ], [ 6082781.923564734868705, 7970034.585624049417675 ], [ 6082784.54525333084166, 7970034.585624049417675 ], [ 6082784.54525333084166, 7970031.963935454376042 ], [ 6082787.166941926814616, 7970031.963935454376042 ], [ 6082787.166941926814616, 7970026.720558262430131 ], [ 6082789.788630521856248, 7970026.720558262430131 ], [ 6082789.788630521856248, 7970024.098869667388499 ], [ 6082792.410319117829204, 7970024.098869667388499 ], [ 6082792.410319117829204, 7970010.990426688455045 ], [ 6082789.788630521856248, 7970010.990426688455045 ], [ 6082789.788630521856248, 7970008.36873809248209 ], [ 6082787.166941926814616, 7970008.36873809248209 ], [ 6082787.166941926814616, 7970003.125360901467502 ], [ 6082784.54525333084166, 7970003.125360901467502 ], [ 6082784.54525333084166, 7969992.638606518507004 ], [ 6082787.166941926814616, 7969992.638606518507004 ], [ 6082787.166941926814616, 7969987.395229327492416 ], [ 6082789.788630521856248, 7969987.395229327492416 ], [ 6082789.788630521856248, 7969984.773540731519461 ], [ 6082792.410319117829204, 7969984.773540731519461 ], [ 6082792.410319117829204, 7969982.151852135546505 ], [ 6082797.653696308843791, 7969982.151852135546505 ], [ 6082797.653696308843791, 7969979.530163540504873 ], [ 6082805.518762096762657, 7969979.530163540504873 ], [ 6082805.518762096762657, 7969976.908474944531918 ], [ 6082842.222402435727417, 7969976.908474944531918 ], [ 6082842.222402435727417, 7969974.286786348558962 ], [ 6082863.195911201648414, 7969974.286786348558962 ], [ 6082863.195911201648414, 7969971.66509775351733 ], [ 6082889.412797158583999, 7969971.66509775351733 ], [ 6082889.412797158583999, 7969974.286786348558962 ], [ 6082902.52124013658613, 7969974.286786348558962 ], [ 6082902.52124013658613, 7969976.908474944531918 ], [ 6082907.76461732853204, 7969976.908474944531918 ], [ 6082907.76461732853204, 7969979.530163540504873 ], [ 6082913.007994519546628, 7969979.530163540504873 ], [ 6082913.007994519546628, 7969982.151852135546505 ], [ 6082915.629683115519583, 7969982.151852135546505 ], [ 6082915.629683115519583, 7969984.773540731519461 ], [ 6082918.251371711492538, 7969984.773540731519461 ], [ 6082918.251371711492538, 7969987.395229327492416 ], [ 6082920.873060306534171, 7969987.395229327492416 ], [ 6082920.873060306534171, 7969990.016917923465371 ], [ 6082923.494748902507126, 7969990.016917923465371 ], [ 6082923.494748902507126, 7969992.638606518507004 ], [ 6082926.116437498480082, 7969992.638606518507004 ], [ 6082926.116437498480082, 7969995.260295114479959 ], [ 6082928.738126093521714, 7969995.260295114479959 ], [ 6082928.738126093521714, 7969997.881983710452914 ], [ 6082931.359814689494669, 7969997.881983710452914 ], [ 6082931.359814689494669, 7970000.503672305494547 ], [ 6082936.603191880509257, 7970000.503672305494547 ], [ 6082936.603191880509257, 7970003.125360901467502 ], [ 6082941.846569072455168, 7970003.125360901467502 ], [ 6082941.846569072455168, 7970005.747049497440457 ], [ 6082944.468257668428123, 7970005.747049497440457 ], [ 6082944.468257668428123, 7970008.36873809248209 ], [ 6082949.711634859442711, 7970008.36873809248209 ], [ 6082949.711634859442711, 7970010.990426688455045 ], [ 6082957.576700646430254, 7970010.990426688455045 ], [ 6082957.576700646430254, 7970013.612115284428 ], [ 6082970.685143625363708, 7970013.612115284428 ], [ 6082970.685143625363708, 7970016.233803879469633 ], [ 6082981.171898007392883, 7970016.233803879469633 ], [ 6082981.171898007392883, 7970018.855492475442588 ], [ 6082989.036963794380426, 7970018.855492475442588 ], [ 6082989.036963794380426, 7970021.477181071415544 ], [ 6082994.280340986326337, 7970021.477181071415544 ], [ 6082994.280340986326337, 7970024.098869667388499 ], [ 6083002.14540677331388, 7970024.098869667388499 ], [ 6083002.14540677331388, 7970026.720558262430131 ], [ 6083004.767095369286835, 7970026.720558262430131 ], [ 6083004.767095369286835, 7970029.342246858403087 ], [ 6083017.875538347288966, 7970029.342246858403087 ], [ 6083017.875538347288966, 7970031.963935454376042 ], [ 6083028.362292730249465, 7970031.963935454376042 ], [ 6083028.362292730249465, 7970034.585624049417675 ], [ 6083033.605669921264052, 7970034.585624049417675 ], [ 6083033.605669921264052, 7970037.20731264539063 ], [ 6083038.849047113209963, 7970037.20731264539063 ], [ 6083038.849047113209963, 7970039.829001241363585 ], [ 6083041.470735708251595, 7970039.829001241363585 ], [ 6083041.470735708251595, 7970042.450689836405218 ], [ 6083046.714112900197506, 7970042.450689836405218 ], [ 6083046.714112900197506, 7970045.072378432378173 ], [ 6083049.335801495239139, 7970045.072378432378173 ], [ 6083049.335801495239139, 7970047.694067028351128 ], [ 6083054.579178687185049, 7970047.694067028351128 ], [ 6083054.579178687185049, 7970050.315755624324083 ], [ 6083057.200867283158004, 7970050.315755624324083 ], [ 6083057.200867283158004, 7970052.937444219365716 ], [ 6083062.444244474172592, 7970052.937444219365716 ], [ 6083062.444244474172592, 7970055.559132815338671 ], [ 6083067.68762166518718, 7970055.559132815338671 ], [ 6083067.68762166518718, 7970058.180821411311626 ], [ 6083072.93099885713309, 7970058.180821411311626 ], [ 6083072.93099885713309, 7970060.802510006353259 ], [ 6083080.796064644120634, 7970060.802510006353259 ], [ 6083080.796064644120634, 7970063.424198602326214 ], [ 6083083.417753240093589, 7970063.424198602326214 ], [ 6083083.417753240093589, 7970066.04588719829917 ], [ 6083086.039441835135221, 7970066.04588719829917 ], [ 6083086.039441835135221, 7970068.667575793340802 ], [ 6083088.661130431108177, 7970068.667575793340802 ], [ 6083088.661130431108177, 7970071.289264389313757 ], [ 6083091.282819027081132, 7970071.289264389313757 ], [ 6083091.282819027081132, 7970073.910952985286713 ], [ 6083093.904507622122765, 7970073.910952985286713 ], [ 6083093.904507622122765, 7970079.154330176301301 ], [ 6083096.52619621809572, 7970079.154330176301301 ], [ 6083096.52619621809572, 7970081.776018772274256 ], [ 6083099.147884814068675, 7970081.776018772274256 ], [ 6083099.147884814068675, 7970084.397707368247211 ], [ 6083101.769573409110308, 7970084.397707368247211 ], [ 6083101.769573409110308, 7970089.641084559261799 ], [ 6083104.391262005083263, 7970089.641084559261799 ], [ 6083104.391262005083263, 7970094.884461750276387 ], [ 6083107.012950601056218, 7970094.884461750276387 ], [ 6083107.012950601056218, 7970100.127838942222297 ], [ 6083109.634639196097851, 7970100.127838942222297 ], [ 6083109.634639196097851, 7970102.749527538195252 ], [ 6083112.256327792070806, 7970102.749527538195252 ], [ 6083112.256327792070806, 7970107.99290472920984 ], [ 6083114.878016388043761, 7970107.99290472920984 ], [ 6083114.878016388043761, 7970115.857970516197383 ], [ 6083117.499704984016716, 7970115.857970516197383 ], [ 6083117.499704984016716, 7970121.101347707211971 ], [ 6083120.121393579058349, 7970121.101347707211971 ], [ 6083120.121393579058349, 7970126.344724899157882 ], [ 6083122.743082175031304, 7970126.344724899157882 ], [ 6083122.743082175031304, 7970131.58810209017247 ], [ 6083125.36477077100426, 7970131.58810209017247 ], [ 6083125.36477077100426, 7970142.074856473132968 ], [ 6083127.986459366045892, 7970142.074856473132968 ], [ 6083127.986459366045892, 7970163.048365239053965 ], [ 6083125.36477077100426, 7970163.048365239053965 ], [ 6083125.36477077100426, 7970189.265251195989549 ], [ 6083122.743082175031304, 7970189.265251195989549 ], [ 6083122.743082175031304, 7970197.130316982977092 ], [ 6083120.121393579058349, 7970197.130316982977092 ], [ 6083120.121393579058349, 7970207.617071365006268 ], [ 6083117.499704984016716, 7970207.617071365006268 ], [ 6083117.499704984016716, 7970223.347202939912677 ], [ 6083114.878016388043761, 7970223.347202939912677 ], [ 6083114.878016388043761, 7970231.21226872690022 ], [ 6083112.256327792070806, 7970231.21226872690022 ], [ 6083112.256327792070806, 7970239.077334513887763 ], [ 6083109.634639196097851, 7970239.077334513887763 ], [ 6083109.634639196097851, 7970246.942400300875306 ], [ 6083107.012950601056218, 7970246.942400300875306 ], [ 6083107.012950601056218, 7970252.185777491889894 ], [ 6083104.391262005083263, 7970252.185777491889894 ], [ 6083104.391262005083263, 7970260.050843278877437 ], [ 6083101.769573409110308, 7970260.050843278877437 ], [ 6083101.769573409110308, 7970265.294220470823348 ], [ 6083099.147884814068675, 7970265.294220470823348 ], [ 6083099.147884814068675, 7970273.159286257810891 ], [ 6083096.52619621809572, 7970273.159286257810891 ], [ 6083096.52619621809572, 7970278.402663448825479 ], [ 6083093.904507622122765, 7970278.402663448825479 ], [ 6083093.904507622122765, 7970281.024352044798434 ], [ 6083091.282819027081132, 7970281.024352044798434 ], [ 6083091.282819027081132, 7970283.646040640771389 ], [ 6083088.661130431108177, 7970283.646040640771389 ], [ 6083088.661130431108177, 7970288.889417831785977 ], [ 6083086.039441835135221, 7970288.889417831785977 ], [ 6083086.039441835135221, 7970294.132795022800565 ], [ 6083083.417753240093589, 7970294.132795022800565 ], [ 6083083.417753240093589, 7970296.75448361877352 ], [ 6083080.796064644120634, 7970296.75448361877352 ], [ 6083080.796064644120634, 7970299.376172214746475 ], [ 6083078.174376048147678, 7970299.376172214746475 ], [ 6083078.174376048147678, 7970304.619549405761063 ], [ 6083075.552687452174723, 7970304.619549405761063 ], [ 6083075.552687452174723, 7970307.241238001734018 ], [ 6083072.93099885713309, 7970307.241238001734018 ], [ 6083072.93099885713309, 7970309.862926597706974 ], [ 6083070.309310261160135, 7970309.862926597706974 ], [ 6083070.309310261160135, 7970312.484615192748606 ], [ 6083065.065933070145547, 7970312.484615192748606 ], [ 6083065.065933070145547, 7970317.727992384694517 ], [ 6083062.444244474172592, 7970317.727992384694517 ], [ 6083062.444244474172592, 7970322.971369575709105 ], [ 6083059.822555878199637, 7970322.971369575709105 ], [ 6083059.822555878199637, 7970325.59305817168206 ], [ 6083057.200867283158004, 7970325.59305817168206 ], [ 6083057.200867283158004, 7970328.214746766723692 ], [ 6083051.957490091212094, 7970328.214746766723692 ], [ 6083051.957490091212094, 7970330.836435362696648 ], [ 6083049.335801495239139, 7970330.836435362696648 ], [ 6083049.335801495239139, 7970333.458123958669603 ], [ 6083044.092424304224551, 7970333.458123958669603 ], [ 6083044.092424304224551, 7970336.079812554642558 ], [ 6083038.849047113209963, 7970336.079812554642558 ], [ 6083038.849047113209963, 7970338.701501149684191 ], [ 6083030.98398132622242, 7970338.701501149684191 ], [ 6083030.98398132622242, 7970341.323189745657146 ], [ 6083023.118915538303554, 7970341.323189745657146 ], [ 6083023.118915538303554, 7970343.944878341630101 ], [ 6083020.497226943261921, 7970343.944878341630101 ], [ 6083020.497226943261921, 7970346.566566936671734 ], [ 6083015.253849751316011, 7970346.566566936671734 ], [ 6083015.253849751316011, 7970349.188255532644689 ], [ 6083012.632161156274378, 7970349.188255532644689 ], [ 6083012.632161156274378, 7970351.809944128617644 ], [ 6083007.388783964328468, 7970351.809944128617644 ], [ 6083007.388783964328468, 7970354.431632723659277 ], [ 6083004.767095369286835, 7970354.431632723659277 ], [ 6083004.767095369286835, 7970357.053321319632232 ], [ 6082999.523718177340925, 7970357.053321319632232 ], [ 6082999.523718177340925, 7970359.675009915605187 ], [ 6082996.90202958136797, 7970359.675009915605187 ], [ 6082996.90202958136797, 7970362.296698511578143 ], [ 6082991.658652390353382, 7970362.296698511578143 ], [ 6082991.658652390353382, 7970364.918387106619775 ], [ 6082986.415275199338794, 7970364.918387106619775 ], [ 6082986.415275199338794, 7970367.540075702592731 ], [ 6082983.793586603365839, 7970367.540075702592731 ], [ 6082983.793586603365839, 7970370.161764298565686 ], [ 6082981.171898007392883, 7970370.161764298565686 ], [ 6082981.171898007392883, 7970372.783452893607318 ], [ 6082978.550209412351251, 7970372.783452893607318 ], [ 6082978.550209412351251, 7970375.405141489580274 ], [ 6082975.928520816378295, 7970375.405141489580274 ], [ 6082975.928520816378295, 7970378.026830085553229 ], [ 6082973.30683222040534, 7970378.026830085553229 ], [ 6082973.30683222040534, 7970380.648518680594862 ], [ 6082970.685143625363708, 7970380.648518680594862 ], [ 6082970.685143625363708, 7970385.891895872540772 ], [ 6082968.063455029390752, 7970385.891895872540772 ], [ 6082968.063455029390752, 7970391.13527306355536 ], [ 6082965.441766433417797, 7970391.13527306355536 ], [ 6082965.441766433417797, 7970396.37865025550127 ], [ 6082962.820077837444842, 7970396.37865025550127 ], [ 6082962.820077837444842, 7970409.487093233503401 ], [ 6082960.198389242403209, 7970409.487093233503401 ], [ 6082960.198389242403209, 7970425.217224807478487 ], [ 6082957.576700646430254, 7970425.217224807478487 ], [ 6082957.576700646430254, 7970438.325667786411941 ], [ 6082954.955012050457299, 7970438.325667786411941 ], [ 6082954.955012050457299, 7970443.569044977426529 ], [ 6082952.333323455415666, 7970443.569044977426529 ], [ 6082952.333323455415666, 7970446.190733573399484 ], [ 6082949.711634859442711, 7970446.190733573399484 ], [ 6082949.711634859442711, 7970451.434110764414072 ], [ 6082947.089946263469756, 7970451.434110764414072 ], [ 6082947.089946263469756, 7970456.677487956359982 ], [ 6082944.468257668428123, 7970456.677487956359982 ], [ 6082944.468257668428123, 7970459.299176551401615 ], [ 6082941.846569072455168, 7970459.299176551401615 ], [ 6082941.846569072455168, 7970461.92086514737457 ], [ 6082936.603191880509257, 7970461.92086514737457 ], [ 6082936.603191880509257, 7970464.542553743347526 ], [ 6082931.359814689494669, 7970464.542553743347526 ], [ 6082931.359814689494669, 7970467.164242338389158 ], [ 6082923.494748902507126, 7970467.164242338389158 ], [ 6082923.494748902507126, 7970469.785930934362113 ], [ 6082913.007994519546628, 7970469.785930934362113 ], [ 6082913.007994519546628, 7970472.407619530335069 ], [ 6082905.142928732559085, 7970472.407619530335069 ], [ 6082905.142928732559085, 7970475.029308126308024 ], [ 6082892.034485754556954, 7970475.029308126308024 ], [ 6082892.034485754556954, 7970477.650996721349657 ], [ 6082884.169419967569411, 7970477.650996721349657 ], [ 6082884.169419967569411, 7970480.272685317322612 ], [ 6082878.9260427756235, 7970480.272685317322612 ], [ 6082878.9260427756235, 7970482.894373913295567 ], [ 6082876.304354179650545, 7970482.894373913295567 ], [ 6082876.304354179650545, 7970485.5160625083372 ], [ 6082873.682665584608912, 7970485.5160625083372 ], [ 6082873.682665584608912, 7970488.137751104310155 ], [ 6082871.060976988635957, 7970488.137751104310155 ], [ 6082871.060976988635957, 7970490.75943970028311 ], [ 6082868.439288392663002, 7970490.75943970028311 ], [ 6082868.439288392663002, 7970496.002816891297698 ], [ 6082865.817599797621369, 7970496.002816891297698 ], [ 6082865.817599797621369, 7970498.624505487270653 ], [ 6082863.195911201648414, 7970498.624505487270653 ], [ 6082863.195911201648414, 7970501.246194082312286 ], [ 6082860.574222605675459, 7970501.246194082312286 ], [ 6082860.574222605675459, 7970506.489571274258196 ], [ 6082857.952534010633826, 7970506.489571274258196 ], [ 6082857.952534010633826, 7970511.732948465272784 ], [ 6082855.330845414660871, 7970511.732948465272784 ], [ 6082855.330845414660871, 7970516.976325657218695 ], [ 6082852.709156818687916, 7970516.976325657218695 ], [ 6082852.709156818687916, 7970522.219702848233283 ], [ 6082850.087468222714961, 7970522.219702848233283 ], [ 6082850.087468222714961, 7970524.841391444206238 ], [ 6082847.465779627673328, 7970524.841391444206238 ], [ 6082847.465779627673328, 7970530.084768635220826 ], [ 6082844.844091031700373, 7970530.084768635220826 ], [ 6082844.844091031700373, 7970535.328145827166736 ], [ 6082842.222402435727417, 7970535.328145827166736 ], [ 6082842.222402435727417, 7970537.949834422208369 ], [ 6082839.600713840685785, 7970537.949834422208369 ], [ 6082839.600713840685785, 7970540.571523018181324 ], [ 6082834.357336648739874, 7970540.571523018181324 ], [ 6082834.357336648739874, 7970543.193211614154279 ], [ 6082831.735648053698242, 7970543.193211614154279 ], [ 6082831.735648053698242, 7970545.814900209195912 ], [ 6082823.870582265779376, 7970545.814900209195912 ], [ 6082823.870582265779376, 7970548.436588805168867 ], [ 6082818.627205074764788, 7970548.436588805168867 ] ] ] } }
]
}
