{
"type": "FeatureCollection",
"name": "pred_захламление_hn_tile006",
"crs": { "type": "name", "properties": { "name": "urn:ogc:def:crs:EPSG::3857" } },
"features": [
{ "type": "Feature", "properties": { "class": 1 }, "geometry": { "type": "Polygon", "coordinates": [ [ [ 4098007.58579332055524, 7629666.343443966470659 ], [ 4098007.58579332055524, 7629661.210545121692121 ], [ 4098005.019343898165971, 7629661.210545121692121 ], [ 4098005.019343898165971, 7629653.511196854524314 ], [ 4098007.58579332055524, 7629653.511196854524314 ], [ 4098007.58579332055524, 7629650.944747432135046 ], [ 4098010.152242742944509, 7629650.944747432135046 ], [ 4098010.152242742944509, 7629648.378298009745777 ], [ 4098015.285141587723047, 7629648.378298009745777 ], [ 4098015.285141587723047, 7629643.245399164967239 ], [ 4098017.851591010112315, 7629643.245399164967239 ], [ 4098017.851591010112315, 7629640.67894974257797 ], [ 4098022.984489854425192, 7629640.67894974257797 ], [ 4098022.984489854425192, 7629638.112500320188701 ], [ 4098028.11738869920373, 7629638.112500320188701 ], [ 4098028.11738869920373, 7629640.67894974257797 ], [ 4098043.516085233539343, 7629640.67894974257797 ], [ 4098043.516085233539343, 7629643.245399164967239 ], [ 4098048.648984078317881, 7629643.245399164967239 ], [ 4098048.648984078317881, 7629645.811848587356508 ], [ 4098051.21543350070715, 7629645.811848587356508 ], [ 4098051.21543350070715, 7629650.944747432135046 ], [ 4098048.648984078317881, 7629650.944747432135046 ], [ 4098048.648984078317881, 7629656.077646276913583 ], [ 4098046.082534655928612, 7629656.077646276913583 ], [ 4098046.082534655928612, 7629658.644095699302852 ], [ 4098043.516085233539343, 7629658.644095699302852 ], [ 4098043.516085233539343, 7629661.210545121692121 ], [ 4098028.11738869920373, 7629661.210545121692121 ], [ 4098028.11738869920373, 7629663.77699454408139 ], [ 4098020.418040432501584, 7629663.77699454408139 ], [ 4098020.418040432501584, 7629666.343443966470659 ], [ 4098007.58579332055524, 7629666.343443966470659 ] ] ] } },
{ "type": "Feature", "properties": { "class": 1 }, "geometry": { "type": "Polygon", "coordinates": [ [ [ 4098156.43985981727019, 7629694.574387611821294 ], [ 4098156.43985981727019, 7629692.007938189432025 ], [ 4098151.306960972491652, 7629692.007938189432025 ], [ 4098151.306960972491652, 7629689.441488767042756 ], [ 4098146.174062127713114, 7629689.441488767042756 ], [ 4098146.174062127713114, 7629686.875039344653487 ], [ 4098143.607612705789506, 7629686.875039344653487 ], [ 4098143.607612705789506, 7629681.742140499874949 ], [ 4098141.041163283400238, 7629681.742140499874949 ], [ 4098141.041163283400238, 7629679.175691077485681 ], [ 4098120.509567904286087, 7629679.175691077485681 ], [ 4098120.509567904286087, 7629676.609241656027734 ], [ 4098117.943118481896818, 7629676.609241656027734 ], [ 4098117.943118481896818, 7629674.042792233638465 ], [ 4098112.81021963711828, 7629674.042792233638465 ], [ 4098112.81021963711828, 7629671.476342811249197 ], [ 4098107.677320792339742, 7629671.476342811249197 ], [ 4098107.677320792339742, 7629668.909893388859928 ], [ 4098105.110871369950473, 7629668.909893388859928 ], [ 4098105.110871369950473, 7629666.343443966470659 ], [ 4098102.544421948026866, 7629666.343443966470659 ], [ 4098102.544421948026866, 7629663.77699454408139 ], [ 4098097.411523103248328, 7629663.77699454408139 ], [ 4098097.411523103248328, 7629661.210545121692121 ], [ 4098094.845073680859059, 7629661.210545121692121 ], [ 4098094.845073680859059, 7629658.644095699302852 ], [ 4098089.712174836080521, 7629658.644095699302852 ], [ 4098089.712174836080521, 7629656.077646276913583 ], [ 4098087.145725413691252, 7629656.077646276913583 ], [ 4098087.145725413691252, 7629653.511196854524314 ], [ 4098084.579275991301984, 7629653.511196854524314 ], [ 4098084.579275991301984, 7629650.944747432135046 ], [ 4098082.012826568912715, 7629650.944747432135046 ], [ 4098082.012826568912715, 7629643.245399164967239 ], [ 4098087.145725413691252, 7629643.245399164967239 ], [ 4098087.145725413691252, 7629640.67894974257797 ], [ 4098097.411523103248328, 7629640.67894974257797 ], [ 4098097.411523103248328, 7629638.112500320188701 ], [ 4098112.81021963711828, 7629638.112500320188701 ], [ 4098112.81021963711828, 7629635.546050897799432 ], [ 4098117.943118481896818, 7629635.546050897799432 ], [ 4098117.943118481896818, 7629638.112500320188701 ], [ 4098130.775365593843162, 7629638.112500320188701 ], [ 4098130.775365593843162, 7629635.546050897799432 ], [ 4098138.474713861010969, 7629635.546050897799432 ], [ 4098138.474713861010969, 7629638.112500320188701 ], [ 4098171.838556351605803, 7629638.112500320188701 ], [ 4098171.838556351605803, 7629640.67894974257797 ], [ 4098182.104354041162878, 7629640.67894974257797 ], [ 4098182.104354041162878, 7629643.245399164967239 ], [ 4098200.069499997422099, 7629643.245399164967239 ], [ 4098200.069499997422099, 7629640.67894974257797 ], [ 4098230.866893065627664, 7629640.67894974257797 ], [ 4098230.866893065627664, 7629643.245399164967239 ], [ 4098235.999791910406202, 7629643.245399164967239 ], [ 4098235.999791910406202, 7629650.944747432135046 ], [ 4098238.566241332795471, 7629650.944747432135046 ], [ 4098238.566241332795471, 7629656.077646276913583 ], [ 4098235.999791910406202, 7629656.077646276913583 ], [ 4098235.999791910406202, 7629666.343443966470659 ], [ 4098233.433342488016933, 7629666.343443966470659 ], [ 4098233.433342488016933, 7629671.476342811249197 ], [ 4098230.866893065627664, 7629671.476342811249197 ], [ 4098230.866893065627664, 7629676.609241656027734 ], [ 4098228.300443643238395, 7629676.609241656027734 ], [ 4098228.300443643238395, 7629681.742140499874949 ], [ 4098223.167544798925519, 7629681.742140499874949 ], [ 4098223.167544798925519, 7629684.308589922264218 ], [ 4098220.60109537653625, 7629684.308589922264218 ], [ 4098220.60109537653625, 7629686.875039344653487 ], [ 4098212.901747109368443, 7629686.875039344653487 ], [ 4098212.901747109368443, 7629689.441488767042756 ], [ 4098187.237252885475755, 7629689.441488767042756 ], [ 4098187.237252885475755, 7629692.007938189432025 ], [ 4098182.104354041162878, 7629692.007938189432025 ], [ 4098182.104354041162878, 7629689.441488767042756 ], [ 4098176.971455196384341, 7629689.441488767042756 ], [ 4098176.971455196384341, 7629692.007938189432025 ], [ 4098169.272106929216534, 7629692.007938189432025 ], [ 4098169.272106929216534, 7629694.574387611821294 ], [ 4098156.43985981727019, 7629694.574387611821294 ] ] ] } },
{ "type": "Feature", "properties": { "class": 1 }, "geometry": { "type": "Polygon", "coordinates": [ [ [ 4097568.722942097112536, 7630153.96883421484381 ], [ 4097568.722942097112536, 7630151.402384792454541 ], [ 4097563.590043252333999, 7630151.402384792454541 ], [ 4097563.590043252333999, 7630148.835935370065272 ], [ 4097558.457144407555461, 7630148.835935370065272 ], [ 4097558.457144407555461, 7630146.269485947676003 ], [ 4097555.890694985166192, 7630146.269485947676003 ], [ 4097555.890694985166192, 7630143.703036525286734 ], [ 4097553.324245562776923, 7630143.703036525286734 ], [ 4097553.324245562776923, 7630141.136587102897465 ], [ 4097550.757796140387654, 7630141.136587102897465 ], [ 4097550.757796140387654, 7630138.570137680508196 ], [ 4097548.191346717998385, 7630138.570137680508196 ], [ 4097548.191346717998385, 7630133.437238835729659 ], [ 4097545.624897295609117, 7630133.437238835729659 ], [ 4097545.624897295609117, 7630128.304339990951121 ], [ 4097543.058447873219848, 7630128.304339990951121 ], [ 4097543.058447873219848, 7630118.038542301394045 ], [ 4097540.491998450830579, 7630118.038542301394045 ], [ 4097540.491998450830579, 7630112.905643456615508 ], [ 4097537.92554902844131, 7630112.905643456615508 ], [ 4097537.92554902844131, 7630107.77274461183697 ], [ 4097514.827504227403551, 7630107.77274461183697 ], [ 4097514.827504227403551, 7630105.206295189447701 ], [ 4097512.261054805014282, 7630105.206295189447701 ], [ 4097512.261054805014282, 7630102.639845767058432 ], [ 4097509.694605382625014, 7630102.639845767058432 ], [ 4097509.694605382625014, 7630100.073396344669163 ], [ 4097504.561706537846476, 7630100.073396344669163 ], [ 4097504.561706537846476, 7630097.506946922279894 ], [ 4097501.995257115457207, 7630097.506946922279894 ], [ 4097501.995257115457207, 7630092.374048077501357 ], [ 4097499.428807693067938, 7630092.374048077501357 ], [ 4097499.428807693067938, 7630089.807598655112088 ], [ 4097496.862358270678669, 7630089.807598655112088 ], [ 4097496.862358270678669, 7630087.241149232722819 ], [ 4097494.2959088482894, 7630087.241149232722819 ], [ 4097494.2959088482894, 7630082.108250388875604 ], [ 4097491.729459425900131, 7630082.108250388875604 ], [ 4097491.729459425900131, 7630079.541800966486335 ], [ 4097489.163010003510863, 7630079.541800966486335 ], [ 4097489.163010003510863, 7630074.408902121707797 ], [ 4097486.596560581587255, 7630074.408902121707797 ], [ 4097486.596560581587255, 7630069.276003276929259 ], [ 4097484.030111159197986, 7630069.276003276929259 ], [ 4097484.030111159197986, 7630064.143104432150722 ], [ 4097481.463661736808717, 7630064.143104432150722 ], [ 4097481.463661736808717, 7630056.443756164982915 ], [ 4097478.897212314419448, 7630056.443756164982915 ], [ 4097478.897212314419448, 7630051.310857320204377 ], [ 4097476.33076289203018, 7630051.310857320204377 ], [ 4097476.33076289203018, 7630046.177958475425839 ], [ 4097473.764313469640911, 7630046.177958475425839 ], [ 4097473.764313469640911, 7630041.045059630647302 ], [ 4097471.197864047251642, 7630041.045059630647302 ], [ 4097471.197864047251642, 7630038.478610208258033 ], [ 4097468.631414624862373, 7630038.478610208258033 ], [ 4097468.631414624862373, 7630030.779261941090226 ], [ 4097466.064965202473104, 7630030.779261941090226 ], [ 4097466.064965202473104, 7630025.646363096311688 ], [ 4097463.498515780083835, 7630025.646363096311688 ], [ 4097463.498515780083835, 7630020.513464251533151 ], [ 4097460.932066357694566, 7630020.513464251533151 ], [ 4097460.932066357694566, 7630012.814115984365344 ], [ 4097458.365616935305297, 7630012.814115984365344 ], [ 4097458.365616935305297, 7630007.681217139586806 ], [ 4097455.799167512916028, 7630007.681217139586806 ], [ 4097455.799167512916028, 7629999.981868873350322 ], [ 4097453.23271809052676, 7629999.981868873350322 ], [ 4097453.23271809052676, 7629992.282520606182516 ], [ 4097450.666268668137491, 7629992.282520606182516 ], [ 4097450.666268668137491, 7629984.583172339014709 ], [ 4097448.099819245748222, 7629984.583172339014709 ], [ 4097448.099819245748222, 7629971.750925227068365 ], [ 4097445.533369823824614, 7629971.750925227068365 ], [ 4097445.533369823824614, 7629956.352228692732751 ], [ 4097448.099819245748222, 7629956.352228692732751 ], [ 4097448.099819245748222, 7629951.219329847954214 ], [ 4097450.666268668137491, 7629951.219329847954214 ], [ 4097450.666268668137491, 7629946.086431003175676 ], [ 4097453.23271809052676, 7629946.086431003175676 ], [ 4097453.23271809052676, 7629940.953532158397138 ], [ 4097455.799167512916028, 7629940.953532158397138 ], [ 4097455.799167512916028, 7629935.8206333136186 ], [ 4097458.365616935305297, 7629935.8206333136186 ], [ 4097458.365616935305297, 7629930.687734468840063 ], [ 4097460.932066357694566, 7629930.687734468840063 ], [ 4097460.932066357694566, 7629925.554835624061525 ], [ 4097463.498515780083835, 7629925.554835624061525 ], [ 4097463.498515780083835, 7629922.988386201672256 ], [ 4097466.064965202473104, 7629922.988386201672256 ], [ 4097466.064965202473104, 7629917.855487357825041 ], [ 4097468.631414624862373, 7629917.855487357825041 ], [ 4097468.631414624862373, 7629912.722588513046503 ], [ 4097471.197864047251642, 7629912.722588513046503 ], [ 4097471.197864047251642, 7629910.156139090657234 ], [ 4097473.764313469640911, 7629910.156139090657234 ], [ 4097473.764313469640911, 7629902.456790823489428 ], [ 4097476.33076289203018, 7629902.456790823489428 ], [ 4097476.33076289203018, 7629897.32389197871089 ], [ 4097478.897212314419448, 7629897.32389197871089 ], [ 4097478.897212314419448, 7629894.757442556321621 ], [ 4097481.463661736808717, 7629894.757442556321621 ], [ 4097481.463661736808717, 7629892.190993133932352 ], [ 4097484.030111159197986, 7629892.190993133932352 ], [ 4097484.030111159197986, 7629889.624543711543083 ], [ 4097486.596560581587255, 7629889.624543711543083 ], [ 4097486.596560581587255, 7629887.058094289153814 ], [ 4097489.163010003510863, 7629887.058094289153814 ], [ 4097489.163010003510863, 7629884.491644866764545 ], [ 4097491.729459425900131, 7629884.491644866764545 ], [ 4097491.729459425900131, 7629879.358746021986008 ], [ 4097494.2959088482894, 7629879.358746021986008 ], [ 4097494.2959088482894, 7629876.792296599596739 ], [ 4097496.862358270678669, 7629876.792296599596739 ], [ 4097496.862358270678669, 7629874.22584717720747 ], [ 4097499.428807693067938, 7629874.22584717720747 ], [ 4097499.428807693067938, 7629871.659397754818201 ], [ 4097504.561706537846476, 7629871.659397754818201 ], [ 4097504.561706537846476, 7629869.092948332428932 ], [ 4097509.694605382625014, 7629869.092948332428932 ], [ 4097509.694605382625014, 7629866.526498910039663 ], [ 4097514.827504227403551, 7629866.526498910039663 ], [ 4097514.827504227403551, 7629863.960049487650394 ], [ 4097522.526852494571358, 7629863.960049487650394 ], [ 4097522.526852494571358, 7629861.393600065261126 ], [ 4097525.093301916960627, 7629861.393600065261126 ], [ 4097525.093301916960627, 7629858.827150642871857 ], [ 4097530.226200761273503, 7629858.827150642871857 ], [ 4097530.226200761273503, 7629856.260701220482588 ], [ 4097535.359099606052041, 7629856.260701220482588 ], [ 4097535.359099606052041, 7629853.694251798093319 ], [ 4097537.92554902844131, 7629853.694251798093319 ], [ 4097537.92554902844131, 7629851.12780237570405 ], [ 4097540.491998450830579, 7629851.12780237570405 ], [ 4097540.491998450830579, 7629848.561352953314781 ], [ 4097543.058447873219848, 7629848.561352953314781 ], [ 4097543.058447873219848, 7629845.994903530925512 ], [ 4097545.624897295609117, 7629845.994903530925512 ], [ 4097545.624897295609117, 7629843.428454108536243 ], [ 4097548.191346717998385, 7629843.428454108536243 ], [ 4097548.191346717998385, 7629838.295555264689028 ], [ 4097550.757796140387654, 7629838.295555264689028 ], [ 4097550.757796140387654, 7629835.729105842299759 ], [ 4097553.324245562776923, 7629835.729105842299759 ], [ 4097553.324245562776923, 7629833.162656419910491 ], [ 4097555.890694985166192, 7629833.162656419910491 ], [ 4097555.890694985166192, 7629825.463308152742684 ], [ 4097558.457144407555461, 7629825.463308152742684 ], [ 4097558.457144407555461, 7629812.63106104079634 ], [ 4097561.02359382994473, 7629812.63106104079634 ], [ 4097561.02359382994473, 7629807.498162196017802 ], [ 4097566.156492674723268, 7629807.498162196017802 ], [ 4097566.156492674723268, 7629804.931712773628533 ], [ 4097568.722942097112536, 7629804.931712773628533 ], [ 4097568.722942097112536, 7629799.798813928849995 ], [ 4097573.855840941425413, 7629799.798813928849995 ], [ 4097573.855840941425413, 7629797.232364506460726 ], [ 4097576.422290363814682, 7629797.232364506460726 ], [ 4097576.422290363814682, 7629794.665915084071457 ], [ 4097578.988739786203951, 7629794.665915084071457 ], [ 4097578.988739786203951, 7629792.099465661682189 ], [ 4097581.55518920859322, 7629792.099465661682189 ], [ 4097581.55518920859322, 7629789.53301623929292 ], [ 4097584.121638630982488, 7629789.53301623929292 ], [ 4097584.121638630982488, 7629784.400117394514382 ], [ 4097586.688088053371757, 7629784.400117394514382 ], [ 4097586.688088053371757, 7629781.833667972125113 ], [ 4097589.254537475761026, 7629781.833667972125113 ], [ 4097589.254537475761026, 7629776.700769127346575 ], [ 4097591.820986898150295, 7629776.700769127346575 ], [ 4097591.820986898150295, 7629769.001420860178769 ], [ 4097594.387436320539564, 7629769.001420860178769 ], [ 4097594.387436320539564, 7629766.4349714377895 ], [ 4097596.953885742928833, 7629766.4349714377895 ], [ 4097596.953885742928833, 7629763.868522015400231 ], [ 4097602.086784587707371, 7629763.868522015400231 ], [ 4097602.086784587707371, 7629761.302072593010962 ], [ 4097604.653234010096639, 7629761.302072593010962 ], [ 4097604.653234010096639, 7629758.735623171553016 ], [ 4097607.219683432485908, 7629758.735623171553016 ], [ 4097607.219683432485908, 7629756.169173749163747 ], [ 4097609.786132854875177, 7629756.169173749163747 ], [ 4097609.786132854875177, 7629753.602724326774478 ], [ 4097612.352582276798785, 7629753.602724326774478 ], [ 4097612.352582276798785, 7629751.036274904385209 ], [ 4097614.919031699188054, 7629751.036274904385209 ], [ 4097614.919031699188054, 7629748.46982548199594 ], [ 4097617.485481121577322, 7629748.46982548199594 ], [ 4097617.485481121577322, 7629743.336926637217402 ], [ 4097620.051930543966591, 7629743.336926637217402 ], [ 4097620.051930543966591, 7629740.770477214828134 ], [ 4097622.61837996635586, 7629740.770477214828134 ], [ 4097622.61837996635586, 7629738.204027792438865 ], [ 4097625.184829388745129, 7629738.204027792438865 ], [ 4097625.184829388745129, 7629735.637578370049596 ], [ 4097627.751278811134398, 7629735.637578370049596 ], [ 4097627.751278811134398, 7629733.071128947660327 ], [ 4097630.317728233523667, 7629733.071128947660327 ], [ 4097630.317728233523667, 7629730.504679525271058 ], [ 4097635.450627078302205, 7629730.504679525271058 ], [ 4097635.450627078302205, 7629725.37178068049252 ], [ 4097638.017076500691473, 7629725.37178068049252 ], [ 4097638.017076500691473, 7629722.805331258103251 ], [ 4097640.583525923080742, 7629722.805331258103251 ], [ 4097640.583525923080742, 7629720.238881835713983 ], [ 4097643.149975345470011, 7629720.238881835713983 ], [ 4097643.149975345470011, 7629717.672432413324714 ], [ 4097645.71642476785928, 7629717.672432413324714 ], [ 4097645.71642476785928, 7629715.105982990935445 ], [ 4097648.282874190248549, 7629715.105982990935445 ], [ 4097648.282874190248549, 7629712.539533568546176 ], [ 4097650.849323612637818, 7629712.539533568546176 ], [ 4097650.849323612637818, 7629709.973084146156907 ], [ 4097653.415773034561425, 7629709.973084146156907 ], [ 4097653.415773034561425, 7629707.406634723767638 ], [ 4097655.982222456950694, 7629707.406634723767638 ], [ 4097655.982222456950694, 7629704.840185301378369 ], [ 4097661.115121301729232, 7629704.840185301378369 ], [ 4097661.115121301729232, 7629702.2737358789891 ], [ 4097663.681570724118501, 7629702.2737358789891 ], [ 4097663.681570724118501, 7629699.707286456599832 ], [ 4097666.24802014650777, 7629699.707286456599832 ], [ 4097666.24802014650777, 7629697.140837034210563 ], [ 4097671.380918991286308, 7629697.140837034210563 ], [ 4097671.380918991286308, 7629694.574387611821294 ], [ 4097676.513817836064845, 7629694.574387611821294 ], [ 4097676.513817836064845, 7629692.007938189432025 ], [ 4097681.646716680843383, 7629692.007938189432025 ], [ 4097681.646716680843383, 7629689.441488767042756 ], [ 4097686.779615525621921, 7629689.441488767042756 ], [ 4097686.779615525621921, 7629686.875039344653487 ], [ 4097691.912514370400459, 7629686.875039344653487 ], [ 4097691.912514370400459, 7629684.308589922264218 ], [ 4097699.611862637102604, 7629684.308589922264218 ], [ 4097699.611862637102604, 7629681.742140499874949 ], [ 4097707.311210904270411, 7629681.742140499874949 ], [ 4097707.311210904270411, 7629679.175691077485681 ], [ 4097715.010559171438217, 7629679.175691077485681 ], [ 4097715.010559171438217, 7629676.609241656027734 ], [ 4097720.143458016216755, 7629676.609241656027734 ], [ 4097720.143458016216755, 7629630.413152053020895 ], [ 4097948.557456606067717, 7629630.413152053020895 ], [ 4097948.557456606067717, 7629632.979601475410163 ], [ 4097958.823254295624793, 7629632.979601475410163 ], [ 4097958.823254295624793, 7629635.546050897799432 ], [ 4097963.95615314040333, 7629635.546050897799432 ], [ 4097963.95615314040333, 7629638.112500320188701 ], [ 4097969.089051985181868, 7629638.112500320188701 ], [ 4097969.089051985181868, 7629640.67894974257797 ], [ 4097971.655501407571137, 7629640.67894974257797 ], [ 4097971.655501407571137, 7629643.245399164967239 ], [ 4097974.221950829960406, 7629643.245399164967239 ], [ 4097974.221950829960406, 7629648.378298009745777 ], [ 4097976.788400252349675, 7629648.378298009745777 ], [ 4097976.788400252349675, 7629653.511196854524314 ], [ 4097979.354849674738944, 7629653.511196854524314 ], [ 4097979.354849674738944, 7629661.210545121692121 ], [ 4097981.921299096662551, 7629661.210545121692121 ], [ 4097981.921299096662551, 7629663.77699454408139 ], [ 4097984.48774851905182, 7629663.77699454408139 ], [ 4097984.48774851905182, 7629671.476342811249197 ], [ 4097987.054197941441089, 7629671.476342811249197 ], [ 4097987.054197941441089, 7629674.042792233638465 ], [ 4097992.187096786219627, 7629674.042792233638465 ], [ 4097992.187096786219627, 7629679.175691077485681 ], [ 4097989.620647363830358, 7629679.175691077485681 ], [ 4097989.620647363830358, 7629694.574387611821294 ], [ 4097992.187096786219627, 7629694.574387611821294 ], [ 4097992.187096786219627, 7629697.140837034210563 ], [ 4097987.054197941441089, 7629697.140837034210563 ], [ 4097987.054197941441089, 7629694.574387611821294 ], [ 4097981.921299096662551, 7629694.574387611821294 ], [ 4097981.921299096662551, 7629697.140837034210563 ], [ 4097976.788400252349675, 7629697.140837034210563 ], [ 4097976.788400252349675, 7629699.707286456599832 ], [ 4097974.221950829960406, 7629699.707286456599832 ], [ 4097974.221950829960406, 7629704.840185301378369 ], [ 4097971.655501407571137, 7629704.840185301378369 ], [ 4097971.655501407571137, 7629707.406634723767638 ], [ 4097963.95615314040333, 7629707.406634723767638 ], [ 4097963.95615314040333, 7629709.973084146156907 ], [ 4097961.389703718014061, 7629709.973084146156907 ], [ 4097961.389703718014061, 7629715.105982990935445 ], [ 4097958.823254295624793, 7629715.105982990935445 ], [ 4097958.823254295624793, 7629717.672432413324714 ], [ 4097961.389703718014061, 7629717.672432413324714 ], [ 4097961.389703718014061, 7629720.238881835713983 ], [ 4097963.95615314040333, 7629720.238881835713983 ], [ 4097963.95615314040333, 7629745.903376059606671 ], [ 4097966.522602562792599, 7629745.903376059606671 ], [ 4097966.522602562792599, 7629761.302072593010962 ], [ 4097969.089051985181868, 7629761.302072593010962 ], [ 4097969.089051985181868, 7629766.4349714377895 ], [ 4097971.655501407571137, 7629766.4349714377895 ], [ 4097971.655501407571137, 7629771.567870282568038 ], [ 4097966.522602562792599, 7629771.567870282568038 ], [ 4097966.522602562792599, 7629774.134319704957306 ], [ 4097963.95615314040333, 7629774.134319704957306 ], [ 4097963.95615314040333, 7629776.700769127346575 ], [ 4097961.389703718014061, 7629776.700769127346575 ], [ 4097961.389703718014061, 7629781.833667972125113 ], [ 4097958.823254295624793, 7629781.833667972125113 ], [ 4097958.823254295624793, 7629784.400117394514382 ], [ 4097956.256804873235524, 7629784.400117394514382 ], [ 4097956.256804873235524, 7629786.966566816903651 ], [ 4097953.690355450846255, 7629786.966566816903651 ], [ 4097953.690355450846255, 7629789.53301623929292 ], [ 4097951.123906028456986, 7629789.53301623929292 ], [ 4097951.123906028456986, 7629792.099465661682189 ], [ 4097938.291658916976303, 7629792.099465661682189 ], [ 4097938.291658916976303, 7629794.665915084071457 ], [ 4097935.725209494587034, 7629794.665915084071457 ], [ 4097935.725209494587034, 7629797.232364506460726 ], [ 4097930.592310649808496, 7629797.232364506460726 ], [ 4097930.592310649808496, 7629799.798813928849995 ], [ 4097925.459411805029958, 7629799.798813928849995 ], [ 4097925.459411805029958, 7629802.365263351239264 ], [ 4097920.326512960251421, 7629802.365263351239264 ], [ 4097920.326512960251421, 7629804.931712773628533 ], [ 4097915.193614115472883, 7629804.931712773628533 ], [ 4097915.193614115472883, 7629807.498162196017802 ], [ 4097910.060715270694345, 7629807.498162196017802 ], [ 4097910.060715270694345, 7629810.064611618407071 ], [ 4097904.927816425915807, 7629810.064611618407071 ], [ 4097904.927816425915807, 7629812.63106104079634 ], [ 4097899.79491758113727, 7629812.63106104079634 ], [ 4097899.79491758113727, 7629815.197510463185608 ], [ 4097897.228468159213662, 7629815.197510463185608 ], [ 4097897.228468159213662, 7629817.763959885574877 ], [ 4097889.529119892045856, 7629817.763959885574877 ], [ 4097889.529119892045856, 7629820.330409307964146 ], [ 4097886.962670469656587, 7629820.330409307964146 ], [ 4097886.962670469656587, 7629822.896858730353415 ], [ 4097884.396221047267318, 7629822.896858730353415 ], [ 4097884.396221047267318, 7629825.463308152742684 ], [ 4097879.26332220248878, 7629825.463308152742684 ], [ 4097879.26332220248878, 7629828.029757575131953 ], [ 4097876.696872780099511, 7629828.029757575131953 ], [ 4097876.696872780099511, 7629830.596206997521222 ], [ 4097874.130423357710242, 7629830.596206997521222 ], [ 4097874.130423357710242, 7629833.162656419910491 ], [ 4097868.997524512931705, 7629833.162656419910491 ], [ 4097868.997524512931705, 7629835.729105842299759 ], [ 4097866.431075090542436, 7629835.729105842299759 ], [ 4097866.431075090542436, 7629838.295555264689028 ], [ 4097863.864625668153167, 7629838.295555264689028 ], [ 4097863.864625668153167, 7629840.862004687078297 ], [ 4097861.298176245763898, 7629840.862004687078297 ], [ 4097861.298176245763898, 7629843.428454108536243 ], [ 4097856.165277401451021, 7629843.428454108536243 ], [ 4097856.165277401451021, 7629845.994903530925512 ], [ 4097853.598827979061753, 7629845.994903530925512 ], [ 4097853.598827979061753, 7629851.12780237570405 ], [ 4097851.032378556672484, 7629851.12780237570405 ], [ 4097851.032378556672484, 7629856.260701220482588 ], [ 4097848.465929134283215, 7629856.260701220482588 ], [ 4097848.465929134283215, 7629863.960049487650394 ], [ 4097845.899479711893946, 7629863.960049487650394 ], [ 4097845.899479711893946, 7629866.526498910039663 ], [ 4097843.333030289504677, 7629866.526498910039663 ], [ 4097843.333030289504677, 7629869.092948332428932 ], [ 4097840.766580867115408, 7629869.092948332428932 ], [ 4097840.766580867115408, 7629871.659397754818201 ], [ 4097838.200131444726139, 7629871.659397754818201 ], [ 4097838.200131444726139, 7629874.22584717720747 ], [ 4097835.63368202233687, 7629874.22584717720747 ], [ 4097835.63368202233687, 7629876.792296599596739 ], [ 4097833.067232599947602, 7629876.792296599596739 ], [ 4097833.067232599947602, 7629879.358746021986008 ], [ 4097830.500783177558333, 7629879.358746021986008 ], [ 4097830.500783177558333, 7629884.491644866764545 ], [ 4097825.367884332779795, 7629884.491644866764545 ], [ 4097825.367884332779795, 7629887.058094289153814 ], [ 4097817.668536065611988, 7629887.058094289153814 ], [ 4097817.668536065611988, 7629889.624543711543083 ], [ 4097809.969187798909843, 7629889.624543711543083 ], [ 4097809.969187798909843, 7629892.190993133932352 ], [ 4097807.402738376520574, 7629892.190993133932352 ], [ 4097807.402738376520574, 7629894.757442556321621 ], [ 4097802.269839531742036, 7629894.757442556321621 ], [ 4097802.269839531742036, 7629897.32389197871089 ], [ 4097794.57049126457423, 7629897.32389197871089 ], [ 4097794.57049126457423, 7629899.890341401100159 ], [ 4097792.004041842184961, 7629899.890341401100159 ], [ 4097792.004041842184961, 7629902.456790823489428 ], [ 4097789.437592419795692, 7629902.456790823489428 ], [ 4097789.437592419795692, 7629905.023240245878696 ], [ 4097784.304693575017154, 7629905.023240245878696 ], [ 4097784.304693575017154, 7629907.589689668267965 ], [ 4097779.171794730238616, 7629907.589689668267965 ], [ 4097779.171794730238616, 7629910.156139090657234 ], [ 4097776.605345307849348, 7629910.156139090657234 ], [ 4097776.605345307849348, 7629912.722588513046503 ], [ 4097774.03889588592574, 7629912.722588513046503 ], [ 4097774.03889588592574, 7629915.289037935435772 ], [ 4097771.472446463536471, 7629915.289037935435772 ], [ 4097771.472446463536471, 7629917.855487357825041 ], [ 4097768.905997041147202, 7629917.855487357825041 ], [ 4097768.905997041147202, 7629922.988386201672256 ], [ 4097766.339547618757933, 7629922.988386201672256 ], [ 4097766.339547618757933, 7629928.121285046450794 ], [ 4097763.773098196368665, 7629928.121285046450794 ], [ 4097763.773098196368665, 7629933.254183891229331 ], [ 4097761.206648773979396, 7629933.254183891229331 ], [ 4097761.206648773979396, 7629951.219329847954214 ], [ 4097758.640199351590127, 7629951.219329847954214 ], [ 4097758.640199351590127, 7629956.352228692732751 ], [ 4097756.073749929200858, 7629956.352228692732751 ], [ 4097756.073749929200858, 7629958.91867811512202 ], [ 4097748.374401662033051, 7629958.91867811512202 ], [ 4097748.374401662033051, 7629961.485127537511289 ], [ 4097740.675053394865245, 7629961.485127537511289 ], [ 4097740.675053394865245, 7629964.051576959900558 ], [ 4097732.975705128163099, 7629964.051576959900558 ], [ 4097732.975705128163099, 7629966.618026382289827 ], [ 4097727.842806283384562, 7629966.618026382289827 ], [ 4097727.842806283384562, 7629969.184475804679096 ], [ 4097725.276356860995293, 7629969.184475804679096 ], [ 4097725.276356860995293, 7629974.317374649457633 ], [ 4097722.709907438606024, 7629974.317374649457633 ], [ 4097722.709907438606024, 7629979.450273494236171 ], [ 4097720.143458016216755, 7629979.450273494236171 ], [ 4097720.143458016216755, 7629969.184475804679096 ], [ 4097717.577008593827486, 7629969.184475804679096 ], [ 4097717.577008593827486, 7629971.750925227068365 ], [ 4097715.010559171438217, 7629971.750925227068365 ], [ 4097715.010559171438217, 7629976.883824071846902 ], [ 4097712.444109749048948, 7629976.883824071846902 ], [ 4097712.444109749048948, 7629987.149621761403978 ], [ 4097715.010559171438217, 7629987.149621761403978 ], [ 4097715.010559171438217, 7629989.716071183793247 ], [ 4097717.577008593827486, 7629989.716071183793247 ], [ 4097717.577008593827486, 7629992.282520606182516 ], [ 4097720.143458016216755, 7629992.282520606182516 ], [ 4097720.143458016216755, 7629987.149621761403978 ], [ 4097722.709907438606024, 7629987.149621761403978 ], [ 4097722.709907438606024, 7629989.716071183793247 ], [ 4097725.276356860995293, 7629989.716071183793247 ], [ 4097725.276356860995293, 7629992.282520606182516 ], [ 4097727.842806283384562, 7629992.282520606182516 ], [ 4097727.842806283384562, 7629997.415419450961053 ], [ 4097730.40925570577383, 7629997.415419450961053 ], [ 4097730.40925570577383, 7630005.114767717197537 ], [ 4097732.975705128163099, 7630005.114767717197537 ], [ 4097732.975705128163099, 7630010.247666561976075 ], [ 4097735.542154550086707, 7630010.247666561976075 ], [ 4097735.542154550086707, 7630017.947014829143882 ], [ 4097732.975705128163099, 7630017.947014829143882 ], [ 4097732.975705128163099, 7630020.513464251533151 ], [ 4097730.40925570577383, 7630020.513464251533151 ], [ 4097730.40925570577383, 7630023.07991367392242 ], [ 4097727.842806283384562, 7630023.07991367392242 ], [ 4097727.842806283384562, 7630025.646363096311688 ], [ 4097725.276356860995293, 7630025.646363096311688 ], [ 4097725.276356860995293, 7630028.212812518700957 ], [ 4097722.709907438606024, 7630028.212812518700957 ], [ 4097722.709907438606024, 7630030.779261941090226 ], [ 4097720.143458016216755, 7630030.779261941090226 ], [ 4097720.143458016216755, 7630028.212812518700957 ], [ 4097717.577008593827486, 7630028.212812518700957 ], [ 4097717.577008593827486, 7630030.779261941090226 ], [ 4097715.010559171438217, 7630030.779261941090226 ], [ 4097715.010559171438217, 7630035.912160785868764 ], [ 4097712.444109749048948, 7630035.912160785868764 ], [ 4097712.444109749048948, 7630038.478610208258033 ], [ 4097709.877660326659679, 7630038.478610208258033 ], [ 4097709.877660326659679, 7630043.611509053036571 ], [ 4097707.311210904270411, 7630043.611509053036571 ], [ 4097707.311210904270411, 7630071.842452699318528 ], [ 4097704.744761481881142, 7630071.842452699318528 ], [ 4097704.744761481881142, 7630079.541800966486335 ], [ 4097699.611862637102604, 7630079.541800966486335 ], [ 4097699.611862637102604, 7630082.108250388875604 ], [ 4097697.045413214713335, 7630082.108250388875604 ], [ 4097697.045413214713335, 7630084.674699811264873 ], [ 4097691.912514370400459, 7630084.674699811264873 ], [ 4097691.912514370400459, 7630087.241149232722819 ], [ 4097689.34606494801119, 7630087.241149232722819 ], [ 4097689.34606494801119, 7630089.807598655112088 ], [ 4097684.213166103232652, 7630089.807598655112088 ], [ 4097684.213166103232652, 7630092.374048077501357 ], [ 4097679.080267258454114, 7630092.374048077501357 ], [ 4097679.080267258454114, 7630094.940497499890625 ], [ 4097673.947368413675576, 7630094.940497499890625 ], [ 4097673.947368413675576, 7630097.506946922279894 ], [ 4097668.814469568897039, 7630097.506946922279894 ], [ 4097668.814469568897039, 7630100.073396344669163 ], [ 4097663.681570724118501, 7630100.073396344669163 ], [ 4097663.681570724118501, 7630102.639845767058432 ], [ 4097655.982222456950694, 7630102.639845767058432 ], [ 4097655.982222456950694, 7630105.206295189447701 ], [ 4097650.849323612637818, 7630105.206295189447701 ], [ 4097650.849323612637818, 7630107.77274461183697 ], [ 4097645.71642476785928, 7630107.77274461183697 ], [ 4097645.71642476785928, 7630110.339194034226239 ], [ 4097640.583525923080742, 7630110.339194034226239 ], [ 4097640.583525923080742, 7630112.905643456615508 ], [ 4097632.884177655912936, 7630112.905643456615508 ], [ 4097632.884177655912936, 7630115.472092879004776 ], [ 4097630.317728233523667, 7630115.472092879004776 ], [ 4097630.317728233523667, 7630118.038542301394045 ], [ 4097625.184829388745129, 7630118.038542301394045 ], [ 4097625.184829388745129, 7630120.604991723783314 ], [ 4097617.485481121577322, 7630120.604991723783314 ], [ 4097617.485481121577322, 7630123.171441146172583 ], [ 4097614.919031699188054, 7630123.171441146172583 ], [ 4097614.919031699188054, 7630125.737890568561852 ], [ 4097609.786132854875177, 7630125.737890568561852 ], [ 4097609.786132854875177, 7630128.304339990951121 ], [ 4097604.653234010096639, 7630128.304339990951121 ], [ 4097604.653234010096639, 7630130.87078941334039 ], [ 4097599.520335165318102, 7630130.87078941334039 ], [ 4097599.520335165318102, 7630133.437238835729659 ], [ 4097596.953885742928833, 7630133.437238835729659 ], [ 4097596.953885742928833, 7630136.003688258118927 ], [ 4097594.387436320539564, 7630136.003688258118927 ], [ 4097594.387436320539564, 7630141.136587102897465 ], [ 4097591.820986898150295, 7630141.136587102897465 ], [ 4097591.820986898150295, 7630143.703036525286734 ], [ 4097589.254537475761026, 7630143.703036525286734 ], [ 4097589.254537475761026, 7630148.835935370065272 ], [ 4097586.688088053371757, 7630148.835935370065272 ], [ 4097586.688088053371757, 7630151.402384792454541 ], [ 4097581.55518920859322, 7630151.402384792454541 ], [ 4097581.55518920859322, 7630153.96883421484381 ], [ 4097568.722942097112536, 7630153.96883421484381 ] ], [ [ 4097956.256804873235524, 7629704.840185301378369 ], [ 4097969.089051985181868, 7629704.840185301378369 ], [ 4097969.089051985181868, 7629697.140837034210563 ], [ 4097966.522602562792599, 7629697.140837034210563 ], [ 4097966.522602562792599, 7629694.574387611821294 ], [ 4097961.389703718014061, 7629694.574387611821294 ], [ 4097961.389703718014061, 7629692.007938189432025 ], [ 4097958.823254295624793, 7629692.007938189432025 ], [ 4097958.823254295624793, 7629694.574387611821294 ], [ 4097953.690355450846255, 7629694.574387611821294 ], [ 4097953.690355450846255, 7629697.140837034210563 ], [ 4097951.123906028456986, 7629697.140837034210563 ], [ 4097951.123906028456986, 7629699.707286456599832 ], [ 4097953.690355450846255, 7629699.707286456599832 ], [ 4097953.690355450846255, 7629702.2737358789891 ], [ 4097956.256804873235524, 7629702.2737358789891 ], [ 4097956.256804873235524, 7629704.840185301378369 ] ] ] } },
{ "type": "Feature", "properties": { "class": 1 }, "geometry": { "type": "Polygon", "coordinates": [ [ [ 4096596.038611022289842, 7629363.502412127330899 ], [ 4096596.038611022289842, 7629360.93596270494163 ], [ 4096593.472161599900573, 7629360.93596270494163 ], [ 4096593.472161599900573, 7629358.369513282552361 ], [ 4096590.905712177511305, 7629358.369513282552361 ], [ 4096590.905712177511305, 7629345.53726617153734 ], [ 4096593.472161599900573, 7629345.53726617153734 ], [ 4096593.472161599900573, 7629337.837917904369533 ], [ 4096596.038611022289842, 7629337.837917904369533 ], [ 4096596.038611022289842, 7629335.271468481980264 ], [ 4096601.17150986706838, 7629335.271468481980264 ], [ 4096601.17150986706838, 7629332.705019059590995 ], [ 4096611.437307556625456, 7629332.705019059590995 ], [ 4096611.437307556625456, 7629335.271468481980264 ], [ 4096614.003756979014724, 7629335.271468481980264 ], [ 4096614.003756979014724, 7629340.404367326758802 ], [ 4096616.570206401403993, 7629340.404367326758802 ], [ 4096616.570206401403993, 7629350.670165015384555 ], [ 4096614.003756979014724, 7629350.670165015384555 ], [ 4096614.003756979014724, 7629358.369513282552361 ], [ 4096611.437307556625456, 7629358.369513282552361 ], [ 4096611.437307556625456, 7629360.93596270494163 ], [ 4096608.870858134236187, 7629360.93596270494163 ], [ 4096608.870858134236187, 7629363.502412127330899 ], [ 4096596.038611022289842, 7629363.502412127330899 ] ] ] } },
{ "type": "Feature", "properties": { "class": 1 }, "geometry": { "type": "Polygon", "coordinates": [ [ [ 4096606.304408711846918, 7629314.739873102866113 ], [ 4096606.304408711846918, 7629312.173423680476844 ], [ 4096603.737959289457649, 7629312.173423680476844 ], [ 4096603.737959289457649, 7629309.606974258087575 ], [ 4096601.17150986706838, 7629309.606974258087575 ], [ 4096601.17150986706838, 7629307.040524835698307 ], [ 4096598.605060444679111, 7629307.040524835698307 ], [ 4096598.605060444679111, 7629301.907625990919769 ], [ 4096588.339262755122036, 7629301.907625990919769 ], [ 4096588.339262755122036, 7629299.3411765685305 ], [ 4096585.772813333198428, 7629299.3411765685305 ], [ 4096585.772813333198428, 7629289.075378878973424 ], [ 4096583.206363910809159, 7629289.075378878973424 ], [ 4096583.206363910809159, 7629281.376030611805618 ], [ 4096580.63991448841989, 7629281.376030611805618 ], [ 4096580.63991448841989, 7629278.809581189416349 ], [ 4096578.073465066030622, 7629278.809581189416349 ], [ 4096578.073465066030622, 7629273.676682344637811 ], [ 4096575.507015643641353, 7629273.676682344637811 ], [ 4096575.507015643641353, 7629260.844435233622789 ], [ 4096572.940566221252084, 7629260.844435233622789 ], [ 4096572.940566221252084, 7629250.578637544065714 ], [ 4096575.507015643641353, 7629250.578637544065714 ], [ 4096575.507015643641353, 7629240.312839854508638 ], [ 4096578.073465066030622, 7629240.312839854508638 ], [ 4096578.073465066030622, 7629237.74639043211937 ], [ 4096580.63991448841989, 7629237.74639043211937 ], [ 4096580.63991448841989, 7629232.613491587340832 ], [ 4096583.206363910809159, 7629232.613491587340832 ], [ 4096583.206363910809159, 7629227.480592742562294 ], [ 4096585.772813333198428, 7629227.480592742562294 ], [ 4096585.772813333198428, 7629222.347693897783756 ], [ 4096588.339262755122036, 7629222.347693897783756 ], [ 4096588.339262755122036, 7629217.214795053005219 ], [ 4096590.905712177511305, 7629217.214795053005219 ], [ 4096590.905712177511305, 7629212.081896208226681 ], [ 4096593.472161599900573, 7629212.081896208226681 ], [ 4096593.472161599900573, 7629206.948997363448143 ], [ 4096596.038611022289842, 7629206.948997363448143 ], [ 4096596.038611022289842, 7629201.816098518669605 ], [ 4096598.605060444679111, 7629201.816098518669605 ], [ 4096598.605060444679111, 7629196.683199673891068 ], [ 4096601.17150986706838, 7629196.683199673891068 ], [ 4096601.17150986706838, 7629188.983851406723261 ], [ 4096603.737959289457649, 7629188.983851406723261 ], [ 4096603.737959289457649, 7629181.284503140486777 ], [ 4096606.304408711846918, 7629181.284503140486777 ], [ 4096606.304408711846918, 7629176.151604295708239 ], [ 4096608.870858134236187, 7629176.151604295708239 ], [ 4096608.870858134236187, 7629171.018705450929701 ], [ 4096611.437307556625456, 7629171.018705450929701 ], [ 4096611.437307556625456, 7629165.885806606151164 ], [ 4096614.003756979014724, 7629165.885806606151164 ], [ 4096614.003756979014724, 7629160.752907761372626 ], [ 4096616.570206401403993, 7629160.752907761372626 ], [ 4096616.570206401403993, 7629158.186458338983357 ], [ 4096619.136655823793262, 7629158.186458338983357 ], [ 4096619.136655823793262, 7629155.620008916594088 ], [ 4096621.703105246182531, 7629155.620008916594088 ], [ 4096621.703105246182531, 7629153.053559494204819 ], [ 4096626.836004090961069, 7629153.053559494204819 ], [ 4096626.836004090961069, 7629150.48711007181555 ], [ 4096642.234700624831021, 7629150.48711007181555 ], [ 4096642.234700624831021, 7629153.053559494204819 ], [ 4096647.367599469609559, 7629153.053559494204819 ], [ 4096647.367599469609559, 7629155.620008916594088 ], [ 4096649.934048891998827, 7629155.620008916594088 ], [ 4096649.934048891998827, 7629163.319357183761895 ], [ 4096652.500498314388096, 7629163.319357183761895 ], [ 4096652.500498314388096, 7629173.58515487331897 ], [ 4096655.066947736777365, 7629173.58515487331897 ], [ 4096655.066947736777365, 7629199.249649096280336 ], [ 4096657.633397159166634, 7629199.249649096280336 ], [ 4096657.633397159166634, 7629232.613491587340832 ], [ 4096655.066947736777365, 7629232.613491587340832 ], [ 4096655.066947736777365, 7629248.012188121676445 ], [ 4096652.500498314388096, 7629248.012188121676445 ], [ 4096652.500498314388096, 7629253.145086966454983 ], [ 4096649.934048891998827, 7629253.145086966454983 ], [ 4096649.934048891998827, 7629258.277985811233521 ], [ 4096647.367599469609559, 7629258.277985811233521 ], [ 4096647.367599469609559, 7629263.410884656012058 ], [ 4096644.80115004722029, 7629263.410884656012058 ], [ 4096644.80115004722029, 7629268.543783499859273 ], [ 4096642.234700624831021, 7629268.543783499859273 ], [ 4096642.234700624831021, 7629276.24313176702708 ], [ 4096639.668251202441752, 7629276.24313176702708 ], [ 4096639.668251202441752, 7629291.641828301362693 ], [ 4096637.101801780052483, 7629291.641828301362693 ], [ 4096637.101801780052483, 7629301.907625990919769 ], [ 4096624.2695546685718, 7629301.907625990919769 ], [ 4096624.2695546685718, 7629304.474075413309038 ], [ 4096621.703105246182531, 7629304.474075413309038 ], [ 4096621.703105246182531, 7629307.040524835698307 ], [ 4096619.136655823793262, 7629307.040524835698307 ], [ 4096619.136655823793262, 7629309.606974258087575 ], [ 4096616.570206401403993, 7629309.606974258087575 ], [ 4096616.570206401403993, 7629312.173423680476844 ], [ 4096608.870858134236187, 7629312.173423680476844 ], [ 4096608.870858134236187, 7629314.739873102866113 ], [ 4096606.304408711846918, 7629314.739873102866113 ] ] ] } }
]
}
