{
"type": "FeatureCollection",
"name": "pred_захламление_hn_tile005",
"crs": { "type": "name", "properties": { "name": "urn:ogc:def:crs:EPSG::3857" } },
"features": [
{ "type": "Feature", "properties": { "class": 1 }, "geometry": { "type": "Polygon", "coordinates": [ [ [ 4180520.558185758069158, 8206042.808871268294752 ], [ 4180520.558185758069158, 8206040.145918130874634 ], [ 4180504.580466931685805, 8206040.145918130874634 ], [ 4180504.580466931685805, 8206037.482964992523193 ], [ 4180488.602748104836792, 8206037.482964992523193 ], [ 4180488.602748104836792, 8206034.820011855103076 ], [ 4180477.950935554224998, 8206034.820011855103076 ], [ 4180477.950935554224998, 8206032.157058716751635 ], [ 4180472.625029278453439, 8206032.157058716751635 ], [ 4180472.625029278453439, 8206029.494105579331517 ], [ 4180464.636169865261763, 8206029.494105579331517 ], [ 4180464.636169865261763, 8206026.831152441911399 ], [ 4180459.310263589490205, 8206026.831152441911399 ], [ 4180459.310263589490205, 8206024.168199303559959 ], [ 4180453.984357314184308, 8206024.168199303559959 ], [ 4180453.984357314184308, 8206021.505246166139841 ], [ 4180440.669591625221074, 8206021.505246166139841 ], [ 4180440.669591625221074, 8206018.842293028719723 ], [ 4180430.017779074143618, 8206018.842293028719723 ], [ 4180430.017779074143618, 8206016.179339890368283 ], [ 4180422.028919660951942, 8206016.179339890368283 ], [ 4180422.028919660951942, 8206013.516386752948165 ], [ 4180416.703013385646045, 8206013.516386752948165 ], [ 4180416.703013385646045, 8206010.853433615528047 ], [ 4180406.05120083456859, 8206010.853433615528047 ], [ 4180406.05120083456859, 8206008.190480477176607 ], [ 4180392.736435145605356, 8206008.190480477176607 ], [ 4180392.736435145605356, 8206005.527527339756489 ], [ 4180384.747575732413679, 8206005.527527339756489 ], [ 4180384.747575732413679, 8206002.864574201405048 ], [ 4180379.421669457107782, 8206002.864574201405048 ], [ 4180379.421669457107782, 8206000.201621063984931 ], [ 4180366.106903768144548, 8206000.201621063984931 ], [ 4180366.106903768144548, 8205997.538667926564813 ], [ 4180352.792138079181314, 8205997.538667926564813 ], [ 4180352.792138079181314, 8205994.875714788213372 ], [ 4180334.151466114912182, 8205994.875714788213372 ], [ 4180334.151466114912182, 8205992.212761650793254 ], [ 4180328.825559839606285, 8205992.212761650793254 ], [ 4180328.825559839606285, 8205989.549808513373137 ], [ 4180323.499653563834727, 8205989.549808513373137 ], [ 4180323.499653563834727, 8205986.886855375021696 ], [ 4180318.17374728852883, 8205986.886855375021696 ], [ 4180318.17374728852883, 8205984.223902237601578 ], [ 4180312.847841012757272, 8205984.223902237601578 ], [ 4180312.847841012757272, 8205981.56094910018146 ], [ 4180307.521934737451375, 8205981.56094910018146 ], [ 4180307.521934737451375, 8205978.89799596183002 ], [ 4180302.196028462145478, 8205978.89799596183002 ], [ 4180302.196028462145478, 8205976.235042824409902 ], [ 4180294.20716904848814, 8205976.235042824409902 ], [ 4180294.20716904848814, 8205973.572089686058462 ], [ 4180286.218309635296464, 8205973.572089686058462 ], [ 4180286.218309635296464, 8205970.909136548638344 ], [ 4180275.566497084219009, 8205970.909136548638344 ], [ 4180275.566497084219009, 8205968.246183411218226 ], [ 4180270.240590808913112, 8205968.246183411218226 ], [ 4180270.240590808913112, 8205965.583230272866786 ], [ 4180264.914684533141553, 8205965.583230272866786 ], [ 4180264.914684533141553, 8205962.920277135446668 ], [ 4180256.925825119949877, 8205962.920277135446668 ], [ 4180256.925825119949877, 8205960.25732399802655 ], [ 4180251.59991884464398, 8205960.25732399802655 ], [ 4180251.59991884464398, 8205957.594370859675109 ], [ 4180248.936965706758201, 8205957.594370859675109 ], [ 4180248.936965706758201, 8205954.931417722254992 ], [ 4180243.611059431452304, 8205954.931417722254992 ], [ 4180243.611059431452304, 8205952.268464584834874 ], [ 4180240.948106293566525, 8205952.268464584834874 ], [ 4180240.948106293566525, 8205949.605511446483433 ], [ 4180238.285153155680746, 8205949.605511446483433 ], [ 4180238.285153155680746, 8205946.942558309063315 ], [ 4180235.622200017794967, 8205946.942558309063315 ], [ 4180235.622200017794967, 8205944.279605170711875 ], [ 4180232.959246880374849, 8205944.279605170711875 ], [ 4180232.959246880374849, 8205941.616652033291757 ], [ 4180230.29629374248907, 8205941.616652033291757 ], [ 4180230.29629374248907, 8205938.953698895871639 ], [ 4180227.633340604603291, 8205938.953698895871639 ], [ 4180227.633340604603291, 8205933.627792620100081 ], [ 4180224.970387466717511, 8205933.627792620100081 ], [ 4180224.970387466717511, 8205928.301886344328523 ], [ 4180222.307434329297394, 8205928.301886344328523 ], [ 4180222.307434329297394, 8205925.638933206908405 ], [ 4180219.644481191411614, 8205925.638933206908405 ], [ 4180219.644481191411614, 8205920.313026931136847 ], [ 4180216.981528053525835, 8205920.313026931136847 ], [ 4180216.981528053525835, 8205909.661214380525053 ], [ 4180214.318574916105717, 8205909.661214380525053 ], [ 4180214.318574916105717, 8205869.716917313635349 ], [ 4180216.981528053525835, 8205869.716917313635349 ], [ 4180216.981528053525835, 8205864.391011038795114 ], [ 4180219.644481191411614, 8205864.391011038795114 ], [ 4180219.644481191411614, 8205861.728057900443673 ], [ 4180222.307434329297394, 8205861.728057900443673 ], [ 4180222.307434329297394, 8205859.065104763023555 ], [ 4180227.633340604603291, 8205859.065104763023555 ], [ 4180227.633340604603291, 8205856.402151624672115 ], [ 4180230.29629374248907, 8205856.402151624672115 ], [ 4180230.29629374248907, 8205853.739198487251997 ], [ 4180288.881262773182243, 8205853.739198487251997 ], [ 4180288.881262773182243, 8205851.076245349831879 ], [ 4180312.847841012757272, 8205851.076245349831879 ], [ 4180312.847841012757272, 8205848.413292211480439 ], [ 4180344.803278665989637, 8205848.413292211480439 ], [ 4180344.803278665989637, 8205845.750339074060321 ], [ 4180350.129184941761196, 8205845.750339074060321 ], [ 4180350.129184941761196, 8205848.413292211480439 ], [ 4180387.410528870299459, 8205848.413292211480439 ], [ 4180387.410528870299459, 8205851.076245349831879 ], [ 4180419.365966523531824, 8205851.076245349831879 ], [ 4180419.365966523531824, 8205848.413292211480439 ], [ 4180445.995497900992632, 8205848.413292211480439 ], [ 4180445.995497900992632, 8205845.750339074060321 ], [ 4180464.636169865261763, 8205845.750339074060321 ], [ 4180464.636169865261763, 8205848.413292211480439 ], [ 4180488.602748104836792, 8205848.413292211480439 ], [ 4180488.602748104836792, 8205851.076245349831879 ], [ 4180552.513623411301523, 8205851.076245349831879 ], [ 4180552.513623411301523, 8205848.413292211480439 ], [ 4180568.491342237684876, 8205848.413292211480439 ], [ 4180568.491342237684876, 8205845.750339074060321 ], [ 4180667.020608334802091, 8205845.750339074060321 ], [ 4180667.020608334802091, 8205843.087385936640203 ], [ 4180675.009467747993767, 8205843.087385936640203 ], [ 4180675.009467747993767, 8205840.424432798288763 ], [ 4180680.335374023765326, 8205840.424432798288763 ], [ 4180680.335374023765326, 8205837.761479660868645 ], [ 4180685.661280299071223, 8205837.761479660868645 ], [ 4180685.661280299071223, 8205835.098526523448527 ], [ 4180690.987186574842781, 8205835.098526523448527 ], [ 4180690.987186574842781, 8205832.435573385097086 ], [ 4180696.313092850148678, 8205832.435573385097086 ], [ 4180696.313092850148678, 8205829.772620247676969 ], [ 4180704.301952263340354, 8205829.772620247676969 ], [ 4180704.301952263340354, 8205827.109667109325528 ], [ 4180717.616717952303588, 8205827.109667109325528 ], [ 4180717.616717952303588, 8205829.772620247676969 ], [ 4180722.942624227609485, 8205829.772620247676969 ], [ 4180722.942624227609485, 8205832.435573385097086 ], [ 4180728.268530503381044, 8205832.435573385097086 ], [ 4180728.268530503381044, 8205835.098526523448527 ], [ 4180730.931483641266823, 8205835.098526523448527 ], [ 4180730.931483641266823, 8205837.761479660868645 ], [ 4180736.25738991657272, 8205837.761479660868645 ], [ 4180736.25738991657272, 8205840.424432798288763 ], [ 4180741.583296192344278, 8205840.424432798288763 ], [ 4180741.583296192344278, 8205843.087385936640203 ], [ 4180744.246249329764396, 8205843.087385936640203 ], [ 4180744.246249329764396, 8205845.750339074060321 ], [ 4180746.909202467650175, 8205845.750339074060321 ], [ 4180746.909202467650175, 8205848.413292211480439 ], [ 4180749.572155605535954, 8205848.413292211480439 ], [ 4180749.572155605535954, 8205851.076245349831879 ], [ 4180752.235108742956072, 8205851.076245349831879 ], [ 4180752.235108742956072, 8205853.739198487251997 ], [ 4180754.898061880841851, 8205853.739198487251997 ], [ 4180754.898061880841851, 8205859.065104763023555 ], [ 4180757.56101501872763, 8205859.065104763023555 ], [ 4180757.56101501872763, 8205861.728057900443673 ], [ 4180760.22396815661341, 8205861.728057900443673 ], [ 4180760.22396815661341, 8205869.716917313635349 ], [ 4180762.886921294033527, 8205869.716917313635349 ], [ 4180762.886921294033527, 8205877.705776726827025 ], [ 4180765.549874431919307, 8205877.705776726827025 ], [ 4180765.549874431919307, 8205880.368729865178466 ], [ 4180768.212827569805086, 8205880.368729865178466 ], [ 4180768.212827569805086, 8205888.357589278370142 ], [ 4180770.875780707690865, 8205888.357589278370142 ], [ 4180770.875780707690865, 8205893.6834955541417 ], [ 4180773.538733845110983, 8205893.6834955541417 ], [ 4180773.538733845110983, 8205899.009401828981936 ], [ 4180776.201686982996762, 8205899.009401828981936 ], [ 4180776.201686982996762, 8205906.998261242173612 ], [ 4180778.864640120882541, 8205906.998261242173612 ], [ 4180778.864640120882541, 8205912.32416751794517 ], [ 4180781.527593258302659, 8205912.32416751794517 ], [ 4180781.527593258302659, 8205917.650073793716729 ], [ 4180784.190546396188438, 8205917.650073793716729 ], [ 4180784.190546396188438, 8205922.975980069488287 ], [ 4180786.853499534074217, 8205922.975980069488287 ], [ 4180786.853499534074217, 8205928.301886344328523 ], [ 4180789.516452671959996, 8205928.301886344328523 ], [ 4180789.516452671959996, 8205936.290745757520199 ], [ 4180792.179405809380114, 8205936.290745757520199 ], [ 4180792.179405809380114, 8205944.279605170711875 ], [ 4180794.842358947265893, 8205944.279605170711875 ], [ 4180794.842358947265893, 8205962.920277135446668 ], [ 4180792.179405809380114, 8205962.920277135446668 ], [ 4180792.179405809380114, 8205968.246183411218226 ], [ 4180789.516452671959996, 8205968.246183411218226 ], [ 4180789.516452671959996, 8205976.235042824409902 ], [ 4180786.853499534074217, 8205976.235042824409902 ], [ 4180786.853499534074217, 8205981.56094910018146 ], [ 4180784.190546396188438, 8205981.56094910018146 ], [ 4180784.190546396188438, 8205984.223902237601578 ], [ 4180781.527593258302659, 8205984.223902237601578 ], [ 4180781.527593258302659, 8205986.886855375021696 ], [ 4180778.864640120882541, 8205986.886855375021696 ], [ 4180778.864640120882541, 8205992.212761650793254 ], [ 4180776.201686982996762, 8205992.212761650793254 ], [ 4180776.201686982996762, 8205994.875714788213372 ], [ 4180773.538733845110983, 8205994.875714788213372 ], [ 4180773.538733845110983, 8205997.538667926564813 ], [ 4180770.875780707690865, 8205997.538667926564813 ], [ 4180770.875780707690865, 8206000.201621063984931 ], [ 4180765.549874431919307, 8206000.201621063984931 ], [ 4180765.549874431919307, 8206002.864574201405048 ], [ 4180760.22396815661341, 8206002.864574201405048 ], [ 4180760.22396815661341, 8206005.527527339756489 ], [ 4180754.898061880841851, 8206005.527527339756489 ], [ 4180754.898061880841851, 8206008.190480477176607 ], [ 4180746.909202467650175, 8206008.190480477176607 ], [ 4180746.909202467650175, 8206010.853433615528047 ], [ 4180736.25738991657272, 8206010.853433615528047 ], [ 4180736.25738991657272, 8206013.516386752948165 ], [ 4180728.268530503381044, 8206013.516386752948165 ], [ 4180728.268530503381044, 8206016.179339890368283 ], [ 4180720.279671090189368, 8206016.179339890368283 ], [ 4180720.279671090189368, 8206018.842293028719723 ], [ 4180698.976045988034457, 8206018.842293028719723 ], [ 4180698.976045988034457, 8206021.505246166139841 ], [ 4180690.987186574842781, 8206021.505246166139841 ], [ 4180690.987186574842781, 8206024.168199303559959 ], [ 4180685.661280299071223, 8206024.168199303559959 ], [ 4180685.661280299071223, 8206026.831152441911399 ], [ 4180680.335374023765326, 8206026.831152441911399 ], [ 4180680.335374023765326, 8206029.494105579331517 ], [ 4180675.009467747993767, 8206029.494105579331517 ], [ 4180675.009467747993767, 8206032.157058716751635 ], [ 4180669.68356147268787, 8206032.157058716751635 ], [ 4180669.68356147268787, 8206034.820011855103076 ], [ 4180653.705842646304518, 8206034.820011855103076 ], [ 4180653.705842646304518, 8206037.482964992523193 ], [ 4180616.424498717300594, 8206037.482964992523193 ], [ 4180616.424498717300594, 8206040.145918130874634 ], [ 4180597.783826753031462, 8206040.145918130874634 ], [ 4180597.783826753031462, 8206037.482964992523193 ], [ 4180576.480201650876552, 8206037.482964992523193 ], [ 4180576.480201650876552, 8206040.145918130874634 ], [ 4180555.176576549187303, 8206040.145918130874634 ], [ 4180555.176576549187303, 8206042.808871268294752 ], [ 4180520.558185758069158, 8206042.808871268294752 ] ] ] } }
]
}
