{
"type": "FeatureCollection",
"name": "pred_захламление_hn_tile010",
"crs": { "type": "name", "properties": { "name": "urn:ogc:def:crs:EPSG::3857" } },
"features": [
{ "type": "Feature", "properties": { "class": 1 }, "geometry": { "type": "Polygon", "coordinates": [ [ [ 6292217.528606685809791, 7959217.598248016089201 ], [ 6292217.528606685809791, 7959214.97847895603627 ], [ 6292196.570454203523695, 7959214.97847895603627 ], [ 6292196.570454203523695, 7959212.358709895983338 ], [ 6292191.330916083417833, 7959212.358709895983338 ], [ 6292191.330916083417833, 7959209.738940835930407 ], [ 6292186.09137796331197, 7959209.738940835930407 ], [ 6292186.09137796331197, 7959207.119171775877476 ], [ 6292180.851839842274785, 7959207.119171775877476 ], [ 6292180.851839842274785, 7959204.499402714893222 ], [ 6292170.372763601131737, 7959204.499402714893222 ], [ 6292170.372763601131737, 7959201.879633654840291 ], [ 6292115.357613337226212, 7959201.879633654840291 ], [ 6292115.357613337226212, 7959199.259864594787359 ], [ 6292097.01922991592437, 7959199.259864594787359 ], [ 6292097.01922991592437, 7959196.640095534734428 ], [ 6292052.48315589223057, 7959196.640095534734428 ], [ 6292052.48315589223057, 7959194.020326474681497 ], [ 6292034.144772470928729, 7959194.020326474681497 ], [ 6292034.144772470928729, 7959191.400557414628565 ], [ 6292026.285465289838612, 7959191.400557414628565 ], [ 6292026.285465289838612, 7959188.780788353644311 ], [ 6292013.186619988642633, 7959188.780788353644311 ], [ 6292013.186619988642633, 7959186.16101929359138 ], [ 6292000.087774687446654, 7959186.16101929359138 ], [ 6292000.087774687446654, 7959183.541250233538449 ], [ 6291989.608698447234929, 7959183.541250233538449 ], [ 6291989.608698447234929, 7959180.921481173485518 ], [ 6291984.369160326197743, 7959180.921481173485518 ], [ 6291984.369160326197743, 7959178.301712113432586 ], [ 6291979.129622206091881, 7959178.301712113432586 ], [ 6291979.129622206091881, 7959175.681943053379655 ], [ 6291973.890084085986018, 7959175.681943053379655 ], [ 6291973.890084085986018, 7959173.062173992395401 ], [ 6291971.270315025933087, 7959173.062173992395401 ], [ 6291971.270315025933087, 7959170.44240493234247 ], [ 6291968.650545964948833, 7959170.44240493234247 ], [ 6291968.650545964948833, 7959167.822635872289538 ], [ 6291966.030776904895902, 7959167.822635872289538 ], [ 6291966.030776904895902, 7959162.583097752183676 ], [ 6291963.41100784484297, 7959162.583097752183676 ], [ 6291963.41100784484297, 7959157.343559631146491 ], [ 6291960.791238784790039, 7959157.343559631146491 ], [ 6291960.791238784790039, 7959154.723790571093559 ], [ 6291958.171469724737108, 7959154.723790571093559 ], [ 6291958.171469724737108, 7959152.104021511040628 ], [ 6291955.551700664684176, 7959152.104021511040628 ], [ 6291955.551700664684176, 7959149.484252450987697 ], [ 6291952.931931603699923, 7959149.484252450987697 ], [ 6291952.931931603699923, 7959146.864483390934765 ], [ 6291950.312162543646991, 7959146.864483390934765 ], [ 6291950.312162543646991, 7959144.244714330881834 ], [ 6291947.69239348359406, 7959144.244714330881834 ], [ 6291947.69239348359406, 7959141.62494526989758 ], [ 6291945.072624423541129, 7959141.62494526989758 ], [ 6291945.072624423541129, 7959136.385407149791718 ], [ 6291942.452855363488197, 7959136.385407149791718 ], [ 6291942.452855363488197, 7959131.145869029685855 ], [ 6291939.833086303435266, 7959131.145869029685855 ], [ 6291939.833086303435266, 7959125.90633090864867 ], [ 6291934.593548182398081, 7959125.90633090864867 ], [ 6291934.593548182398081, 7959123.286561848595738 ], [ 6291931.97377912234515, 7959123.286561848595738 ], [ 6291931.97377912234515, 7959120.666792788542807 ], [ 6291929.354010062292218, 7959120.666792788542807 ], [ 6291929.354010062292218, 7959118.047023728489876 ], [ 6291926.734241002239287, 7959118.047023728489876 ], [ 6291926.734241002239287, 7959115.427254668436944 ], [ 6291924.114471942186356, 7959115.427254668436944 ], [ 6291924.114471942186356, 7959112.807485607452691 ], [ 6291921.494702881202102, 7959112.807485607452691 ], [ 6291921.494702881202102, 7959110.187716547399759 ], [ 6291918.87493382114917, 7959110.187716547399759 ], [ 6291918.87493382114917, 7959107.567947487346828 ], [ 6291916.255164761096239, 7959107.567947487346828 ], [ 6291916.255164761096239, 7959104.948178427293897 ], [ 6291913.635395701043308, 7959104.948178427293897 ], [ 6291913.635395701043308, 7959099.708640307188034 ], [ 6291911.015626640990376, 7959099.708640307188034 ], [ 6291911.015626640990376, 7959097.08887124620378 ], [ 6291908.395857580937445, 7959097.08887124620378 ], [ 6291908.395857580937445, 7959091.849333126097918 ], [ 6291905.776088519953191, 7959091.849333126097918 ], [ 6291905.776088519953191, 7959089.229564066044986 ], [ 6291903.15631945990026, 7959089.229564066044986 ], [ 6291903.15631945990026, 7959083.990025945939124 ], [ 6291900.536550399847329, 7959083.990025945939124 ], [ 6291900.536550399847329, 7959081.37025688495487 ], [ 6291897.916781339794397, 7959081.37025688495487 ], [ 6291897.916781339794397, 7959078.750487824901938 ], [ 6291895.297012279741466, 7959078.750487824901938 ], [ 6291895.297012279741466, 7959073.510949704796076 ], [ 6291892.677243219688535, 7959073.510949704796076 ], [ 6291892.677243219688535, 7959068.271411584690213 ], [ 6291890.057474158704281, 7959068.271411584690213 ], [ 6291890.057474158704281, 7959063.031873463653028 ], [ 6291887.43770509865135, 7959063.031873463653028 ], [ 6291887.43770509865135, 7959052.552797223441303 ], [ 6291884.817936038598418, 7959052.552797223441303 ], [ 6291884.817936038598418, 7959044.693490042351186 ], [ 6291882.198166978545487, 7959044.693490042351186 ], [ 6291882.198166978545487, 7959034.214413801208138 ], [ 6291879.578397918492556, 7959034.214413801208138 ], [ 6291879.578397918492556, 7959026.355106621049345 ], [ 6291876.958628858439624, 7959026.355106621049345 ], [ 6291876.958628858439624, 7959021.115568500943482 ], [ 6291874.33885979745537, 7959021.115568500943482 ], [ 6291874.33885979745537, 7959015.876030379906297 ], [ 6291871.719090737402439, 7959015.876030379906297 ], [ 6291871.719090737402439, 7959005.396954139694571 ], [ 6291869.099321677349508, 7959005.396954139694571 ], [ 6291869.099321677349508, 7958997.537646958604455 ], [ 6291866.479552617296576, 7958997.537646958604455 ], [ 6291866.479552617296576, 7958989.678339778445661 ], [ 6291863.859783557243645, 7958989.678339778445661 ], [ 6291863.859783557243645, 7958981.819032597355545 ], [ 6291861.240014496259391, 7958981.819032597355545 ], [ 6291861.240014496259391, 7958979.199263537302613 ], [ 6291858.62024543620646, 7958979.199263537302613 ], [ 6291858.62024543620646, 7958973.959725416265428 ], [ 6291856.000476376153529, 7958973.959725416265428 ], [ 6291856.000476376153529, 7958971.339956356212497 ], [ 6291853.380707316100597, 7958971.339956356212497 ], [ 6291853.380707316100597, 7958968.720187296159565 ], [ 6291850.760938256047666, 7958968.720187296159565 ], [ 6291850.760938256047666, 7958966.100418236106634 ], [ 6291848.141169195994735, 7958966.100418236106634 ], [ 6291848.141169195994735, 7958963.480649176053703 ], [ 6291845.521400135010481, 7958963.480649176053703 ], [ 6291845.521400135010481, 7958958.241111055016518 ], [ 6291842.90163107495755, 7958958.241111055016518 ], [ 6291842.90163107495755, 7958955.621341994963586 ], [ 6291840.281862014904618, 7958955.621341994963586 ], [ 6291840.281862014904618, 7958950.381803874857724 ], [ 6291837.662092954851687, 7958950.381803874857724 ], [ 6291837.662092954851687, 7958945.142265754751861 ], [ 6291835.042323894798756, 7958945.142265754751861 ], [ 6291835.042323894798756, 7958939.902727633714676 ], [ 6291832.422554834745824, 7958939.902727633714676 ], [ 6291832.422554834745824, 7958932.043420453555882 ], [ 6291829.80278577376157, 7958932.043420453555882 ], [ 6291829.80278577376157, 7958884.887577369809151 ], [ 6291827.183016713708639, 7958884.887577369809151 ], [ 6291827.183016713708639, 7958879.648039248771966 ], [ 6291824.563247653655708, 7958879.648039248771966 ], [ 6291824.563247653655708, 7958866.549193948507309 ], [ 6291821.943478593602777, 7958866.549193948507309 ], [ 6291821.943478593602777, 7958858.689886767417192 ], [ 6291819.323709533549845, 7958858.689886767417192 ], [ 6291819.323709533549845, 7958845.591041466221213 ], [ 6291816.703940473496914, 7958845.591041466221213 ], [ 6291816.703940473496914, 7958837.731734286062419 ], [ 6291814.08417141251266, 7958837.731734286062419 ], [ 6291814.08417141251266, 7958829.872427104972303 ], [ 6291811.464402352459729, 7958829.872427104972303 ], [ 6291811.464402352459729, 7958819.393350863829255 ], [ 6291808.844633292406797, 7958819.393350863829255 ], [ 6291808.844633292406797, 7958811.534043683670461 ], [ 6291806.224864232353866, 7958811.534043683670461 ], [ 6291806.224864232353866, 7958803.674736502580345 ], [ 6291803.605095172300935, 7958803.674736502580345 ], [ 6291803.605095172300935, 7958798.435198382474482 ], [ 6291800.985326112248003, 7958798.435198382474482 ], [ 6291800.985326112248003, 7958793.195660262368619 ], [ 6291798.36555705126375, 7958793.195660262368619 ], [ 6291798.36555705126375, 7958787.956122141331434 ], [ 6291795.745787991210818, 7958787.956122141331434 ], [ 6291795.745787991210818, 7958785.336353081278503 ], [ 6291793.126018931157887, 7958785.336353081278503 ], [ 6291793.126018931157887, 7958782.716584021225572 ], [ 6291790.506249871104956, 7958782.716584021225572 ], [ 6291790.506249871104956, 7958780.09681496117264 ], [ 6291785.266711750999093, 7958780.09681496117264 ], [ 6291785.266711750999093, 7958777.477045901119709 ], [ 6291782.646942690014839, 7958777.477045901119709 ], [ 6291782.646942690014839, 7958774.857276841066778 ], [ 6291780.027173629961908, 7958774.857276841066778 ], [ 6291780.027173629961908, 7958772.237507780082524 ], [ 6291777.407404569908977, 7958772.237507780082524 ], [ 6291777.407404569908977, 7958769.617738720029593 ], [ 6291774.787635509856045, 7958769.617738720029593 ], [ 6291774.787635509856045, 7958766.997969659976661 ], [ 6291772.167866449803114, 7958766.997969659976661 ], [ 6291772.167866449803114, 7958764.37820059992373 ], [ 6291766.928328328765929, 7958764.37820059992373 ], [ 6291766.928328328765929, 7958761.758431539870799 ], [ 6291764.308559268712997, 7958761.758431539870799 ], [ 6291764.308559268712997, 7958756.518893418833613 ], [ 6291761.688790208660066, 7958756.518893418833613 ], [ 6291761.688790208660066, 7958751.279355298727751 ], [ 6291759.069021148607135, 7958751.279355298727751 ], [ 6291759.069021148607135, 7958748.659586238674819 ], [ 6291756.449252088554204, 7958748.659586238674819 ], [ 6291756.449252088554204, 7958743.420048118568957 ], [ 6291753.829483028501272, 7958743.420048118568957 ], [ 6291753.829483028501272, 7958740.800279057584703 ], [ 6291751.209713967517018, 7958740.800279057584703 ], [ 6291751.209713967517018, 7958735.56074093747884 ], [ 6291748.589944907464087, 7958735.56074093747884 ], [ 6291748.589944907464087, 7958725.081664696335793 ], [ 6291745.970175847411156, 7958725.081664696335793 ], [ 6291745.970175847411156, 7958717.222357516176999 ], [ 6291743.350406787358224, 7958717.222357516176999 ], [ 6291743.350406787358224, 7958706.743281275033951 ], [ 6291740.730637727305293, 7958706.743281275033951 ], [ 6291740.730637727305293, 7958691.02466691378504 ], [ 6291738.110868667252362, 7958691.02466691378504 ], [ 6291738.110868667252362, 7958670.066514432430267 ], [ 6291735.491099606268108, 7958670.066514432430267 ], [ 6291735.491099606268108, 7958654.347900071181357 ], [ 6291732.871330546215177, 7958654.347900071181357 ], [ 6291732.871330546215177, 7958638.629285709932446 ], [ 6291730.251561486162245, 7958638.629285709932446 ], [ 6291730.251561486162245, 7958625.530440408736467 ], [ 6291727.631792426109314, 7958625.530440408736467 ], [ 6291727.631792426109314, 7958617.671133227646351 ], [ 6291725.012023366056383, 7958617.671133227646351 ], [ 6291725.012023366056383, 7958609.811826047487557 ], [ 6291722.392254306003451, 7958609.811826047487557 ], [ 6291722.392254306003451, 7958601.95251886639744 ], [ 6291719.772485245019197, 7958601.95251886639744 ], [ 6291719.772485245019197, 7958596.712980746291578 ], [ 6291717.152716184966266, 7958596.712980746291578 ], [ 6291717.152716184966266, 7958588.853673566132784 ], [ 6291714.532947124913335, 7958588.853673566132784 ], [ 6291714.532947124913335, 7958580.994366385042667 ], [ 6291711.913178064860404, 7958580.994366385042667 ], [ 6291711.913178064860404, 7958575.754828264936805 ], [ 6291709.293409004807472, 7958575.754828264936805 ], [ 6291709.293409004807472, 7958573.135059204883873 ], [ 6291706.673639944754541, 7958573.135059204883873 ], [ 6291706.673639944754541, 7958570.51529014389962 ], [ 6291704.053870883770287, 7958570.51529014389962 ], [ 6291704.053870883770287, 7958567.895521083846688 ], [ 6291701.434101823717356, 7958567.895521083846688 ], [ 6291701.434101823717356, 7958565.275752023793757 ], [ 6291698.814332763664424, 7958565.275752023793757 ], [ 6291698.814332763664424, 7958562.655982963740826 ], [ 6291696.194563703611493, 7958562.655982963740826 ], [ 6291696.194563703611493, 7958557.416444843634963 ], [ 6291693.574794643558562, 7958557.416444843634963 ], [ 6291693.574794643558562, 7958554.796675782650709 ], [ 6291690.955025582574308, 7958554.796675782650709 ], [ 6291690.955025582574308, 7958552.176906722597778 ], [ 6291688.335256522521377, 7958552.176906722597778 ], [ 6291688.335256522521377, 7958549.557137662544847 ], [ 6291677.856180282309651, 7958549.557137662544847 ], [ 6291677.856180282309651, 7958546.937368602491915 ], [ 6291672.616642161272466, 7958546.937368602491915 ], [ 6291672.616642161272466, 7958549.557137662544847 ], [ 6291664.757334981113672, 7958549.557137662544847 ], [ 6291664.757334981113672, 7958552.176906722597778 ], [ 6291662.137565921060741, 7958552.176906722597778 ], [ 6291662.137565921060741, 7958554.796675782650709 ], [ 6291659.517796860076487, 7958554.796675782650709 ], [ 6291659.517796860076487, 7958560.036213903687894 ], [ 6291656.898027800023556, 7958560.036213903687894 ], [ 6291656.898027800023556, 7958562.655982963740826 ], [ 6291654.278258739970624, 7958562.655982963740826 ], [ 6291654.278258739970624, 7958565.275752023793757 ], [ 6291649.038720619864762, 7958565.275752023793757 ], [ 6291649.038720619864762, 7958567.895521083846688 ], [ 6291638.559644378721714, 7958567.895521083846688 ], [ 6291638.559644378721714, 7958565.275752023793757 ], [ 6291633.320106258615851, 7958565.275752023793757 ], [ 6291633.320106258615851, 7958557.416444843634963 ], [ 6291635.939875318668783, 7958557.416444843634963 ], [ 6291635.939875318668783, 7958552.176906722597778 ], [ 6291638.559644378721714, 7958552.176906722597778 ], [ 6291638.559644378721714, 7958549.557137662544847 ], [ 6291641.179413438774645, 7958549.557137662544847 ], [ 6291641.179413438774645, 7958546.937368602491915 ], [ 6291643.799182498827577, 7958546.937368602491915 ], [ 6291643.799182498827577, 7958541.697830482386053 ], [ 6291646.418951559811831, 7958541.697830482386053 ], [ 6291646.418951559811831, 7958528.598985181190073 ], [ 6291643.799182498827577, 7958528.598985181190073 ], [ 6291643.799182498827577, 7958525.979216121137142 ], [ 6291641.179413438774645, 7958525.979216121137142 ], [ 6291641.179413438774645, 7958523.359447060152888 ], [ 6291638.559644378721714, 7958523.359447060152888 ], [ 6291638.559644378721714, 7958520.739678 ], [ 6291635.939875318668783, 7958520.739678 ], [ 6291635.939875318668783, 7958518.119908940047026 ], [ 6291630.70033719856292, 7958518.119908940047026 ], [ 6291630.70033719856292, 7958515.500139879994094 ], [ 6291625.460799077525735, 7958515.500139879994094 ], [ 6291625.460799077525735, 7958512.880370819941163 ], [ 6291620.221260957419872, 7958512.880370819941163 ], [ 6291620.221260957419872, 7958510.260601759888232 ], [ 6291614.98172283731401, 7958510.260601759888232 ], [ 6291614.98172283731401, 7958507.640832698903978 ], [ 6291607.122415656223893, 7958507.640832698903978 ], [ 6291607.122415656223893, 7958505.021063638851047 ], [ 6291546.867727271281183, 7958505.021063638851047 ], [ 6291546.867727271281183, 7958502.401294578798115 ], [ 6291533.768881970085204, 7958502.401294578798115 ], [ 6291533.768881970085204, 7958499.781525518745184 ], [ 6291523.289805729873478, 7958499.781525518745184 ], [ 6291523.289805729873478, 7958497.161756458692253 ], [ 6291507.571191368624568, 7958497.161756458692253 ], [ 6291507.571191368624568, 7958494.541987397707999 ], [ 6291499.711884187534451, 7958494.541987397707999 ], [ 6291499.711884187534451, 7958491.922218337655067 ], [ 6291497.09211512748152, 7958491.922218337655067 ], [ 6291497.09211512748152, 7958486.682680217549205 ], [ 6291494.472346067428589, 7958486.682680217549205 ], [ 6291494.472346067428589, 7958468.344296796247363 ], [ 6291491.852577007375658, 7958468.344296796247363 ], [ 6291491.852577007375658, 7958457.865220555104315 ], [ 6291489.232807946391404, 7958457.865220555104315 ], [ 6291489.232807946391404, 7958450.005913374945521 ], [ 6291491.852577007375658, 7958450.005913374945521 ], [ 6291491.852577007375658, 7958436.907068073749542 ], [ 6291489.232807946391404, 7958436.907068073749542 ], [ 6291489.232807946391404, 7958426.427991832606494 ], [ 6291486.613038886338472, 7958426.427991832606494 ], [ 6291486.613038886338472, 7958421.188453712500632 ], [ 6291483.993269826285541, 7958421.188453712500632 ], [ 6291483.993269826285541, 7958418.568684652447701 ], [ 6291481.37350076623261, 7958418.568684652447701 ], [ 6291481.37350076623261, 7958413.329146531410515 ], [ 6291478.753731706179678, 7958413.329146531410515 ], [ 6291478.753731706179678, 7958410.709377471357584 ], [ 6291476.133962646126747, 7958410.709377471357584 ], [ 6291476.133962646126747, 7958405.469839351251721 ], [ 6291473.514193585142493, 7958405.469839351251721 ], [ 6291473.514193585142493, 7958402.85007029119879 ], [ 6291470.894424525089562, 7958402.85007029119879 ], [ 6291470.894424525089562, 7958397.610532170161605 ], [ 6291468.274655465036631, 7958397.610532170161605 ], [ 6291468.274655465036631, 7958342.59538190625608 ], [ 6291470.894424525089562, 7958342.59538190625608 ], [ 6291470.894424525089562, 7958334.736074725165963 ], [ 6291473.514193585142493, 7958334.736074725165963 ], [ 6291473.514193585142493, 7958321.637229423969984 ], [ 6291476.133962646126747, 7958321.637229423969984 ], [ 6291476.133962646126747, 7958313.77792224381119 ], [ 6291473.514193585142493, 7958313.77792224381119 ], [ 6291473.514193585142493, 7958282.340693521313369 ], [ 6291476.133962646126747, 7958282.340693521313369 ], [ 6291476.133962646126747, 7958261.382541039027274 ], [ 6291478.753731706179678, 7958261.382541039027274 ], [ 6291478.753731706179678, 7958253.52323385886848 ], [ 6291481.37350076623261, 7958253.52323385886848 ], [ 6291481.37350076623261, 7958250.903464798815548 ], [ 6291483.993269826285541, 7958250.903464798815548 ], [ 6291483.993269826285541, 7958248.283695738762617 ], [ 6291486.613038886338472, 7958248.283695738762617 ], [ 6291486.613038886338472, 7958243.044157617725432 ], [ 6291489.232807946391404, 7958243.044157617725432 ], [ 6291489.232807946391404, 7958237.804619497619569 ], [ 6291491.852577007375658, 7958237.804619497619569 ], [ 6291491.852577007375658, 7958235.184850437566638 ], [ 6291494.472346067428589, 7958235.184850437566638 ], [ 6291494.472346067428589, 7958232.565081377513707 ], [ 6291497.09211512748152, 7958232.565081377513707 ], [ 6291497.09211512748152, 7958229.945312316529453 ], [ 6291499.711884187534451, 7958229.945312316529453 ], [ 6291499.711884187534451, 7958227.325543256476521 ], [ 6291502.331653247587383, 7958227.325543256476521 ], [ 6291502.331653247587383, 7958224.70577419642359 ], [ 6291507.571191368624568, 7958224.70577419642359 ], [ 6291507.571191368624568, 7958222.086005136370659 ], [ 6291512.810729488730431, 7958222.086005136370659 ], [ 6291512.810729488730431, 7958219.466236076317728 ], [ 6291515.430498548783362, 7958219.466236076317728 ], [ 6291515.430498548783362, 7958216.846467016264796 ], [ 6291520.670036668889225, 7958216.846467016264796 ], [ 6291520.670036668889225, 7958214.226697955280542 ], [ 6291523.289805729873478, 7958214.226697955280542 ], [ 6291523.289805729873478, 7958208.98715983517468 ], [ 6291525.90957478992641, 7958208.98715983517468 ], [ 6291525.90957478992641, 7958206.367390775121748 ], [ 6291528.529343849979341, 7958206.367390775121748 ], [ 6291528.529343849979341, 7958203.747621715068817 ], [ 6291531.149112910032272, 7958203.747621715068817 ], [ 6291531.149112910032272, 7958198.508083594031632 ], [ 6291533.768881970085204, 7958198.508083594031632 ], [ 6291533.768881970085204, 7958195.888314533978701 ], [ 6291536.388651030138135, 7958195.888314533978701 ], [ 6291536.388651030138135, 7958188.029007353819907 ], [ 6291539.008420091122389, 7958188.029007353819907 ], [ 6291539.008420091122389, 7958182.789469232782722 ], [ 6291541.62818915117532, 7958182.789469232782722 ], [ 6291541.62818915117532, 7958177.549931112676859 ], [ 6291544.247958211228251, 7958177.549931112676859 ], [ 6291544.247958211228251, 7958174.930162052623928 ], [ 6291546.867727271281183, 7958174.930162052623928 ], [ 6291546.867727271281183, 7958169.690623931586742 ], [ 6291549.487496331334114, 7958169.690623931586742 ], [ 6291549.487496331334114, 7958167.070854871533811 ], [ 6291552.107265392318368, 7958167.070854871533811 ], [ 6291552.107265392318368, 7958161.831316751427948 ], [ 6291554.727034452371299, 7958161.831316751427948 ], [ 6291554.727034452371299, 7958156.591778631322086 ], [ 6291557.346803512424231, 7958156.591778631322086 ], [ 6291557.346803512424231, 7958151.352240510284901 ], [ 6291559.966572572477162, 7958151.352240510284901 ], [ 6291559.966572572477162, 7958148.732471450231969 ], [ 6291562.586341632530093, 7958148.732471450231969 ], [ 6291562.586341632530093, 7958146.112702390179038 ], [ 6291565.206110692583025, 7958146.112702390179038 ], [ 6291565.206110692583025, 7958143.492933330126107 ], [ 6291567.825879753567278, 7958143.492933330126107 ], [ 6291567.825879753567278, 7958140.873164270073175 ], [ 6291570.44564881362021, 7958140.873164270073175 ], [ 6291570.44564881362021, 7958138.253395209088922 ], [ 6291575.685186933726072, 7958138.253395209088922 ], [ 6291575.685186933726072, 7958135.63362614903599 ], [ 6291578.304955993779004, 7958135.63362614903599 ], [ 6291578.304955993779004, 7958133.013857088983059 ], [ 6291580.924725053831935, 7958133.013857088983059 ], [ 6291580.924725053831935, 7958130.394088028930128 ], [ 6291586.16426317486912, 7958130.394088028930128 ], [ 6291586.16426317486912, 7958127.774318968877196 ], [ 6291591.403801294974983, 7958127.774318968877196 ], [ 6291591.403801294974983, 7958125.154549908824265 ], [ 6291596.643339415080845, 7958125.154549908824265 ], [ 6291596.643339415080845, 7958122.534780847840011 ], [ 6291601.882877536118031, 7958122.534780847840011 ], [ 6291601.882877536118031, 7958119.91501178778708 ], [ 6291607.122415656223893, 7958119.91501178778708 ], [ 6291607.122415656223893, 7958117.295242727734149 ], [ 6291609.742184716276824, 7958117.295242727734149 ], [ 6291609.742184716276824, 7958114.675473667681217 ], [ 6291612.361953776329756, 7958114.675473667681217 ], [ 6291612.361953776329756, 7958112.055704607628286 ], [ 6291614.98172283731401, 7958112.055704607628286 ], [ 6291614.98172283731401, 7958109.435935547575355 ], [ 6291617.601491897366941, 7958109.435935547575355 ], [ 6291617.601491897366941, 7958106.816166486591101 ], [ 6291620.221260957419872, 7958106.816166486591101 ], [ 6291620.221260957419872, 7958104.196397426538169 ], [ 6291622.841030017472804, 7958104.196397426538169 ], [ 6291622.841030017472804, 7958101.576628366485238 ], [ 6291625.460799077525735, 7958101.576628366485238 ], [ 6291625.460799077525735, 7958098.956859306432307 ], [ 6291630.70033719856292, 7958098.956859306432307 ], [ 6291630.70033719856292, 7958096.337090246379375 ], [ 6291635.939875318668783, 7958096.337090246379375 ], [ 6291635.939875318668783, 7958093.717321186326444 ], [ 6291646.418951559811831, 7958093.717321186326444 ], [ 6291646.418951559811831, 7958091.09755212534219 ], [ 6291654.278258739970624, 7958091.09755212534219 ], [ 6291654.278258739970624, 7958088.477783065289259 ], [ 6291659.517796860076487, 7958088.477783065289259 ], [ 6291659.517796860076487, 7958085.858014005236328 ], [ 6291667.377104041166604, 7958085.858014005236328 ], [ 6291667.377104041166604, 7958083.238244945183396 ], [ 6291672.616642161272466, 7958083.238244945183396 ], [ 6291672.616642161272466, 7958080.618475885130465 ], [ 6291677.856180282309651, 7958080.618475885130465 ], [ 6291677.856180282309651, 7958077.998706825077534 ], [ 6291701.434101823717356, 7958077.998706825077534 ], [ 6291701.434101823717356, 7958075.37893776409328 ], [ 6291722.392254306003451, 7958075.37893776409328 ], [ 6291722.392254306003451, 7958077.998706825077534 ], [ 6291735.491099606268108, 7958077.998706825077534 ], [ 6291735.491099606268108, 7958075.37893776409328 ], [ 6291759.069021148607135, 7958075.37893776409328 ], [ 6291759.069021148607135, 7958077.998706825077534 ], [ 6291769.548097389750183, 7958077.998706825077534 ], [ 6291769.548097389750183, 7958080.618475885130465 ], [ 6291777.407404569908977, 7958080.618475885130465 ], [ 6291777.407404569908977, 7958083.238244945183396 ], [ 6291785.266711750999093, 7958083.238244945183396 ], [ 6291785.266711750999093, 7958085.858014005236328 ], [ 6291793.126018931157887, 7958085.858014005236328 ], [ 6291793.126018931157887, 7958088.477783065289259 ], [ 6291803.605095172300935, 7958088.477783065289259 ], [ 6291803.605095172300935, 7958091.09755212534219 ], [ 6291832.422554834745824, 7958091.09755212534219 ], [ 6291832.422554834745824, 7958093.717321186326444 ], [ 6291840.281862014904618, 7958093.717321186326444 ], [ 6291840.281862014904618, 7958096.337090246379375 ], [ 6291845.521400135010481, 7958096.337090246379375 ], [ 6291845.521400135010481, 7958098.956859306432307 ], [ 6291850.760938256047666, 7958098.956859306432307 ], [ 6291850.760938256047666, 7958101.576628366485238 ], [ 6291856.000476376153529, 7958101.576628366485238 ], [ 6291856.000476376153529, 7958104.196397426538169 ], [ 6291861.240014496259391, 7958104.196397426538169 ], [ 6291861.240014496259391, 7958106.816166486591101 ], [ 6291866.479552617296576, 7958106.816166486591101 ], [ 6291866.479552617296576, 7958109.435935547575355 ], [ 6291874.33885979745537, 7958109.435935547575355 ], [ 6291874.33885979745537, 7958112.055704607628286 ], [ 6291884.817936038598418, 7958112.055704607628286 ], [ 6291884.817936038598418, 7958114.675473667681217 ], [ 6291900.536550399847329, 7958114.675473667681217 ], [ 6291900.536550399847329, 7958117.295242727734149 ], [ 6291908.395857580937445, 7958117.295242727734149 ], [ 6291908.395857580937445, 7958119.91501178778708 ], [ 6291921.494702881202102, 7958119.91501178778708 ], [ 6291921.494702881202102, 7958122.534780847840011 ], [ 6291937.213317242451012, 7958122.534780847840011 ], [ 6291937.213317242451012, 7958125.154549908824265 ], [ 6291945.072624423541129, 7958125.154549908824265 ], [ 6291945.072624423541129, 7958127.774318968877196 ], [ 6291952.931931603699923, 7958127.774318968877196 ], [ 6291952.931931603699923, 7958130.394088028930128 ], [ 6291963.41100784484297, 7958130.394088028930128 ], [ 6291963.41100784484297, 7958133.013857088983059 ], [ 6291971.270315025933087, 7958133.013857088983059 ], [ 6291971.270315025933087, 7958135.63362614903599 ], [ 6291981.749391266144812, 7958135.63362614903599 ], [ 6291981.749391266144812, 7958138.253395209088922 ], [ 6291992.22846750728786, 7958138.253395209088922 ], [ 6291992.22846750728786, 7958140.873164270073175 ], [ 6291997.468005627393723, 7958140.873164270073175 ], [ 6291997.468005627393723, 7958143.492933330126107 ], [ 6292002.707543748430908, 7958143.492933330126107 ], [ 6292002.707543748430908, 7958146.112702390179038 ], [ 6292007.94708186853677, 7958146.112702390179038 ], [ 6292007.94708186853677, 7958148.732471450231969 ], [ 6292013.186619988642633, 7958148.732471450231969 ], [ 6292013.186619988642633, 7958151.352240510284901 ], [ 6292044.623848711140454, 7958151.352240510284901 ], [ 6292044.623848711140454, 7958153.972009570337832 ], [ 6292049.863386832177639, 7958153.972009570337832 ], [ 6292049.863386832177639, 7958156.591778631322086 ], [ 6292057.722694012336433, 7958156.591778631322086 ], [ 6292057.722694012336433, 7958159.211547691375017 ], [ 6292065.582001193426549, 7958159.211547691375017 ], [ 6292065.582001193426549, 7958161.831316751427948 ], [ 6292073.441308373585343, 7958161.831316751427948 ], [ 6292073.441308373585343, 7958164.45108581148088 ], [ 6292078.680846494622529, 7958164.45108581148088 ], [ 6292078.680846494622529, 7958167.070854871533811 ], [ 6292083.920384614728391, 7958167.070854871533811 ], [ 6292083.920384614728391, 7958169.690623931586742 ], [ 6292091.779691794887185, 7958169.690623931586742 ], [ 6292091.779691794887185, 7958172.310392992570996 ], [ 6292102.258768036030233, 7958172.310392992570996 ], [ 6292102.258768036030233, 7958174.930162052623928 ], [ 6292110.118075217120349, 7958174.930162052623928 ], [ 6292110.118075217120349, 7958177.549931112676859 ], [ 6292115.357613337226212, 7958177.549931112676859 ], [ 6292115.357613337226212, 7958180.16970017272979 ], [ 6292120.597151457332075, 7958180.16970017272979 ], [ 6292120.597151457332075, 7958182.789469232782722 ], [ 6292123.216920517385006, 7958182.789469232782722 ], [ 6292123.216920517385006, 7958185.409238293766975 ], [ 6292125.83668957836926, 7958185.409238293766975 ], [ 6292125.83668957836926, 7958188.029007353819907 ], [ 6292133.695996758528054, 7958188.029007353819907 ], [ 6292133.695996758528054, 7958190.648776413872838 ], [ 6292141.55530393961817, 7958190.648776413872838 ], [ 6292141.55530393961817, 7958193.268545473925769 ], [ 6292149.414611119776964, 7958193.268545473925769 ], [ 6292149.414611119776964, 7958195.888314533978701 ], [ 6292157.273918300867081, 7958195.888314533978701 ], [ 6292157.273918300867081, 7958198.508083594031632 ], [ 6292175.612301722168922, 7958198.508083594031632 ], [ 6292175.612301722168922, 7958201.127852655015886 ], [ 6292180.851839842274785, 7958201.127852655015886 ], [ 6292180.851839842274785, 7958203.747621715068817 ], [ 6292186.09137796331197, 7958203.747621715068817 ], [ 6292186.09137796331197, 7958206.367390775121748 ], [ 6292193.950685143470764, 7958206.367390775121748 ], [ 6292193.950685143470764, 7958208.98715983517468 ], [ 6292204.429761384613812, 7958208.98715983517468 ], [ 6292204.429761384613812, 7958211.606928895227611 ], [ 6292212.289068564772606, 7958211.606928895227611 ], [ 6292212.289068564772606, 7958214.226697955280542 ], [ 6292222.768144805915654, 7958214.226697955280542 ], [ 6292222.768144805915654, 7958216.846467016264796 ], [ 6292228.007682926021516, 7958216.846467016264796 ], [ 6292228.007682926021516, 7958219.466236076317728 ], [ 6292233.247221047058702, 7958219.466236076317728 ], [ 6292233.247221047058702, 7958222.086005136370659 ], [ 6292238.486759167164564, 7958222.086005136370659 ], [ 6292238.486759167164564, 7958224.70577419642359 ], [ 6292243.726297287270427, 7958224.70577419642359 ], [ 6292243.726297287270427, 7958227.325543256476521 ], [ 6292248.965835408307612, 7958227.325543256476521 ], [ 6292248.965835408307612, 7958229.945312316529453 ], [ 6292254.205373528413475, 7958229.945312316529453 ], [ 6292254.205373528413475, 7958232.565081377513707 ], [ 6292259.444911648519337, 7958232.565081377513707 ], [ 6292259.444911648519337, 7958235.184850437566638 ], [ 6292262.064680708572268, 7958235.184850437566638 ], [ 6292262.064680708572268, 7958237.804619497619569 ], [ 6292267.304218829609454, 7958237.804619497619569 ], [ 6292267.304218829609454, 7958240.424388557672501 ], [ 6292269.923987889662385, 7958240.424388557672501 ], [ 6292269.923987889662385, 7958243.044157617725432 ], [ 6292275.163526009768248, 7958243.044157617725432 ], [ 6292275.163526009768248, 7958245.663926677778363 ], [ 6292283.022833190858364, 7958245.663926677778363 ], [ 6292283.022833190858364, 7958248.283695738762617 ], [ 6292288.262371310964227, 7958248.283695738762617 ], [ 6292288.262371310964227, 7958250.903464798815548 ], [ 6292293.501909431070089, 7958250.903464798815548 ], [ 6292293.501909431070089, 7958253.52323385886848 ], [ 6292296.121678492054343, 7958253.52323385886848 ], [ 6292296.121678492054343, 7958256.143002918921411 ], [ 6292301.361216612160206, 7958256.143002918921411 ], [ 6292301.361216612160206, 7958258.762771978974342 ], [ 6292303.980985672213137, 7958258.762771978974342 ], [ 6292303.980985672213137, 7958261.382541039027274 ], [ 6292306.600754732266068, 7958261.382541039027274 ], [ 6292306.600754732266068, 7958264.002310100011528 ], [ 6292309.220523792319, 7958264.002310100011528 ], [ 6292309.220523792319, 7958266.622079160064459 ], [ 6292311.840292853303254, 7958266.622079160064459 ], [ 6292311.840292853303254, 7958271.861617280170321 ], [ 6292314.460061913356185, 7958271.861617280170321 ], [ 6292314.460061913356185, 7958274.481386340223253 ], [ 6292317.079830973409116, 7958274.481386340223253 ], [ 6292317.079830973409116, 7958277.101155400276184 ], [ 6292319.699600033462048, 7958277.101155400276184 ], [ 6292319.699600033462048, 7958282.340693521313369 ], [ 6292322.319369093514979, 7958282.340693521313369 ], [ 6292322.319369093514979, 7958284.960462581366301 ], [ 6292324.93913815356791, 7958284.960462581366301 ], [ 6292324.93913815356791, 7958290.200000701472163 ], [ 6292327.558907214552164, 7958290.200000701472163 ], [ 6292327.558907214552164, 7958292.819769761525095 ], [ 6292330.178676274605095, 7958292.819769761525095 ], [ 6292330.178676274605095, 7958295.439538822509348 ], [ 6292332.798445334658027, 7958295.439538822509348 ], [ 6292332.798445334658027, 7958300.679076942615211 ], [ 6292335.418214394710958, 7958300.679076942615211 ], [ 6292335.418214394710958, 7958303.298846002668142 ], [ 6292338.037983454763889, 7958303.298846002668142 ], [ 6292338.037983454763889, 7958311.158153183758259 ], [ 6292340.657752514816821, 7958311.158153183758259 ], [ 6292340.657752514816821, 7958316.397691303864121 ], [ 6292343.277521575801075, 7958316.397691303864121 ], [ 6292343.277521575801075, 7958324.256998484022915 ], [ 6292345.897290635854006, 7958324.256998484022915 ], [ 6292345.897290635854006, 7958329.496536605060101 ], [ 6292348.517059695906937, 7958329.496536605060101 ], [ 6292348.517059695906937, 7958334.736074725165963 ], [ 6292351.136828755959868, 7958334.736074725165963 ], [ 6292351.136828755959868, 7958339.975612845271826 ], [ 6292353.7565978160128, 7958339.975612845271826 ], [ 6292353.7565978160128, 7958345.215150966309011 ], [ 6292356.376366876997054, 7958345.215150966309011 ], [ 6292356.376366876997054, 7958353.074458146467805 ], [ 6292358.996135937049985, 7958353.074458146467805 ], [ 6292358.996135937049985, 7958358.31399626750499 ], [ 6292361.615904997102916, 7958358.31399626750499 ], [ 6292361.615904997102916, 7958363.553534387610853 ], [ 6292364.235674057155848, 7958363.553534387610853 ], [ 6292364.235674057155848, 7958368.793072507716715 ], [ 6292366.855443117208779, 7958368.793072507716715 ], [ 6292366.855443117208779, 7958374.032610628753901 ], [ 6292369.47521217726171, 7958374.032610628753901 ], [ 6292369.47521217726171, 7958379.272148748859763 ], [ 6292372.094981238245964, 7958379.272148748859763 ], [ 6292372.094981238245964, 7958387.13145592994988 ], [ 6292374.714750298298895, 7958387.13145592994988 ], [ 6292374.714750298298895, 7958392.370994050055742 ], [ 6292377.334519358351827, 7958392.370994050055742 ], [ 6292377.334519358351827, 7958397.610532170161605 ], [ 6292379.954288418404758, 7958397.610532170161605 ], [ 6292379.954288418404758, 7958402.85007029119879 ], [ 6292382.574057478457689, 7958402.85007029119879 ], [ 6292382.574057478457689, 7958405.469839351251721 ], [ 6292385.193826538510621, 7958405.469839351251721 ], [ 6292385.193826538510621, 7958408.089608411304653 ], [ 6292387.813595599494874, 7958408.089608411304653 ], [ 6292387.813595599494874, 7958410.709377471357584 ], [ 6292390.433364659547806, 7958410.709377471357584 ], [ 6292390.433364659547806, 7958413.329146531410515 ], [ 6292393.053133719600737, 7958413.329146531410515 ], [ 6292393.053133719600737, 7958415.948915591463447 ], [ 6292395.672902779653668, 7958415.948915591463447 ], [ 6292395.672902779653668, 7958418.568684652447701 ], [ 6292398.2926718397066, 7958418.568684652447701 ], [ 6292398.2926718397066, 7958421.188453712500632 ], [ 6292400.912440899759531, 7958421.188453712500632 ], [ 6292400.912440899759531, 7958423.808222772553563 ], [ 6292403.532209960743785, 7958423.808222772553563 ], [ 6292403.532209960743785, 7958426.427991832606494 ], [ 6292406.151979020796716, 7958426.427991832606494 ], [ 6292406.151979020796716, 7958429.047760892659426 ], [ 6292408.771748080849648, 7958429.047760892659426 ], [ 6292408.771748080849648, 7958431.667529952712357 ], [ 6292411.391517140902579, 7958431.667529952712357 ], [ 6292411.391517140902579, 7958434.287299013696611 ], [ 6292414.01128620095551, 7958434.287299013696611 ], [ 6292414.01128620095551, 7958442.146606193855405 ], [ 6292416.631055261008441, 7958442.146606193855405 ], [ 6292416.631055261008441, 7958447.386144313961267 ], [ 6292419.250824321992695, 7958447.386144313961267 ], [ 6292419.250824321992695, 7958452.625682434998453 ], [ 6292421.870593382045627, 7958452.625682434998453 ], [ 6292421.870593382045627, 7958455.245451495051384 ], [ 6292424.490362442098558, 7958455.245451495051384 ], [ 6292424.490362442098558, 7958463.104758675210178 ], [ 6292427.110131502151489, 7958463.104758675210178 ], [ 6292427.110131502151489, 7958468.344296796247363 ], [ 6292429.729900562204421, 7958468.344296796247363 ], [ 6292429.729900562204421, 7958473.583834916353226 ], [ 6292432.349669622257352, 7958473.583834916353226 ], [ 6292432.349669622257352, 7958478.823373036459088 ], [ 6292434.969438683241606, 7958478.823373036459088 ], [ 6292434.969438683241606, 7958486.682680217549205 ], [ 6292437.589207743294537, 7958486.682680217549205 ], [ 6292437.589207743294537, 7958494.541987397707999 ], [ 6292440.208976803347468, 7958494.541987397707999 ], [ 6292440.208976803347468, 7958499.781525518745184 ], [ 6292442.8287458634004, 7958499.781525518745184 ], [ 6292442.8287458634004, 7958505.021063638851047 ], [ 6292445.448514923453331, 7958505.021063638851047 ], [ 6292445.448514923453331, 7958507.640832698903978 ], [ 6292448.068283983506262, 7958507.640832698903978 ], [ 6292448.068283983506262, 7958512.880370819941163 ], [ 6292450.688053044490516, 7958512.880370819941163 ], [ 6292450.688053044490516, 7958515.500139879994094 ], [ 6292453.307822104543447, 7958515.500139879994094 ], [ 6292453.307822104543447, 7958520.739678 ], [ 6292455.927591164596379, 7958520.739678 ], [ 6292455.927591164596379, 7958528.598985181190073 ], [ 6292458.54736022464931, 7958528.598985181190073 ], [ 6292458.54736022464931, 7958541.697830482386053 ], [ 6292461.167129284702241, 7958541.697830482386053 ], [ 6292461.167129284702241, 7958557.416444843634963 ], [ 6292463.786898344755173, 7958557.416444843634963 ], [ 6292463.786898344755173, 7958560.036213903687894 ], [ 6292466.406667405739427, 7958560.036213903687894 ], [ 6292466.406667405739427, 7958565.275752023793757 ], [ 6292469.026436465792358, 7958565.275752023793757 ], [ 6292469.026436465792358, 7958567.895521083846688 ], [ 6292471.646205525845289, 7958567.895521083846688 ], [ 6292471.646205525845289, 7958573.135059204883873 ], [ 6292474.265974585898221, 7958573.135059204883873 ], [ 6292474.265974585898221, 7958578.374597324989736 ], [ 6292476.885743645951152, 7958578.374597324989736 ], [ 6292476.885743645951152, 7958580.994366385042667 ], [ 6292479.505512706004083, 7958580.994366385042667 ], [ 6292479.505512706004083, 7958588.853673566132784 ], [ 6292482.125281766988337, 7958588.853673566132784 ], [ 6292482.125281766988337, 7958594.093211686238647 ], [ 6292484.745050827041268, 7958594.093211686238647 ], [ 6292484.745050827041268, 7958601.95251886639744 ], [ 6292487.3648198870942, 7958601.95251886639744 ], [ 6292487.3648198870942, 7958609.811826047487557 ], [ 6292489.984588947147131, 7958609.811826047487557 ], [ 6292489.984588947147131, 7958615.05136416759342 ], [ 6292492.604358007200062, 7958615.05136416759342 ], [ 6292492.604358007200062, 7958620.290902288630605 ], [ 6292495.224127067252994, 7958620.290902288630605 ], [ 6292495.224127067252994, 7958633.389747588895261 ], [ 6292497.843896128237247, 7958633.389747588895261 ], [ 6292497.843896128237247, 7958643.868823830038309 ], [ 6292500.463665188290179, 7958643.868823830038309 ], [ 6292500.463665188290179, 7958662.207207251340151 ], [ 6292503.08343424834311, 7958662.207207251340151 ], [ 6292503.08343424834311, 7958672.686283492483199 ], [ 6292505.703203308396041, 7958672.686283492483199 ], [ 6292505.703203308396041, 7958683.165359733626246 ], [ 6292508.322972368448973, 7958683.165359733626246 ], [ 6292508.322972368448973, 7958709.363050335086882 ], [ 6292510.942741429433227, 7958709.363050335086882 ], [ 6292510.942741429433227, 7958738.180509997531772 ], [ 6292513.562510489486158, 7958738.180509997531772 ], [ 6292513.562510489486158, 7958751.279355298727751 ], [ 6292516.182279549539089, 7958751.279355298727751 ], [ 6292516.182279549539089, 7958759.138662479817867 ], [ 6292518.802048609592021, 7958759.138662479817867 ], [ 6292518.802048609592021, 7958769.617738720029593 ], [ 6292521.421817669644952, 7958769.617738720029593 ], [ 6292521.421817669644952, 7958777.477045901119709 ], [ 6292524.041586729697883, 7958777.477045901119709 ], [ 6292524.041586729697883, 7958840.351503346115351 ], [ 6292526.661355790682137, 7958840.351503346115351 ], [ 6292526.661355790682137, 7958853.45034864731133 ], [ 6292529.281124850735068, 7958853.45034864731133 ], [ 6292529.281124850735068, 7958861.309655827470124 ], [ 6292531.900893910788, 7958861.309655827470124 ], [ 6292531.900893910788, 7958874.408501128666103 ], [ 6292534.520662970840931, 7958874.408501128666103 ], [ 6292534.520662970840931, 7958892.746884549967945 ], [ 6292537.140432030893862, 7958892.746884549967945 ], [ 6292537.140432030893862, 7958900.606191731058061 ], [ 6292539.760201090946794, 7958900.606191731058061 ], [ 6292539.760201090946794, 7958908.465498911216855 ], [ 6292542.379970151931047, 7958908.465498911216855 ], [ 6292542.379970151931047, 7958913.70503703225404 ], [ 6292544.999739211983979, 7958913.70503703225404 ], [ 6292544.999739211983979, 7958918.944575152359903 ], [ 6292547.61950827203691, 7958918.944575152359903 ], [ 6292547.61950827203691, 7958924.184113272465765 ], [ 6292550.239277332089841, 7958924.184113272465765 ], [ 6292550.239277332089841, 7958926.803882332518697 ], [ 6292552.859046392142773, 7958926.803882332518697 ], [ 6292552.859046392142773, 7958932.043420453555882 ], [ 6292555.478815452195704, 7958932.043420453555882 ], [ 6292555.478815452195704, 7958934.663189513608813 ], [ 6292558.098584513179958, 7958934.663189513608813 ], [ 6292558.098584513179958, 7958939.902727633714676 ], [ 6292560.718353573232889, 7958939.902727633714676 ], [ 6292560.718353573232889, 7958947.762034814804792 ], [ 6292563.33812263328582, 7958947.762034814804792 ], [ 6292563.33812263328582, 7958953.001572934910655 ], [ 6292565.957891693338752, 7958953.001572934910655 ], [ 6292565.957891693338752, 7958958.241111055016518 ], [ 6292568.577660753391683, 7958958.241111055016518 ], [ 6292568.577660753391683, 7958963.480649176053703 ], [ 6292571.197429813444614, 7958963.480649176053703 ], [ 6292571.197429813444614, 7958968.720187296159565 ], [ 6292573.817198874428868, 7958968.720187296159565 ], [ 6292573.817198874428868, 7958973.959725416265428 ], [ 6292576.4369679344818, 7958973.959725416265428 ], [ 6292576.4369679344818, 7958979.199263537302613 ], [ 6292579.056736994534731, 7958979.199263537302613 ], [ 6292579.056736994534731, 7958984.438801657408476 ], [ 6292581.676506054587662, 7958984.438801657408476 ], [ 6292581.676506054587662, 7958989.678339778445661 ], [ 6292584.296275114640594, 7958989.678339778445661 ], [ 6292584.296275114640594, 7958994.917877898551524 ], [ 6292586.916044174693525, 7958994.917877898551524 ], [ 6292586.916044174693525, 7958997.537646958604455 ], [ 6292589.535813235677779, 7958997.537646958604455 ], [ 6292589.535813235677779, 7959000.157416018657386 ], [ 6292592.15558229573071, 7959000.157416018657386 ], [ 6292592.15558229573071, 7959005.396954139694571 ], [ 6292594.775351355783641, 7959005.396954139694571 ], [ 6292594.775351355783641, 7959008.016723199747503 ], [ 6292597.395120415836573, 7959008.016723199747503 ], [ 6292597.395120415836573, 7959013.256261319853365 ], [ 6292600.014889475889504, 7959013.256261319853365 ], [ 6292600.014889475889504, 7959018.495799439959228 ], [ 6292602.634658535942435, 7959018.495799439959228 ], [ 6292602.634658535942435, 7959021.115568500943482 ], [ 6292605.254427596926689, 7959021.115568500943482 ], [ 6292605.254427596926689, 7959031.594644741155207 ], [ 6292607.87419665697962, 7959031.594644741155207 ], [ 6292607.87419665697962, 7959052.552797223441303 ], [ 6292605.254427596926689, 7959052.552797223441303 ], [ 6292605.254427596926689, 7959063.031873463653028 ], [ 6292602.634658535942435, 7959063.031873463653028 ], [ 6292602.634658535942435, 7959078.750487824901938 ], [ 6292600.014889475889504, 7959078.750487824901938 ], [ 6292600.014889475889504, 7959081.37025688495487 ], [ 6292597.395120415836573, 7959081.37025688495487 ], [ 6292597.395120415836573, 7959086.609795005992055 ], [ 6292594.775351355783641, 7959086.609795005992055 ], [ 6292594.775351355783641, 7959089.229564066044986 ], [ 6292592.15558229573071, 7959089.229564066044986 ], [ 6292592.15558229573071, 7959091.849333126097918 ], [ 6292589.535813235677779, 7959091.849333126097918 ], [ 6292589.535813235677779, 7959094.469102186150849 ], [ 6292586.916044174693525, 7959094.469102186150849 ], [ 6292586.916044174693525, 7959097.08887124620378 ], [ 6292584.296275114640594, 7959097.08887124620378 ], [ 6292584.296275114640594, 7959102.328409367240965 ], [ 6292581.676506054587662, 7959102.328409367240965 ], [ 6292581.676506054587662, 7959120.666792788542807 ], [ 6292579.056736994534731, 7959120.666792788542807 ], [ 6292579.056736994534731, 7959125.90633090864867 ], [ 6292576.4369679344818, 7959125.90633090864867 ], [ 6292576.4369679344818, 7959131.145869029685855 ], [ 6292573.817198874428868, 7959131.145869029685855 ], [ 6292573.817198874428868, 7959133.765638089738786 ], [ 6292571.197429813444614, 7959133.765638089738786 ], [ 6292571.197429813444614, 7959136.385407149791718 ], [ 6292568.577660753391683, 7959136.385407149791718 ], [ 6292568.577660753391683, 7959139.005176209844649 ], [ 6292565.957891693338752, 7959139.005176209844649 ], [ 6292565.957891693338752, 7959149.484252450987697 ], [ 6292563.33812263328582, 7959149.484252450987697 ], [ 6292563.33812263328582, 7959152.104021511040628 ], [ 6292558.098584513179958, 7959152.104021511040628 ], [ 6292558.098584513179958, 7959154.723790571093559 ], [ 6292555.478815452195704, 7959154.723790571093559 ], [ 6292555.478815452195704, 7959157.343559631146491 ], [ 6292552.859046392142773, 7959157.343559631146491 ], [ 6292552.859046392142773, 7959159.963328692130744 ], [ 6292550.239277332089841, 7959159.963328692130744 ], [ 6292550.239277332089841, 7959162.583097752183676 ], [ 6292547.61950827203691, 7959162.583097752183676 ], [ 6292547.61950827203691, 7959165.202866812236607 ], [ 6292539.760201090946794, 7959165.202866812236607 ], [ 6292539.760201090946794, 7959167.822635872289538 ], [ 6292531.900893910788, 7959167.822635872289538 ], [ 6292531.900893910788, 7959170.44240493234247 ], [ 6292526.661355790682137, 7959170.44240493234247 ], [ 6292526.661355790682137, 7959173.062173992395401 ], [ 6292521.421817669644952, 7959173.062173992395401 ], [ 6292521.421817669644952, 7959175.681943053379655 ], [ 6292513.562510489486158, 7959175.681943053379655 ], [ 6292513.562510489486158, 7959178.301712113432586 ], [ 6292510.942741429433227, 7959178.301712113432586 ], [ 6292510.942741429433227, 7959180.921481173485518 ], [ 6292508.322972368448973, 7959180.921481173485518 ], [ 6292508.322972368448973, 7959183.541250233538449 ], [ 6292503.08343424834311, 7959183.541250233538449 ], [ 6292503.08343424834311, 7959186.16101929359138 ], [ 6292500.463665188290179, 7959186.16101929359138 ], [ 6292500.463665188290179, 7959183.541250233538449 ], [ 6292497.843896128237247, 7959183.541250233538449 ], [ 6292497.843896128237247, 7959186.16101929359138 ], [ 6292489.984588947147131, 7959186.16101929359138 ], [ 6292489.984588947147131, 7959188.780788353644311 ], [ 6292479.505512706004083, 7959188.780788353644311 ], [ 6292479.505512706004083, 7959191.400557414628565 ], [ 6292461.167129284702241, 7959191.400557414628565 ], [ 6292461.167129284702241, 7959194.020326474681497 ], [ 6292455.927591164596379, 7959194.020326474681497 ], [ 6292455.927591164596379, 7959196.640095534734428 ], [ 6292445.448514923453331, 7959196.640095534734428 ], [ 6292445.448514923453331, 7959199.259864594787359 ], [ 6292414.01128620095551, 7959199.259864594787359 ], [ 6292414.01128620095551, 7959201.879633654840291 ], [ 6292398.2926718397066, 7959201.879633654840291 ], [ 6292398.2926718397066, 7959204.499402714893222 ], [ 6292382.574057478457689, 7959204.499402714893222 ], [ 6292382.574057478457689, 7959207.119171775877476 ], [ 6292374.714750298298895, 7959207.119171775877476 ], [ 6292374.714750298298895, 7959209.738940835930407 ], [ 6292366.855443117208779, 7959209.738940835930407 ], [ 6292366.855443117208779, 7959212.358709895983338 ], [ 6292353.7565978160128, 7959212.358709895983338 ], [ 6292353.7565978160128, 7959214.97847895603627 ], [ 6292324.93913815356791, 7959214.97847895603627 ], [ 6292324.93913815356791, 7959212.358709895983338 ], [ 6292317.079830973409116, 7959212.358709895983338 ], [ 6292317.079830973409116, 7959209.738940835930407 ], [ 6292306.600754732266068, 7959209.738940835930407 ], [ 6292306.600754732266068, 7959207.119171775877476 ], [ 6292303.980985672213137, 7959207.119171775877476 ], [ 6292303.980985672213137, 7959209.738940835930407 ], [ 6292259.444911648519337, 7959209.738940835930407 ], [ 6292259.444911648519337, 7959212.358709895983338 ], [ 6292251.585604468360543, 7959212.358709895983338 ], [ 6292251.585604468360543, 7959214.97847895603627 ], [ 6292243.726297287270427, 7959214.97847895603627 ], [ 6292243.726297287270427, 7959217.598248016089201 ], [ 6292217.528606685809791, 7959217.598248016089201 ] ] ] } }
]
}
