{
"type": "FeatureCollection",
"name": "pred_захламление_hn_tile004",
"crs": { "type": "name", "properties": { "name": "urn:ogc:def:crs:EPSG::3857" } },
"features": [
{ "type": "Feature", "properties": { "class": 1 }, "geometry": { "type": "Polygon", "coordinates": [ [ [ 4971720.161545475944877, 7067153.35924503672868 ], [ 4971720.161545475944877, 7067150.874113478697836 ], [ 4971712.706150801852345, 7067150.874113478697836 ], [ 4971712.706150801852345, 7067148.388981920666993 ], [ 4971707.735887685790658, 7067148.388981920666993 ], [ 4971707.735887685790658, 7067145.903850362636149 ], [ 4971702.765624568797648, 7067145.903850362636149 ], [ 4971702.765624568797648, 7067143.418718804605305 ], [ 4971697.79536145273596, 7067143.418718804605305 ], [ 4971697.79536145273596, 7067140.933587246574461 ], [ 4971695.310229894705117, 7067140.933587246574461 ], [ 4971695.310229894705117, 7067135.963324129581451 ], [ 4971690.339966778643429, 7067135.963324129581451 ], [ 4971690.339966778643429, 7067133.478192571550608 ], [ 4971687.854835220612586, 7067133.478192571550608 ], [ 4971687.854835220612586, 7067130.993061013519764 ], [ 4971685.369703662581742, 7067130.993061013519764 ], [ 4971685.369703662581742, 7067128.50792945548892 ], [ 4971682.884572104550898, 7067128.50792945548892 ], [ 4971682.884572104550898, 7067126.022797897458076 ], [ 4971675.429177430458367, 7067126.022797897458076 ], [ 4971675.429177430458367, 7067123.537666339427233 ], [ 4971670.458914314396679, 7067123.537666339427233 ], [ 4971670.458914314396679, 7067126.022797897458076 ], [ 4971660.518388082273304, 7067126.022797897458076 ], [ 4971660.518388082273304, 7067128.50792945548892 ], [ 4971655.548124965280294, 7067128.50792945548892 ], [ 4971655.548124965280294, 7067130.993061013519764 ], [ 4971648.092730291187763, 7067130.993061013519764 ], [ 4971648.092730291187763, 7067133.478192571550608 ], [ 4971640.637335617095232, 7067133.478192571550608 ], [ 4971640.637335617095232, 7067135.963324129581451 ], [ 4971635.667072501033545, 7067135.963324129581451 ], [ 4971635.667072501033545, 7067138.448455688543618 ], [ 4971620.756283152848482, 7067138.448455688543618 ], [ 4971620.756283152848482, 7067135.963324129581451 ], [ 4971615.786020035855472, 7067135.963324129581451 ], [ 4971615.786020035855472, 7067133.478192571550608 ], [ 4971613.300888477824628, 7067133.478192571550608 ], [ 4971613.300888477824628, 7067128.50792945548892 ], [ 4971610.815756919793785, 7067128.50792945548892 ], [ 4971610.815756919793785, 7067118.567403223365545 ], [ 4971613.300888477824628, 7067118.567403223365545 ], [ 4971613.300888477824628, 7067113.597140107303858 ], [ 4971615.786020035855472, 7067113.597140107303858 ], [ 4971615.786020035855472, 7067111.112008549273014 ], [ 4971618.271151594817638, 7067111.112008549273014 ], [ 4971618.271151594817638, 7067108.62687699124217 ], [ 4971623.241414710879326, 7067108.62687699124217 ], [ 4971623.241414710879326, 7067106.141745433211327 ], [ 4971628.211677826941013, 7067106.141745433211327 ], [ 4971628.211677826941013, 7067103.656613875180483 ], [ 4971630.696809384971857, 7067103.656613875180483 ], [ 4971630.696809384971857, 7067101.171482317149639 ], [ 4971635.667072501033545, 7067101.171482317149639 ], [ 4971635.667072501033545, 7067098.686350759118795 ], [ 4971640.637335617095232, 7067098.686350759118795 ], [ 4971640.637335617095232, 7067096.201219201087952 ], [ 4971643.122467175126076, 7067096.201219201087952 ], [ 4971643.122467175126076, 7067093.716087642125785 ], [ 4971648.092730291187763, 7067093.716087642125785 ], [ 4971648.092730291187763, 7067091.230956084094942 ], [ 4971650.577861849218607, 7067091.230956084094942 ], [ 4971650.577861849218607, 7067086.260692968033254 ], [ 4971653.062993407249451, 7067086.260692968033254 ], [ 4971653.062993407249451, 7067083.77556141000241 ], [ 4971655.548124965280294, 7067083.77556141000241 ], [ 4971655.548124965280294, 7067068.864772061817348 ], [ 4971653.062993407249451, 7067068.864772061817348 ], [ 4971653.062993407249451, 7067063.894508945755661 ], [ 4971650.577861849218607, 7067063.894508945755661 ], [ 4971650.577861849218607, 7067058.924245829693973 ], [ 4971648.092730291187763, 7067058.924245829693973 ], [ 4971648.092730291187763, 7067056.439114271663129 ], [ 4971645.607598733156919, 7067056.439114271663129 ], [ 4971645.607598733156919, 7067053.953982713632286 ], [ 4971643.122467175126076, 7067053.953982713632286 ], [ 4971643.122467175126076, 7067051.468851155601442 ], [ 4971620.756283152848482, 7067051.468851155601442 ], [ 4971620.756283152848482, 7067048.983719596639276 ], [ 4971615.786020035855472, 7067048.983719596639276 ], [ 4971615.786020035855472, 7067046.498588038608432 ], [ 4971613.300888477824628, 7067046.498588038608432 ], [ 4971613.300888477824628, 7067044.013456480577588 ], [ 4971610.815756919793785, 7067044.013456480577588 ], [ 4971610.815756919793785, 7067041.528324922546744 ], [ 4971608.330625361762941, 7067041.528324922546744 ], [ 4971608.330625361762941, 7067036.558061806485057 ], [ 4971605.845493803732097, 7067036.558061806485057 ], [ 4971605.845493803732097, 7067034.072930248454213 ], [ 4971603.360362245701253, 7067034.072930248454213 ], [ 4971603.360362245701253, 7067029.102667132392526 ], [ 4971600.87523068767041, 7067029.102667132392526 ], [ 4971600.87523068767041, 7067021.647272458299994 ], [ 4971598.390099129639566, 7067021.647272458299994 ], [ 4971598.390099129639566, 7067011.70674622617662 ], [ 4971600.87523068767041, 7067011.70674622617662 ], [ 4971600.87523068767041, 7067004.251351551152766 ], [ 4971603.360362245701253, 7067004.251351551152766 ], [ 4971603.360362245701253, 7067001.766219993121922 ], [ 4971605.845493803732097, 7067001.766219993121922 ], [ 4971605.845493803732097, 7066996.795956877060235 ], [ 4971608.330625361762941, 7066996.795956877060235 ], [ 4971608.330625361762941, 7066991.825693760998547 ], [ 4971610.815756919793785, 7066991.825693760998547 ], [ 4971610.815756919793785, 7066989.340562202967703 ], [ 4971613.300888477824628, 7066989.340562202967703 ], [ 4971613.300888477824628, 7066984.370299086906016 ], [ 4971615.786020035855472, 7066984.370299086906016 ], [ 4971615.786020035855472, 7066981.885167528875172 ], [ 4971618.271151594817638, 7066981.885167528875172 ], [ 4971618.271151594817638, 7066979.400035970844328 ], [ 4971623.241414710879326, 7066979.400035970844328 ], [ 4971623.241414710879326, 7066976.914904412813485 ], [ 4971625.72654626891017, 7066976.914904412813485 ], [ 4971625.72654626891017, 7066974.429772854782641 ], [ 4971630.696809384971857, 7066974.429772854782641 ], [ 4971630.696809384971857, 7066971.944641296751797 ], [ 4971633.181940943002701, 7066971.944641296751797 ], [ 4971633.181940943002701, 7066966.97437818069011 ], [ 4971635.667072501033545, 7066966.97437818069011 ], [ 4971635.667072501033545, 7066962.0041150636971 ], [ 4971638.152204059064388, 7066962.0041150636971 ], [ 4971638.152204059064388, 7066957.033851947635412 ], [ 4971635.667072501033545, 7066957.033851947635412 ], [ 4971635.667072501033545, 7066944.608194157481194 ], [ 4971633.181940943002701, 7066944.608194157481194 ], [ 4971633.181940943002701, 7066939.637931041419506 ], [ 4971630.696809384971857, 7066939.637931041419506 ], [ 4971630.696809384971857, 7066937.152799483388662 ], [ 4971628.211677826941013, 7066937.152799483388662 ], [ 4971628.211677826941013, 7066934.667667925357819 ], [ 4971625.72654626891017, 7066934.667667925357819 ], [ 4971625.72654626891017, 7066932.182536367326975 ], [ 4971615.786020035855472, 7066932.182536367326975 ], [ 4971615.786020035855472, 7066929.697404809296131 ], [ 4971605.845493803732097, 7066929.697404809296131 ], [ 4971605.845493803732097, 7066927.212273251265287 ], [ 4971598.390099129639566, 7066927.212273251265287 ], [ 4971598.390099129639566, 7066924.727141693234444 ], [ 4971590.934704455547035, 7066924.727141693234444 ], [ 4971590.934704455547035, 7066922.2420101352036 ], [ 4971583.479309781454504, 7066922.2420101352036 ], [ 4971583.479309781454504, 7066919.756878577172756 ], [ 4971578.509046665392816, 7066919.756878577172756 ], [ 4971578.509046665392816, 7066917.27174701821059 ], [ 4971573.538783549331129, 7066917.27174701821059 ], [ 4971573.538783549331129, 7066914.786615460179746 ], [ 4971568.568520432338119, 7066914.786615460179746 ], [ 4971568.568520432338119, 7066912.301483902148902 ], [ 4971566.083388874307275, 7066912.301483902148902 ], [ 4971566.083388874307275, 7066909.816352344118059 ], [ 4971563.598257316276431, 7066909.816352344118059 ], [ 4971563.598257316276431, 7066907.331220786087215 ], [ 4971561.113125758245587, 7066907.331220786087215 ], [ 4971561.113125758245587, 7066904.846089228056371 ], [ 4971556.1428626421839, 7066904.846089228056371 ], [ 4971556.1428626421839, 7066899.875826111994684 ], [ 4971553.657731084153056, 7066899.875826111994684 ], [ 4971553.657731084153056, 7066894.905562995932996 ], [ 4971551.172599526122212, 7066894.905562995932996 ], [ 4971551.172599526122212, 7066877.50964208971709 ], [ 4971553.657731084153056, 7066877.50964208971709 ], [ 4971553.657731084153056, 7066870.054247414693236 ], [ 4971556.1428626421839, 7066870.054247414693236 ], [ 4971556.1428626421839, 7066862.598852740600705 ], [ 4971558.627994200214744, 7066862.598852740600705 ], [ 4971558.627994200214744, 7066857.628589624539018 ], [ 4971561.113125758245587, 7066857.628589624539018 ], [ 4971561.113125758245587, 7066850.173194950446486 ], [ 4971563.598257316276431, 7066850.173194950446486 ], [ 4971563.598257316276431, 7066842.717800276353955 ], [ 4971566.083388874307275, 7066842.717800276353955 ], [ 4971566.083388874307275, 7066840.232668718323112 ], [ 4971568.568520432338119, 7066840.232668718323112 ], [ 4971568.568520432338119, 7066837.747537160292268 ], [ 4971571.053651990368962, 7066837.747537160292268 ], [ 4971571.053651990368962, 7066835.262405602261424 ], [ 4971573.538783549331129, 7066835.262405602261424 ], [ 4971573.538783549331129, 7066832.77727404423058 ], [ 4971576.023915107361972, 7066832.77727404423058 ], [ 4971576.023915107361972, 7066830.292142485268414 ], [ 4971578.509046665392816, 7066830.292142485268414 ], [ 4971578.509046665392816, 7066827.80701092723757 ], [ 4971583.479309781454504, 7066827.80701092723757 ], [ 4971583.479309781454504, 7066825.321879369206727 ], [ 4971588.449572897516191, 7066825.321879369206727 ], [ 4971588.449572897516191, 7066822.836747811175883 ], [ 4971593.419836013577878, 7066822.836747811175883 ], [ 4971593.419836013577878, 7066820.351616253145039 ], [ 4971603.360362245701253, 7066820.351616253145039 ], [ 4971603.360362245701253, 7066817.866484695114195 ], [ 4971620.756283152848482, 7066817.866484695114195 ], [ 4971620.756283152848482, 7066815.381353137083352 ], [ 4971643.122467175126076, 7066815.381353137083352 ], [ 4971643.122467175126076, 7066817.866484695114195 ], [ 4971685.369703662581742, 7066817.866484695114195 ], [ 4971685.369703662581742, 7066815.381353137083352 ], [ 4971697.79536145273596, 7066815.381353137083352 ], [ 4971697.79536145273596, 7066812.896221579052508 ], [ 4971705.250756127759814, 7066812.896221579052508 ], [ 4971705.250756127759814, 7066810.411090021021664 ], [ 4971720.161545475944877, 7066810.411090021021664 ], [ 4971720.161545475944877, 7066807.92595846299082 ], [ 4971735.072334824129939, 7066807.92595846299082 ], [ 4971735.072334824129939, 7066805.440826904959977 ], [ 4971745.012861056253314, 7066805.440826904959977 ], [ 4971745.012861056253314, 7066802.955695346929133 ], [ 4971749.983124173246324, 7066802.955695346929133 ], [ 4971749.983124173246324, 7066800.470563788898289 ], [ 4971757.438518847338855, 7066800.470563788898289 ], [ 4971757.438518847338855, 7066797.985432230867445 ], [ 4971767.37904507946223, 7066797.985432230867445 ], [ 4971767.37904507946223, 7066795.500300672836602 ], [ 4971824.537070915102959, 7066795.500300672836602 ], [ 4971824.537070915102959, 7066797.985432230867445 ], [ 4971834.477597147226334, 7066797.985432230867445 ], [ 4971834.477597147226334, 7066800.470563788898289 ], [ 4971846.903254938311875, 7066800.470563788898289 ], [ 4971846.903254938311875, 7066797.985432230867445 ], [ 4971871.754570518620312, 7066797.985432230867445 ], [ 4971871.754570518620312, 7066795.500300672836602 ], [ 4971876.724833634682, 7066795.500300672836602 ], [ 4971876.724833634682, 7066793.015169114805758 ], [ 4971881.69509675167501, 7066793.015169114805758 ], [ 4971881.69509675167501, 7066790.530037556774914 ], [ 4971886.665359867736697, 7066790.530037556774914 ], [ 4971886.665359867736697, 7066788.044905998744071 ], [ 4971889.150491425767541, 7066788.044905998744071 ], [ 4971889.150491425767541, 7066785.559774439781904 ], [ 4971894.120754541829228, 7066785.559774439781904 ], [ 4971894.120754541829228, 7066783.07464288175106 ], [ 4971896.605886099860072, 7066783.07464288175106 ], [ 4971896.605886099860072, 7066780.589511323720217 ], [ 4971901.57614921592176, 7066780.589511323720217 ], [ 4971901.57614921592176, 7066778.104379765689373 ], [ 4971904.061280773952603, 7066778.104379765689373 ], [ 4971904.061280773952603, 7066775.619248207658529 ], [ 4971909.031543890014291, 7066775.619248207658529 ], [ 4971909.031543890014291, 7066773.134116649627686 ], [ 4971911.516675448045135, 7066773.134116649627686 ], [ 4971911.516675448045135, 7066770.648985091596842 ], [ 4971916.486938564106822, 7066770.648985091596842 ], [ 4971916.486938564106822, 7066768.163853533565998 ], [ 4971933.882859471254051, 7066768.163853533565998 ], [ 4971933.882859471254051, 7066765.678721975535154 ], [ 4971941.338254145346582, 7066765.678721975535154 ], [ 4971941.338254145346582, 7066763.193590417504311 ], [ 4971951.278780377469957, 7066763.193590417504311 ], [ 4971951.278780377469957, 7066760.708458859473467 ], [ 4971968.674701284617186, 7066760.708458859473467 ], [ 4971968.674701284617186, 7066763.193590417504311 ], [ 4971986.070622190833092, 7066763.193590417504311 ], [ 4971986.070622190833092, 7066765.678721975535154 ], [ 4971991.040885306894779, 7066765.678721975535154 ], [ 4971991.040885306894779, 7066770.648985091596842 ], [ 4971993.526016864925623, 7066770.648985091596842 ], [ 4971993.526016864925623, 7066783.07464288175106 ], [ 4971996.011148422956467, 7066783.07464288175106 ], [ 4971996.011148422956467, 7066817.866484695114195 ], [ 4971993.526016864925623, 7066817.866484695114195 ], [ 4971993.526016864925623, 7066825.321879369206727 ], [ 4971991.040885306894779, 7066825.321879369206727 ], [ 4971991.040885306894779, 7066827.80701092723757 ], [ 4971988.555753748863935, 7066827.80701092723757 ], [ 4971988.555753748863935, 7066832.77727404423058 ], [ 4971986.070622190833092, 7066832.77727404423058 ], [ 4971986.070622190833092, 7066837.747537160292268 ], [ 4971983.585490632802248, 7066837.747537160292268 ], [ 4971983.585490632802248, 7066845.202931834384799 ], [ 4971981.100359074771404, 7066845.202931834384799 ], [ 4971981.100359074771404, 7066887.450168321840465 ], [ 4971983.585490632802248, 7066887.450168321840465 ], [ 4971983.585490632802248, 7066929.697404809296131 ], [ 4971986.070622190833092, 7066929.697404809296131 ], [ 4971986.070622190833092, 7066934.667667925357819 ], [ 4971988.555753748863935, 7066934.667667925357819 ], [ 4971988.555753748863935, 7066939.637931041419506 ], [ 4971991.040885306894779, 7066939.637931041419506 ], [ 4971991.040885306894779, 7066942.12306259945035 ], [ 4971993.526016864925623, 7066942.12306259945035 ], [ 4971993.526016864925623, 7066944.608194157481194 ], [ 4971996.011148422956467, 7066944.608194157481194 ], [ 4971996.011148422956467, 7066947.093325715512037 ], [ 4971998.49627998098731, 7066947.093325715512037 ], [ 4971998.49627998098731, 7066952.063588831573725 ], [ 4972000.981411539018154, 7066952.063588831573725 ], [ 4972000.981411539018154, 7066954.548720389604568 ], [ 4972003.466543097048998, 7066954.548720389604568 ], [ 4972003.466543097048998, 7066957.033851947635412 ], [ 4972005.951674655079842, 7066957.033851947635412 ], [ 4972005.951674655079842, 7066962.0041150636971 ], [ 4972008.436806213110685, 7066962.0041150636971 ], [ 4972008.436806213110685, 7066966.97437818069011 ], [ 4972010.921937771141529, 7066966.97437818069011 ], [ 4972010.921937771141529, 7066969.459509738720953 ], [ 4972013.407069330103695, 7066969.459509738720953 ], [ 4972013.407069330103695, 7066974.429772854782641 ], [ 4972015.892200888134539, 7066974.429772854782641 ], [ 4972015.892200888134539, 7066976.914904412813485 ], [ 4972018.377332446165383, 7066976.914904412813485 ], [ 4972018.377332446165383, 7066979.400035970844328 ], [ 4972023.34759556222707, 7066979.400035970844328 ], [ 4972023.34759556222707, 7066981.885167528875172 ], [ 4972025.832727120257914, 7066981.885167528875172 ], [ 4972025.832727120257914, 7066984.370299086906016 ], [ 4972028.317858678288758, 7066984.370299086906016 ], [ 4972028.317858678288758, 7066986.85543064493686 ], [ 4972030.802990236319602, 7066986.85543064493686 ], [ 4972030.802990236319602, 7066989.340562202967703 ], [ 4972033.288121794350445, 7066989.340562202967703 ], [ 4972033.288121794350445, 7066991.825693760998547 ], [ 4972035.773253352381289, 7066991.825693760998547 ], [ 4972035.773253352381289, 7067004.251351551152766 ], [ 4972033.288121794350445, 7067004.251351551152766 ], [ 4972033.288121794350445, 7067006.736483110114932 ], [ 4972030.802990236319602, 7067006.736483110114932 ], [ 4972030.802990236319602, 7067009.221614668145776 ], [ 4972028.317858678288758, 7067009.221614668145776 ], [ 4972028.317858678288758, 7067014.191877784207463 ], [ 4972025.832727120257914, 7067014.191877784207463 ], [ 4972025.832727120257914, 7067016.677009342238307 ], [ 4972023.34759556222707, 7067016.677009342238307 ], [ 4972023.34759556222707, 7067019.162140900269151 ], [ 4972020.862464004196227, 7067019.162140900269151 ], [ 4972020.862464004196227, 7067021.647272458299994 ], [ 4972015.892200888134539, 7067021.647272458299994 ], [ 4972015.892200888134539, 7067024.132404016330838 ], [ 4972013.407069330103695, 7067024.132404016330838 ], [ 4972013.407069330103695, 7067026.617535574361682 ], [ 4972010.921937771141529, 7067026.617535574361682 ], [ 4972010.921937771141529, 7067029.102667132392526 ], [ 4972008.436806213110685, 7067029.102667132392526 ], [ 4972008.436806213110685, 7067031.587798690423369 ], [ 4972005.951674655079842, 7067031.587798690423369 ], [ 4972005.951674655079842, 7067034.072930248454213 ], [ 4972003.466543097048998, 7067034.072930248454213 ], [ 4972003.466543097048998, 7067036.558061806485057 ], [ 4971998.49627998098731, 7067036.558061806485057 ], [ 4971998.49627998098731, 7067039.043193364515901 ], [ 4971993.526016864925623, 7067039.043193364515901 ], [ 4971993.526016864925623, 7067041.528324922546744 ], [ 4971991.040885306894779, 7067041.528324922546744 ], [ 4971991.040885306894779, 7067044.013456480577588 ], [ 4971988.555753748863935, 7067044.013456480577588 ], [ 4971988.555753748863935, 7067046.498588038608432 ], [ 4971986.070622190833092, 7067046.498588038608432 ], [ 4971986.070622190833092, 7067048.983719596639276 ], [ 4971983.585490632802248, 7067048.983719596639276 ], [ 4971983.585490632802248, 7067051.468851155601442 ], [ 4971981.100359074771404, 7067051.468851155601442 ], [ 4971981.100359074771404, 7067053.953982713632286 ], [ 4971978.615227516740561, 7067053.953982713632286 ], [ 4971978.615227516740561, 7067056.439114271663129 ], [ 4971976.130095958709717, 7067056.439114271663129 ], [ 4971976.130095958709717, 7067063.894508945755661 ], [ 4971973.644964400678873, 7067063.894508945755661 ], [ 4971973.644964400678873, 7067068.864772061817348 ], [ 4971971.159832842648029, 7067068.864772061817348 ], [ 4971971.159832842648029, 7067086.260692968033254 ], [ 4971968.674701284617186, 7067086.260692968033254 ], [ 4971968.674701284617186, 7067091.230956084094942 ], [ 4971966.189569725655019, 7067091.230956084094942 ], [ 4971966.189569725655019, 7067096.201219201087952 ], [ 4971963.704438167624176, 7067096.201219201087952 ], [ 4971963.704438167624176, 7067098.686350759118795 ], [ 4971961.219306609593332, 7067098.686350759118795 ], [ 4971961.219306609593332, 7067103.656613875180483 ], [ 4971958.734175051562488, 7067103.656613875180483 ], [ 4971958.734175051562488, 7067108.62687699124217 ], [ 4971956.249043493531644, 7067108.62687699124217 ], [ 4971956.249043493531644, 7067111.112008549273014 ], [ 4971953.763911935500801, 7067111.112008549273014 ], [ 4971953.763911935500801, 7067116.082271665334702 ], [ 4971951.278780377469957, 7067116.082271665334702 ], [ 4971951.278780377469957, 7067118.567403223365545 ], [ 4971948.793648819439113, 7067118.567403223365545 ], [ 4971948.793648819439113, 7067121.052534781396389 ], [ 4971946.308517261408269, 7067121.052534781396389 ], [ 4971946.308517261408269, 7067123.537666339427233 ], [ 4971943.823385703377426, 7067123.537666339427233 ], [ 4971943.823385703377426, 7067126.022797897458076 ], [ 4971936.367991029284894, 7067126.022797897458076 ], [ 4971936.367991029284894, 7067123.537666339427233 ], [ 4971928.912596355192363, 7067123.537666339427233 ], [ 4971928.912596355192363, 7067121.052534781396389 ], [ 4971923.942333239130676, 7067121.052534781396389 ], [ 4971923.942333239130676, 7067118.567403223365545 ], [ 4971918.972070122137666, 7067118.567403223365545 ], [ 4971918.972070122137666, 7067116.082271665334702 ], [ 4971909.031543890014291, 7067116.082271665334702 ], [ 4971909.031543890014291, 7067113.597140107303858 ], [ 4971901.57614921592176, 7067113.597140107303858 ], [ 4971901.57614921592176, 7067111.112008549273014 ], [ 4971879.209965192712843, 7067111.112008549273014 ], [ 4971879.209965192712843, 7067108.62687699124217 ], [ 4971864.299175844527781, 7067108.62687699124217 ], [ 4971864.299175844527781, 7067111.112008549273014 ], [ 4971859.328912728466094, 7067111.112008549273014 ], [ 4971859.328912728466094, 7067113.597140107303858 ], [ 4971854.358649612404406, 7067113.597140107303858 ], [ 4971854.358649612404406, 7067116.082271665334702 ], [ 4971851.873518054373562, 7067116.082271665334702 ], [ 4971851.873518054373562, 7067118.567403223365545 ], [ 4971849.388386496342719, 7067118.567403223365545 ], [ 4971849.388386496342719, 7067123.537666339427233 ], [ 4971846.903254938311875, 7067123.537666339427233 ], [ 4971846.903254938311875, 7067126.022797897458076 ], [ 4971844.418123380281031, 7067126.022797897458076 ], [ 4971844.418123380281031, 7067130.993061013519764 ], [ 4971841.932991822250187, 7067130.993061013519764 ], [ 4971841.932991822250187, 7067133.478192571550608 ], [ 4971839.447860264219344, 7067133.478192571550608 ], [ 4971839.447860264219344, 7067135.963324129581451 ], [ 4971836.9627287061885, 7067135.963324129581451 ], [ 4971836.9627287061885, 7067138.448455688543618 ], [ 4971834.477597147226334, 7067138.448455688543618 ], [ 4971834.477597147226334, 7067140.933587246574461 ], [ 4971831.99246558919549, 7067140.933587246574461 ], [ 4971831.99246558919549, 7067143.418718804605305 ], [ 4971827.022202473133802, 7067143.418718804605305 ], [ 4971827.022202473133802, 7067145.903850362636149 ], [ 4971819.566807799041271, 7067145.903850362636149 ], [ 4971819.566807799041271, 7067148.388981920666993 ], [ 4971809.626281566917896, 7067148.388981920666993 ], [ 4971809.626281566917896, 7067150.874113478697836 ], [ 4971794.715492218732834, 7067150.874113478697836 ], [ 4971794.715492218732834, 7067153.35924503672868 ], [ 4971720.161545475944877, 7067153.35924503672868 ] ] ] } }
]
}
