{
"type": "FeatureCollection",
"name": "pred_захламление_hn_tile007",
"crs": { "type": "name", "properties": { "name": "urn:ogc:def:crs:EPSG::3857" } },
"features": [
{ "type": "Feature", "properties": { "class": 1 }, "geometry": { "type": "Polygon", "coordinates": [ [ [ 4434663.034614325501025, 8188104.326360434293747 ], [ 4434663.034614325501025, 8188085.712923761457205 ], [ 4434660.375551943667233, 8188085.712923761457205 ], [ 4434660.375551943667233, 8188077.735736615024507 ], [ 4434657.716489561833441, 8188077.735736615024507 ], [ 4434657.716489561833441, 8188069.758549469523132 ], [ 4434655.05742717999965, 8188069.758549469523132 ], [ 4434655.05742717999965, 8188061.781362324021757 ], [ 4434652.398364798165858, 8188061.781362324021757 ], [ 4434652.398364798165858, 8188053.804175178520381 ], [ 4434649.739302416332066, 8188053.804175178520381 ], [ 4434649.739302416332066, 8188048.486050414852798 ], [ 4434647.080240034498274, 8188048.486050414852798 ], [ 4434647.080240034498274, 8188040.508863269351423 ], [ 4434644.421177652664483, 8188040.508863269351423 ], [ 4434644.421177652664483, 8188035.190738505683839 ], [ 4434641.762115270830691, 8188035.190738505683839 ], [ 4434641.762115270830691, 8188032.531676123850048 ], [ 4434639.103052888996899, 8188032.531676123850048 ], [ 4434639.103052888996899, 8188027.213551360182464 ], [ 4434636.443990506231785, 8188027.213551360182464 ], [ 4434636.443990506231785, 8187995.304802777245641 ], [ 4434639.103052888996899, 8187995.304802777245641 ], [ 4434639.103052888996899, 8187987.327615631744266 ], [ 4434641.762115270830691, 8187987.327615631744266 ], [ 4434641.762115270830691, 8187982.009490868076682 ], [ 4434644.421177652664483, 8187982.009490868076682 ], [ 4434644.421177652664483, 8187974.032303721643984 ], [ 4434647.080240034498274, 8187974.032303721643984 ], [ 4434647.080240034498274, 8187971.373241339810193 ], [ 4434649.739302416332066, 8187971.373241339810193 ], [ 4434649.739302416332066, 8187968.714178957976401 ], [ 4434652.398364798165858, 8187968.714178957976401 ], [ 4434652.398364798165858, 8187963.396054194308817 ], [ 4434655.05742717999965, 8187963.396054194308817 ], [ 4434655.05742717999965, 8187960.736991812475026 ], [ 4434657.716489561833441, 8187960.736991812475026 ], [ 4434657.716489561833441, 8187952.75980466697365 ], [ 4434660.375551943667233, 8187952.75980466697365 ], [ 4434660.375551943667233, 8187950.100742285139859 ], [ 4434657.716489561833441, 8187950.100742285139859 ], [ 4434657.716489561833441, 8187947.441679903306067 ], [ 4434655.05742717999965, 8187947.441679903306067 ], [ 4434655.05742717999965, 8187944.782617521472275 ], [ 4434652.398364798165858, 8187944.782617521472275 ], [ 4434652.398364798165858, 8187942.123555139638484 ], [ 4434649.739302416332066, 8187942.123555139638484 ], [ 4434649.739302416332066, 8187939.464492757804692 ], [ 4434628.46680336073041, 8187939.464492757804692 ], [ 4434628.46680336073041, 8187936.8054303759709 ], [ 4434607.194304306060076, 8187936.8054303759709 ], [ 4434607.194304306060076, 8187934.146367994137108 ], [ 4434604.535241924226284, 8187934.146367994137108 ], [ 4434604.535241924226284, 8187931.487305612303317 ], [ 4434601.876179542392492, 8187931.487305612303317 ], [ 4434601.876179542392492, 8187926.169180848635733 ], [ 4434599.217117160558701, 8187926.169180848635733 ], [ 4434599.217117160558701, 8187923.510118466801941 ], [ 4434572.626493341289461, 8187923.510118466801941 ], [ 4434572.626493341289461, 8187920.851056084036827 ], [ 4434567.308368577621877, 8187920.851056084036827 ], [ 4434567.308368577621877, 8187918.191993702203035 ], [ 4434561.990243813954294, 8187918.191993702203035 ], [ 4434561.990243813954294, 8187915.532931320369244 ], [ 4434556.67211905028671, 8187915.532931320369244 ], [ 4434556.67211905028671, 8187912.873868938535452 ], [ 4434551.353994286619127, 8187912.873868938535452 ], [ 4434551.353994286619127, 8187910.21480655670166 ], [ 4434548.694931904785335, 8187910.21480655670166 ], [ 4434548.694931904785335, 8187907.555744174867868 ], [ 4434546.035869522951543, 8187907.555744174867868 ], [ 4434546.035869522951543, 8187904.896681793034077 ], [ 4434543.376807141117752, 8187904.896681793034077 ], [ 4434543.376807141117752, 8187902.237619411200285 ], [ 4434532.740557612851262, 8187902.237619411200285 ], [ 4434532.740557612851262, 8187899.578557029366493 ], [ 4434530.08149523101747, 8187899.578557029366493 ], [ 4434530.08149523101747, 8187902.237619411200285 ], [ 4434522.104308085516095, 8187902.237619411200285 ], [ 4434522.104308085516095, 8187904.896681793034077 ], [ 4434519.445245703682303, 8187904.896681793034077 ], [ 4434519.445245703682303, 8187907.555744174867868 ], [ 4434516.786183321848512, 8187907.555744174867868 ], [ 4434516.786183321848512, 8187912.873868938535452 ], [ 4434514.12712094001472, 8187912.873868938535452 ], [ 4434514.12712094001472, 8187918.191993702203035 ], [ 4434511.468058558180928, 8187918.191993702203035 ], [ 4434511.468058558180928, 8187923.510118466801941 ], [ 4434508.808996176347136, 8187923.510118466801941 ], [ 4434508.808996176347136, 8187926.169180848635733 ], [ 4434506.149933794513345, 8187926.169180848635733 ], [ 4434506.149933794513345, 8187931.487305612303317 ], [ 4434500.831809030845761, 8187931.487305612303317 ], [ 4434500.831809030845761, 8187934.146367994137108 ], [ 4434498.17274664901197, 8187934.146367994137108 ], [ 4434498.17274664901197, 8187936.8054303759709 ], [ 4434490.195559503510594, 8187936.8054303759709 ], [ 4434490.195559503510594, 8187939.464492757804692 ], [ 4434479.559309975244105, 8187939.464492757804692 ], [ 4434479.559309975244105, 8187942.123555139638484 ], [ 4434471.58212282974273, 8187942.123555139638484 ], [ 4434471.58212282974273, 8187944.782617521472275 ], [ 4434460.945873302407563, 8187944.782617521472275 ], [ 4434460.945873302407563, 8187947.441679903306067 ], [ 4434452.968686156906188, 8187947.441679903306067 ], [ 4434452.968686156906188, 8187950.100742285139859 ], [ 4434447.650561393238604, 8187950.100742285139859 ], [ 4434447.650561393238604, 8187952.75980466697365 ], [ 4434444.991499011404812, 8187952.75980466697365 ], [ 4434444.991499011404812, 8187955.418867048807442 ], [ 4434442.332436629571021, 8187955.418867048807442 ], [ 4434442.332436629571021, 8187958.077929430641234 ], [ 4434437.014311865903437, 8187958.077929430641234 ], [ 4434437.014311865903437, 8187960.736991812475026 ], [ 4434434.355249484069645, 8187960.736991812475026 ], [ 4434434.355249484069645, 8187963.396054194308817 ], [ 4434429.037124719470739, 8187963.396054194308817 ], [ 4434429.037124719470739, 8187966.055116576142609 ], [ 4434423.718999955803156, 8187966.055116576142609 ], [ 4434423.718999955803156, 8187968.714178957976401 ], [ 4434418.400875192135572, 8187968.714178957976401 ], [ 4434418.400875192135572, 8187971.373241339810193 ], [ 4434407.764625664800406, 8187971.373241339810193 ], [ 4434407.764625664800406, 8187974.032303721643984 ], [ 4434389.151188991963863, 8187974.032303721643984 ], [ 4434389.151188991963863, 8187976.691366104409099 ], [ 4434367.878689936362207, 8187976.691366104409099 ], [ 4434367.878689936362207, 8187979.35042848624289 ], [ 4434359.901502790860832, 8187979.35042848624289 ], [ 4434359.901502790860832, 8187976.691366104409099 ], [ 4434349.265253263525665, 8187976.691366104409099 ], [ 4434349.265253263525665, 8187974.032303721643984 ], [ 4434343.947128499858081, 8187974.032303721643984 ], [ 4434343.947128499858081, 8187971.373241339810193 ], [ 4434341.28806611802429, 8187971.373241339810193 ], [ 4434341.28806611802429, 8187968.714178957976401 ], [ 4434338.629003736190498, 8187968.714178957976401 ], [ 4434338.629003736190498, 8187963.396054194308817 ], [ 4434335.969941354356706, 8187963.396054194308817 ], [ 4434335.969941354356706, 8187958.077929430641234 ], [ 4434333.310878972522914, 8187958.077929430641234 ], [ 4434333.310878972522914, 8187952.75980466697365 ], [ 4434330.651816590689123, 8187952.75980466697365 ], [ 4434330.651816590689123, 8187942.123555139638484 ], [ 4434327.992754208855331, 8187942.123555139638484 ], [ 4434327.992754208855331, 8187928.828243230469525 ], [ 4434325.333691826090217, 8187928.828243230469525 ], [ 4434325.333691826090217, 8187904.896681793034077 ], [ 4434327.992754208855331, 8187904.896681793034077 ], [ 4434327.992754208855331, 8187896.919494647532701 ], [ 4434330.651816590689123, 8187896.919494647532701 ], [ 4434330.651816590689123, 8187894.26043226569891 ], [ 4434333.310878972522914, 8187894.26043226569891 ], [ 4434333.310878972522914, 8187891.601369883865118 ], [ 4434335.969941354356706, 8187891.601369883865118 ], [ 4434335.969941354356706, 8187888.942307502031326 ], [ 4434338.629003736190498, 8187888.942307502031326 ], [ 4434338.629003736190498, 8187886.283245120197535 ], [ 4434341.28806611802429, 8187886.283245120197535 ], [ 4434341.28806611802429, 8187883.624182738363743 ], [ 4434343.947128499858081, 8187883.624182738363743 ], [ 4434343.947128499858081, 8187880.965120356529951 ], [ 4434349.265253263525665, 8187880.965120356529951 ], [ 4434349.265253263525665, 8187878.306057974696159 ], [ 4434354.583378027193248, 8187878.306057974696159 ], [ 4434354.583378027193248, 8187875.646995592862368 ], [ 4434357.24244040902704, 8187875.646995592862368 ], [ 4434357.24244040902704, 8187872.987933211028576 ], [ 4434359.901502790860832, 8187872.987933211028576 ], [ 4434359.901502790860832, 8187870.328870828263462 ], [ 4434365.219627554528415, 8187870.328870828263462 ], [ 4434365.219627554528415, 8187865.010746064595878 ], [ 4434367.878689936362207, 8187865.010746064595878 ], [ 4434367.878689936362207, 8187862.351683682762086 ], [ 4434370.537752318195999, 8187862.351683682762086 ], [ 4434370.537752318195999, 8187859.692621300928295 ], [ 4434373.19681470002979, 8187859.692621300928295 ], [ 4434373.19681470002979, 8187854.374496537260711 ], [ 4434375.855877081863582, 8187854.374496537260711 ], [ 4434375.855877081863582, 8187851.715434155426919 ], [ 4434378.514939464628696, 8187851.715434155426919 ], [ 4434378.514939464628696, 8187849.056371773593128 ], [ 4434381.174001846462488, 8187849.056371773593128 ], [ 4434381.174001846462488, 8187846.397309391759336 ], [ 4434383.83306422829628, 8187846.397309391759336 ], [ 4434383.83306422829628, 8187843.738247009925544 ], [ 4434386.492126610130072, 8187843.738247009925544 ], [ 4434386.492126610130072, 8187841.079184628091753 ], [ 4434391.810251373797655, 8187841.079184628091753 ], [ 4434391.810251373797655, 8187838.420122246257961 ], [ 4434394.469313755631447, 8187838.420122246257961 ], [ 4434394.469313755631447, 8187835.761059864424169 ], [ 4434399.78743851929903, 8187835.761059864424169 ], [ 4434399.78743851929903, 8187833.101997482590377 ], [ 4434402.446500901132822, 8187833.101997482590377 ], [ 4434402.446500901132822, 8187830.442935100756586 ], [ 4434405.105563282966614, 8187830.442935100756586 ], [ 4434405.105563282966614, 8187827.783872718922794 ], [ 4434407.764625664800406, 8187827.783872718922794 ], [ 4434407.764625664800406, 8187822.46574795525521 ], [ 4434410.423688046634197, 8187822.46574795525521 ], [ 4434410.423688046634197, 8187819.806685573421419 ], [ 4434413.082750428467989, 8187819.806685573421419 ], [ 4434413.082750428467989, 8187817.147623190656304 ], [ 4434415.741812810301781, 8187817.147623190656304 ], [ 4434415.741812810301781, 8187814.488560808822513 ], [ 4434418.400875192135572, 8187814.488560808822513 ], [ 4434418.400875192135572, 8187809.170436045154929 ], [ 4434421.059937573969364, 8187809.170436045154929 ], [ 4434421.059937573969364, 8187806.511373663321137 ], [ 4434423.718999955803156, 8187806.511373663321137 ], [ 4434423.718999955803156, 8187803.852311281487346 ], [ 4434426.378062337636948, 8187803.852311281487346 ], [ 4434426.378062337636948, 8187801.193248899653554 ], [ 4434431.696187102235854, 8187801.193248899653554 ], [ 4434431.696187102235854, 8187798.534186517819762 ], [ 4434437.014311865903437, 8187798.534186517819762 ], [ 4434437.014311865903437, 8187795.87512413598597 ], [ 4434442.332436629571021, 8187795.87512413598597 ], [ 4434442.332436629571021, 8187793.216061754152179 ], [ 4434444.991499011404812, 8187793.216061754152179 ], [ 4434444.991499011404812, 8187790.556999372318387 ], [ 4434447.650561393238604, 8187790.556999372318387 ], [ 4434447.650561393238604, 8187782.579812226817012 ], [ 4434450.309623775072396, 8187782.579812226817012 ], [ 4434450.309623775072396, 8187774.602625081315637 ], [ 4434447.650561393238604, 8187774.602625081315637 ], [ 4434447.650561393238604, 8187748.012001262046397 ], [ 4434444.991499011404812, 8187748.012001262046397 ], [ 4434444.991499011404812, 8187732.057626971043646 ], [ 4434442.332436629571021, 8187732.057626971043646 ], [ 4434442.332436629571021, 8187724.080439825542271 ], [ 4434439.673374247737229, 8187724.080439825542271 ], [ 4434439.673374247737229, 8187718.762315061874688 ], [ 4434437.014311865903437, 8187718.762315061874688 ], [ 4434437.014311865903437, 8187716.103252680040896 ], [ 4434434.355249484069645, 8187716.103252680040896 ], [ 4434434.355249484069645, 8187710.78512791544199 ], [ 4434431.696187102235854, 8187710.78512791544199 ], [ 4434431.696187102235854, 8187708.126065533608198 ], [ 4434426.378062337636948, 8187708.126065533608198 ], [ 4434426.378062337636948, 8187705.467003151774406 ], [ 4434423.718999955803156, 8187705.467003151774406 ], [ 4434423.718999955803156, 8187702.807940769940615 ], [ 4434421.059937573969364, 8187702.807940769940615 ], [ 4434421.059937573969364, 8187700.148878388106823 ], [ 4434418.400875192135572, 8187700.148878388106823 ], [ 4434418.400875192135572, 8187697.489816006273031 ], [ 4434415.741812810301781, 8187697.489816006273031 ], [ 4434415.741812810301781, 8187694.83075362443924 ], [ 4434413.082750428467989, 8187694.83075362443924 ], [ 4434413.082750428467989, 8187689.512628860771656 ], [ 4434410.423688046634197, 8187689.512628860771656 ], [ 4434410.423688046634197, 8187686.853566478937864 ], [ 4434407.764625664800406, 8187686.853566478937864 ], [ 4434407.764625664800406, 8187684.194504097104073 ], [ 4434405.105563282966614, 8187684.194504097104073 ], [ 4434405.105563282966614, 8187678.876379333436489 ], [ 4434402.446500901132822, 8187678.876379333436489 ], [ 4434402.446500901132822, 8187673.558254569768906 ], [ 4434399.78743851929903, 8187673.558254569768906 ], [ 4434399.78743851929903, 8187670.899192187935114 ], [ 4434397.128376137465239, 8187670.899192187935114 ], [ 4434397.128376137465239, 8187665.58106742426753 ], [ 4434394.469313755631447, 8187665.58106742426753 ], [ 4434394.469313755631447, 8187662.922005042433739 ], [ 4434391.810251373797655, 8187662.922005042433739 ], [ 4434391.810251373797655, 8187660.262942659668624 ], [ 4434386.492126610130072, 8187660.262942659668624 ], [ 4434386.492126610130072, 8187657.603880277834833 ], [ 4434381.174001846462488, 8187657.603880277834833 ], [ 4434381.174001846462488, 8187654.944817896001041 ], [ 4434378.514939464628696, 8187654.944817896001041 ], [ 4434378.514939464628696, 8187652.285755514167249 ], [ 4434375.855877081863582, 8187652.285755514167249 ], [ 4434375.855877081863582, 8187649.626693132333457 ], [ 4434373.19681470002979, 8187649.626693132333457 ], [ 4434373.19681470002979, 8187646.967630750499666 ], [ 4434370.537752318195999, 8187646.967630750499666 ], [ 4434370.537752318195999, 8187644.308568368665874 ], [ 4434367.878689936362207, 8187644.308568368665874 ], [ 4434367.878689936362207, 8187641.649505986832082 ], [ 4434365.219627554528415, 8187641.649505986832082 ], [ 4434365.219627554528415, 8187638.990443604998291 ], [ 4434362.560565172694623, 8187638.990443604998291 ], [ 4434362.560565172694623, 8187636.331381223164499 ], [ 4434359.901502790860832, 8187636.331381223164499 ], [ 4434359.901502790860832, 8187631.013256459496915 ], [ 4434357.24244040902704, 8187631.013256459496915 ], [ 4434357.24244040902704, 8187628.354194077663124 ], [ 4434354.583378027193248, 8187628.354194077663124 ], [ 4434354.583378027193248, 8187623.03606931399554 ], [ 4434351.924315645359457, 8187623.03606931399554 ], [ 4434351.924315645359457, 8187609.740757403895259 ], [ 4434349.265253263525665, 8187609.740757403895259 ], [ 4434349.265253263525665, 8187585.809195967391133 ], [ 4434346.606190881691873, 8187585.809195967391133 ], [ 4434346.606190881691873, 8187577.832008821889758 ], [ 4434343.947128499858081, 8187577.832008821889758 ], [ 4434343.947128499858081, 8187575.172946440055966 ], [ 4434341.28806611802429, 8187575.172946440055966 ], [ 4434341.28806611802429, 8187572.513884058222175 ], [ 4434338.629003736190498, 8187572.513884058222175 ], [ 4434338.629003736190498, 8187567.195759294554591 ], [ 4434335.969941354356706, 8187567.195759294554591 ], [ 4434335.969941354356706, 8187564.536696912720799 ], [ 4434330.651816590689123, 8187564.536696912720799 ], [ 4434330.651816590689123, 8187561.877634530887008 ], [ 4434327.992754208855331, 8187561.877634530887008 ], [ 4434327.992754208855331, 8187559.218572149053216 ], [ 4434325.333691826090217, 8187559.218572149053216 ], [ 4434325.333691826090217, 8187556.559509766288102 ], [ 4434322.674629444256425, 8187556.559509766288102 ], [ 4434322.674629444256425, 8187553.90044738445431 ], [ 4434320.015567062422633, 8187553.90044738445431 ], [ 4434320.015567062422633, 8187551.241385002620518 ], [ 4434317.356504680588841, 8187551.241385002620518 ], [ 4434317.356504680588841, 8187548.582322620786726 ], [ 4434314.69744229875505, 8187548.582322620786726 ], [ 4434314.69744229875505, 8187545.923260238952935 ], [ 4434312.038379916921258, 8187545.923260238952935 ], [ 4434312.038379916921258, 8187543.264197857119143 ], [ 4434309.379317535087466, 8187543.264197857119143 ], [ 4434309.379317535087466, 8187540.605135475285351 ], [ 4434306.720255153253675, 8187540.605135475285351 ], [ 4434306.720255153253675, 8187537.94607309345156 ], [ 4434304.061192771419883, 8187537.94607309345156 ], [ 4434304.061192771419883, 8187535.287010711617768 ], [ 4434301.402130389586091, 8187535.287010711617768 ], [ 4434301.402130389586091, 8187529.968885947950184 ], [ 4434298.743068007752299, 8187529.968885947950184 ], [ 4434298.743068007752299, 8187527.309823566116393 ], [ 4434296.084005625918508, 8187527.309823566116393 ], [ 4434296.084005625918508, 8187524.650761184282601 ], [ 4434293.424943244084716, 8187524.650761184282601 ], [ 4434293.424943244084716, 8187519.332636420615017 ], [ 4434290.765880862250924, 8187519.332636420615017 ], [ 4434290.765880862250924, 8187516.673574038781226 ], [ 4434288.106818480417132, 8187516.673574038781226 ], [ 4434288.106818480417132, 8187511.355449275113642 ], [ 4434285.447756098583341, 8187511.355449275113642 ], [ 4434285.447756098583341, 8187508.69638689327985 ], [ 4434282.788693716749549, 8187508.69638689327985 ], [ 4434282.788693716749549, 8187503.378262128680944 ], [ 4434280.129631334915757, 8187503.378262128680944 ], [ 4434280.129631334915757, 8187500.719199746847153 ], [ 4434277.470568953081965, 8187500.719199746847153 ], [ 4434277.470568953081965, 8187495.401074983179569 ], [ 4434274.811506571248174, 8187495.401074983179569 ], [ 4434274.811506571248174, 8187492.742012601345778 ], [ 4434272.152444188483059, 8187492.742012601345778 ], [ 4434272.152444188483059, 8187487.423887837678194 ], [ 4434269.493381806649268, 8187487.423887837678194 ], [ 4434269.493381806649268, 8187484.764825455844402 ], [ 4434266.834319424815476, 8187484.764825455844402 ], [ 4434266.834319424815476, 8187455.515139255672693 ], [ 4434264.175257042981684, 8187455.515139255672693 ], [ 4434264.175257042981684, 8187450.197014491073787 ], [ 4434258.857132279314101, 8187450.197014491073787 ], [ 4434258.857132279314101, 8187447.537952109239995 ], [ 4434234.925570842809975, 8187447.537952109239995 ], [ 4434234.925570842809975, 8187444.878889727406204 ], [ 4434229.607446079142392, 8187444.878889727406204 ], [ 4434229.607446079142392, 8187442.219827345572412 ], [ 4434226.9483836973086, 8187442.219827345572412 ], [ 4434226.9483836973086, 8187439.56076496373862 ], [ 4434224.289321315474808, 8187439.56076496373862 ], [ 4434224.289321315474808, 8187436.901702581904829 ], [ 4434221.630258932709694, 8187436.901702581904829 ], [ 4434221.630258932709694, 8187434.242640200071037 ], [ 4434218.971196550875902, 8187434.242640200071037 ], [ 4434218.971196550875902, 8187428.924515436403453 ], [ 4434216.31213416904211, 8187428.924515436403453 ], [ 4434216.31213416904211, 8187420.947328290902078 ], [ 4434213.653071787208319, 8187420.947328290902078 ], [ 4434213.653071787208319, 8187412.970141145400703 ], [ 4434210.994009405374527, 8187412.970141145400703 ], [ 4434210.994009405374527, 8187397.01576685346663 ], [ 4434213.653071787208319, 8187397.01576685346663 ], [ 4434213.653071787208319, 8187391.697642089799047 ], [ 4434216.31213416904211, 8187391.697642089799047 ], [ 4434216.31213416904211, 8187389.038579707965255 ], [ 4434218.971196550875902, 8187389.038579707965255 ], [ 4434218.971196550875902, 8187383.720454944297671 ], [ 4434224.289321315474808, 8187383.720454944297671 ], [ 4434224.289321315474808, 8187381.06139256246388 ], [ 4434229.607446079142392, 8187381.06139256246388 ], [ 4434229.607446079142392, 8187378.402330180630088 ], [ 4434234.925570842809975, 8187378.402330180630088 ], [ 4434234.925570842809975, 8187375.743267798796296 ], [ 4434242.90275798831135, 8187375.743267798796296 ], [ 4434242.90275798831135, 8187373.084205416962504 ], [ 4434261.516194661147892, 8187373.084205416962504 ], [ 4434261.516194661147892, 8187370.425143035128713 ], [ 4434272.152444188483059, 8187370.425143035128713 ], [ 4434272.152444188483059, 8187367.766080653294921 ], [ 4434280.129631334915757, 8187367.766080653294921 ], [ 4434280.129631334915757, 8187365.107018271461129 ], [ 4434285.447756098583341, 8187365.107018271461129 ], [ 4434285.447756098583341, 8187362.447955889627337 ], [ 4434290.765880862250924, 8187362.447955889627337 ], [ 4434290.765880862250924, 8187359.788893507793546 ], [ 4434296.084005625918508, 8187359.788893507793546 ], [ 4434296.084005625918508, 8187357.129831125959754 ], [ 4434298.743068007752299, 8187357.129831125959754 ], [ 4434298.743068007752299, 8187354.470768744125962 ], [ 4434306.720255153253675, 8187354.470768744125962 ], [ 4434306.720255153253675, 8187351.811706362292171 ], [ 4434312.038379916921258, 8187351.811706362292171 ], [ 4434312.038379916921258, 8187354.470768744125962 ], [ 4434320.015567062422633, 8187354.470768744125962 ], [ 4434320.015567062422633, 8187357.129831125959754 ], [ 4434322.674629444256425, 8187357.129831125959754 ], [ 4434322.674629444256425, 8187359.788893507793546 ], [ 4434325.333691826090217, 8187359.788893507793546 ], [ 4434325.333691826090217, 8187365.107018271461129 ], [ 4434327.992754208855331, 8187365.107018271461129 ], [ 4434327.992754208855331, 8187367.766080653294921 ], [ 4434330.651816590689123, 8187367.766080653294921 ], [ 4434330.651816590689123, 8187373.084205416962504 ], [ 4434333.310878972522914, 8187373.084205416962504 ], [ 4434333.310878972522914, 8187378.402330180630088 ], [ 4434335.969941354356706, 8187378.402330180630088 ], [ 4434335.969941354356706, 8187383.720454944297671 ], [ 4434338.629003736190498, 8187383.720454944297671 ], [ 4434338.629003736190498, 8187386.379517326131463 ], [ 4434341.28806611802429, 8187386.379517326131463 ], [ 4434341.28806611802429, 8187391.697642089799047 ], [ 4434343.947128499858081, 8187391.697642089799047 ], [ 4434343.947128499858081, 8187397.01576685346663 ], [ 4434346.606190881691873, 8187397.01576685346663 ], [ 4434346.606190881691873, 8187402.333891617134213 ], [ 4434349.265253263525665, 8187402.333891617134213 ], [ 4434349.265253263525665, 8187407.652016381733119 ], [ 4434351.924315645359457, 8187407.652016381733119 ], [ 4434351.924315645359457, 8187410.311078763566911 ], [ 4434354.583378027193248, 8187410.311078763566911 ], [ 4434354.583378027193248, 8187412.970141145400703 ], [ 4434357.24244040902704, 8187412.970141145400703 ], [ 4434357.24244040902704, 8187415.629203527234495 ], [ 4434359.901502790860832, 8187415.629203527234495 ], [ 4434359.901502790860832, 8187418.288265909068286 ], [ 4434362.560565172694623, 8187418.288265909068286 ], [ 4434362.560565172694623, 8187420.947328290902078 ], [ 4434365.219627554528415, 8187420.947328290902078 ], [ 4434365.219627554528415, 8187423.60639067273587 ], [ 4434367.878689936362207, 8187423.60639067273587 ], [ 4434367.878689936362207, 8187426.265453054569662 ], [ 4434370.537752318195999, 8187426.265453054569662 ], [ 4434370.537752318195999, 8187428.924515436403453 ], [ 4434373.19681470002979, 8187428.924515436403453 ], [ 4434373.19681470002979, 8187431.583577818237245 ], [ 4434375.855877081863582, 8187431.583577818237245 ], [ 4434375.855877081863582, 8187434.242640200071037 ], [ 4434381.174001846462488, 8187434.242640200071037 ], [ 4434381.174001846462488, 8187436.901702581904829 ], [ 4434383.83306422829628, 8187436.901702581904829 ], [ 4434383.83306422829628, 8187442.219827345572412 ], [ 4434386.492126610130072, 8187442.219827345572412 ], [ 4434386.492126610130072, 8187444.878889727406204 ], [ 4434391.810251373797655, 8187444.878889727406204 ], [ 4434391.810251373797655, 8187447.537952109239995 ], [ 4434407.764625664800406, 8187447.537952109239995 ], [ 4434407.764625664800406, 8187444.878889727406204 ], [ 4434415.741812810301781, 8187444.878889727406204 ], [ 4434415.741812810301781, 8187442.219827345572412 ], [ 4434421.059937573969364, 8187442.219827345572412 ], [ 4434421.059937573969364, 8187439.56076496373862 ], [ 4434423.718999955803156, 8187439.56076496373862 ], [ 4434423.718999955803156, 8187436.901702581904829 ], [ 4434429.037124719470739, 8187436.901702581904829 ], [ 4434429.037124719470739, 8187434.242640200071037 ], [ 4434434.355249484069645, 8187434.242640200071037 ], [ 4434434.355249484069645, 8187431.583577818237245 ], [ 4434439.673374247737229, 8187431.583577818237245 ], [ 4434439.673374247737229, 8187428.924515436403453 ], [ 4434447.650561393238604, 8187428.924515436403453 ], [ 4434447.650561393238604, 8187426.265453054569662 ], [ 4434455.627748538739979, 8187426.265453054569662 ], [ 4434455.627748538739979, 8187423.60639067273587 ], [ 4434466.263998066075146, 8187423.60639067273587 ], [ 4434466.263998066075146, 8187420.947328290902078 ], [ 4434479.559309975244105, 8187420.947328290902078 ], [ 4434479.559309975244105, 8187418.288265909068286 ], [ 4434490.195559503510594, 8187418.288265909068286 ], [ 4434490.195559503510594, 8187415.629203527234495 ], [ 4434559.331181432120502, 8187415.629203527234495 ], [ 4434559.331181432120502, 8187418.288265909068286 ], [ 4434567.308368577621877, 8187418.288265909068286 ], [ 4434567.308368577621877, 8187420.947328290902078 ], [ 4434572.626493341289461, 8187420.947328290902078 ], [ 4434572.626493341289461, 8187423.60639067273587 ], [ 4434580.603680486790836, 8187423.60639067273587 ], [ 4434580.603680486790836, 8187426.265453054569662 ], [ 4434585.921805250458419, 8187426.265453054569662 ], [ 4434585.921805250458419, 8187428.924515436403453 ], [ 4434591.239930015057325, 8187428.924515436403453 ], [ 4434591.239930015057325, 8187431.583577818237245 ], [ 4434593.898992396891117, 8187431.583577818237245 ], [ 4434593.898992396891117, 8187434.242640200071037 ], [ 4434596.558054778724909, 8187434.242640200071037 ], [ 4434596.558054778724909, 8187436.901702581904829 ], [ 4434601.876179542392492, 8187436.901702581904829 ], [ 4434601.876179542392492, 8187439.56076496373862 ], [ 4434604.535241924226284, 8187439.56076496373862 ], [ 4434604.535241924226284, 8187442.219827345572412 ], [ 4434607.194304306060076, 8187442.219827345572412 ], [ 4434607.194304306060076, 8187444.878889727406204 ], [ 4434612.512429069727659, 8187444.878889727406204 ], [ 4434612.512429069727659, 8187447.537952109239995 ], [ 4434615.171491451561451, 8187447.537952109239995 ], [ 4434615.171491451561451, 8187450.197014491073787 ], [ 4434617.830553833395243, 8187450.197014491073787 ], [ 4434617.830553833395243, 8187452.856076872907579 ], [ 4434620.489616215229034, 8187452.856076872907579 ], [ 4434620.489616215229034, 8187455.515139255672693 ], [ 4434623.148678597062826, 8187455.515139255672693 ], [ 4434623.148678597062826, 8187458.174201637506485 ], [ 4434628.46680336073041, 8187458.174201637506485 ], [ 4434628.46680336073041, 8187460.833264019340277 ], [ 4434633.784928124397993, 8187460.833264019340277 ], [ 4434633.784928124397993, 8187463.492326401174068 ], [ 4434639.103052888996899, 8187463.492326401174068 ], [ 4434639.103052888996899, 8187466.15138878300786 ], [ 4434647.080240034498274, 8187466.15138878300786 ], [ 4434647.080240034498274, 8187468.810451164841652 ], [ 4434665.693676707334816, 8187468.810451164841652 ], [ 4434665.693676707334816, 8187466.15138878300786 ], [ 4434676.329926234669983, 8187466.15138878300786 ], [ 4434676.329926234669983, 8187463.492326401174068 ], [ 4434686.96617576200515, 8187463.492326401174068 ], [ 4434686.96617576200515, 8187460.833264019340277 ], [ 4434694.943362908437848, 8187460.833264019340277 ], [ 4434694.943362908437848, 8187458.174201637506485 ], [ 4434702.920550053939223, 8187458.174201637506485 ], [ 4434702.920550053939223, 8187455.515139255672693 ], [ 4434705.579612435773015, 8187455.515139255672693 ], [ 4434705.579612435773015, 8187452.856076872907579 ], [ 4434708.238674817606807, 8187452.856076872907579 ], [ 4434708.238674817606807, 8187450.197014491073787 ], [ 4434710.897737199440598, 8187450.197014491073787 ], [ 4434710.897737199440598, 8187447.537952109239995 ], [ 4434713.55679958127439, 8187447.537952109239995 ], [ 4434713.55679958127439, 8187442.219827345572412 ], [ 4434716.215861963108182, 8187442.219827345572412 ], [ 4434716.215861963108182, 8187436.901702581904829 ], [ 4434718.874924344941974, 8187436.901702581904829 ], [ 4434718.874924344941974, 8187434.242640200071037 ], [ 4434721.533986726775765, 8187434.242640200071037 ], [ 4434721.533986726775765, 8187431.583577818237245 ], [ 4434724.193049108609557, 8187431.583577818237245 ], [ 4434724.193049108609557, 8187428.924515436403453 ], [ 4434726.852111490443349, 8187428.924515436403453 ], [ 4434726.852111490443349, 8187426.265453054569662 ], [ 4434729.511173872277141, 8187426.265453054569662 ], [ 4434729.511173872277141, 8187423.60639067273587 ], [ 4434734.829298635944724, 8187423.60639067273587 ], [ 4434734.829298635944724, 8187420.947328290902078 ], [ 4434737.488361017778516, 8187420.947328290902078 ], [ 4434737.488361017778516, 8187418.288265909068286 ], [ 4434740.147423399612308, 8187418.288265909068286 ], [ 4434740.147423399612308, 8187415.629203527234495 ], [ 4434745.465548164211214, 8187415.629203527234495 ], [ 4434745.465548164211214, 8187412.970141145400703 ], [ 4434748.124610546045005, 8187412.970141145400703 ], [ 4434748.124610546045005, 8187410.311078763566911 ], [ 4434753.442735309712589, 8187410.311078763566911 ], [ 4434753.442735309712589, 8187407.652016381733119 ], [ 4434756.101797691546381, 8187407.652016381733119 ], [ 4434756.101797691546381, 8187404.992953999899328 ], [ 4434758.760860073380172, 8187404.992953999899328 ], [ 4434758.760860073380172, 8187402.333891617134213 ], [ 4434761.419922455213964, 8187402.333891617134213 ], [ 4434761.419922455213964, 8187399.674829235300422 ], [ 4434764.078984837047756, 8187399.674829235300422 ], [ 4434764.078984837047756, 8187397.01576685346663 ], [ 4434769.397109600715339, 8187397.01576685346663 ], [ 4434769.397109600715339, 8187394.356704471632838 ], [ 4434785.35148389171809, 8187394.356704471632838 ], [ 4434785.35148389171809, 8187397.01576685346663 ], [ 4434790.669608655385673, 8187397.01576685346663 ], [ 4434790.669608655385673, 8187399.674829235300422 ], [ 4434793.328671037219465, 8187399.674829235300422 ], [ 4434793.328671037219465, 8187402.333891617134213 ], [ 4434795.987733419984579, 8187402.333891617134213 ], [ 4434795.987733419984579, 8187404.992953999899328 ], [ 4434798.646795801818371, 8187404.992953999899328 ], [ 4434798.646795801818371, 8187407.652016381733119 ], [ 4434801.305858183652163, 8187407.652016381733119 ], [ 4434801.305858183652163, 8187415.629203527234495 ], [ 4434803.964920565485954, 8187415.629203527234495 ], [ 4434803.964920565485954, 8187423.60639067273587 ], [ 4434806.623982947319746, 8187423.60639067273587 ], [ 4434806.623982947319746, 8187426.265453054569662 ], [ 4434809.283045329153538, 8187426.265453054569662 ], [ 4434809.283045329153538, 8187444.878889727406204 ], [ 4434811.942107710987329, 8187444.878889727406204 ], [ 4434811.942107710987329, 8187511.355449275113642 ], [ 4434809.283045329153538, 8187511.355449275113642 ], [ 4434809.283045329153538, 8187514.014511656947434 ], [ 4434811.942107710987329, 8187514.014511656947434 ], [ 4434811.942107710987329, 8187527.309823566116393 ], [ 4434814.601170092821121, 8187527.309823566116393 ], [ 4434814.601170092821121, 8187532.627948329783976 ], [ 4434817.260232474654913, 8187532.627948329783976 ], [ 4434817.260232474654913, 8187545.923260238952935 ], [ 4434814.601170092821121, 8187545.923260238952935 ], [ 4434814.601170092821121, 8187556.559509766288102 ], [ 4434811.942107710987329, 8187556.559509766288102 ], [ 4434811.942107710987329, 8187559.218572149053216 ], [ 4434809.283045329153538, 8187559.218572149053216 ], [ 4434809.283045329153538, 8187564.536696912720799 ], [ 4434806.623982947319746, 8187564.536696912720799 ], [ 4434806.623982947319746, 8187569.854821676388383 ], [ 4434803.964920565485954, 8187569.854821676388383 ], [ 4434803.964920565485954, 8187575.172946440055966 ], [ 4434801.305858183652163, 8187575.172946440055966 ], [ 4434801.305858183652163, 8187580.49107120372355 ], [ 4434798.646795801818371, 8187580.49107120372355 ], [ 4434798.646795801818371, 8187585.809195967391133 ], [ 4434795.987733419984579, 8187585.809195967391133 ], [ 4434795.987733419984579, 8187591.127320731058717 ], [ 4434793.328671037219465, 8187591.127320731058717 ], [ 4434793.328671037219465, 8187596.4454454947263 ], [ 4434790.669608655385673, 8187596.4454454947263 ], [ 4434790.669608655385673, 8187599.104507876560092 ], [ 4434788.010546273551881, 8187599.104507876560092 ], [ 4434788.010546273551881, 8187607.081695022061467 ], [ 4434785.35148389171809, 8187607.081695022061467 ], [ 4434785.35148389171809, 8187617.717944550327957 ], [ 4434782.692421509884298, 8187617.717944550327957 ], [ 4434782.692421509884298, 8187625.695131695829332 ], [ 4434780.033359128050506, 8187625.695131695829332 ], [ 4434780.033359128050506, 8187631.013256459496915 ], [ 4434777.374296746216714, 8187631.013256459496915 ], [ 4434777.374296746216714, 8187633.672318841330707 ], [ 4434772.056171982549131, 8187633.672318841330707 ], [ 4434772.056171982549131, 8187636.331381223164499 ], [ 4434766.738047218881547, 8187636.331381223164499 ], [ 4434766.738047218881547, 8187638.990443604998291 ], [ 4434764.078984837047756, 8187638.990443604998291 ], [ 4434764.078984837047756, 8187641.649505986832082 ], [ 4434761.419922455213964, 8187641.649505986832082 ], [ 4434761.419922455213964, 8187644.308568368665874 ], [ 4434758.760860073380172, 8187644.308568368665874 ], [ 4434758.760860073380172, 8187649.626693132333457 ], [ 4434756.101797691546381, 8187649.626693132333457 ], [ 4434756.101797691546381, 8187676.217316951602697 ], [ 4434753.442735309712589, 8187676.217316951602697 ], [ 4434753.442735309712589, 8187700.148878388106823 ], [ 4434750.783672927878797, 8187700.148878388106823 ], [ 4434750.783672927878797, 8187708.126065533608198 ], [ 4434748.124610546045005, 8187708.126065533608198 ], [ 4434748.124610546045005, 8187713.444190297275782 ], [ 4434745.465548164211214, 8187713.444190297275782 ], [ 4434745.465548164211214, 8187716.103252680040896 ], [ 4434742.806485782377422, 8187716.103252680040896 ], [ 4434742.806485782377422, 8187721.421377443708479 ], [ 4434737.488361017778516, 8187721.421377443708479 ], [ 4434737.488361017778516, 8187724.080439825542271 ], [ 4434734.829298635944724, 8187724.080439825542271 ], [ 4434734.829298635944724, 8187726.739502207376063 ], [ 4434732.170236254110932, 8187726.739502207376063 ], [ 4434732.170236254110932, 8187734.716689352877438 ], [ 4434729.511173872277141, 8187734.716689352877438 ], [ 4434729.511173872277141, 8187763.966375553049147 ], [ 4434726.852111490443349, 8187763.966375553049147 ], [ 4434726.852111490443349, 8187785.238874608650804 ], [ 4434724.193049108609557, 8187785.238874608650804 ], [ 4434724.193049108609557, 8187793.216061754152179 ], [ 4434721.533986726775765, 8187793.216061754152179 ], [ 4434721.533986726775765, 8187798.534186517819762 ], [ 4434718.874924344941974, 8187798.534186517819762 ], [ 4434718.874924344941974, 8187806.511373663321137 ], [ 4434716.215861963108182, 8187806.511373663321137 ], [ 4434716.215861963108182, 8187819.806685573421419 ], [ 4434718.874924344941974, 8187819.806685573421419 ], [ 4434718.874924344941974, 8187854.374496537260711 ], [ 4434716.215861963108182, 8187854.374496537260711 ], [ 4434716.215861963108182, 8187894.26043226569891 ], [ 4434718.874924344941974, 8187894.26043226569891 ], [ 4434718.874924344941974, 8187902.237619411200285 ], [ 4434721.533986726775765, 8187902.237619411200285 ], [ 4434721.533986726775765, 8187907.555744174867868 ], [ 4434724.193049108609557, 8187907.555744174867868 ], [ 4434724.193049108609557, 8187910.21480655670166 ], [ 4434726.852111490443349, 8187910.21480655670166 ], [ 4434726.852111490443349, 8187912.873868938535452 ], [ 4434729.511173872277141, 8187912.873868938535452 ], [ 4434729.511173872277141, 8187915.532931320369244 ], [ 4434732.170236254110932, 8187915.532931320369244 ], [ 4434732.170236254110932, 8187918.191993702203035 ], [ 4434740.147423399612308, 8187918.191993702203035 ], [ 4434740.147423399612308, 8187920.851056084036827 ], [ 4434750.783672927878797, 8187920.851056084036827 ], [ 4434750.783672927878797, 8187918.191993702203035 ], [ 4434758.760860073380172, 8187918.191993702203035 ], [ 4434758.760860073380172, 8187915.532931320369244 ], [ 4434761.419922455213964, 8187915.532931320369244 ], [ 4434761.419922455213964, 8187912.873868938535452 ], [ 4434766.738047218881547, 8187912.873868938535452 ], [ 4434766.738047218881547, 8187910.21480655670166 ], [ 4434777.374296746216714, 8187910.21480655670166 ], [ 4434777.374296746216714, 8187907.555744174867868 ], [ 4434811.942107710987329, 8187907.555744174867868 ], [ 4434811.942107710987329, 8187910.21480655670166 ], [ 4434822.578357238322496, 8187910.21480655670166 ], [ 4434822.578357238322496, 8187907.555744174867868 ], [ 4434833.214606765657663, 8187907.555744174867868 ], [ 4434833.214606765657663, 8187904.896681793034077 ], [ 4434846.509918675757945, 8187904.896681793034077 ], [ 4434846.509918675757945, 8187902.237619411200285 ], [ 4434857.146168203093112, 8187902.237619411200285 ], [ 4434857.146168203093112, 8187899.578557029366493 ], [ 4434865.123355348594487, 8187899.578557029366493 ], [ 4434865.123355348594487, 8187896.919494647532701 ], [ 4434881.077729639597237, 8187896.919494647532701 ], [ 4434881.077729639597237, 8187899.578557029366493 ], [ 4434889.054916785098612, 8187899.578557029366493 ], [ 4434889.054916785098612, 8187902.237619411200285 ], [ 4434897.032103930599988, 8187902.237619411200285 ], [ 4434897.032103930599988, 8187904.896681793034077 ], [ 4434905.009291077032685, 8187904.896681793034077 ], [ 4434905.009291077032685, 8187907.555744174867868 ], [ 4434939.577102040871978, 8187907.555744174867868 ], [ 4434939.577102040871978, 8187904.896681793034077 ], [ 4434950.213351569138467, 8187904.896681793034077 ], [ 4434950.213351569138467, 8187902.237619411200285 ], [ 4434971.485850623808801, 8187902.237619411200285 ], [ 4434971.485850623808801, 8187899.578557029366493 ], [ 4434984.78116253297776, 8187899.578557029366493 ], [ 4434984.78116253297776, 8187896.919494647532701 ], [ 4434995.417412060312927, 8187896.919494647532701 ], [ 4434995.417412060312927, 8187894.26043226569891 ], [ 4435003.394599206745625, 8187894.26043226569891 ], [ 4435003.394599206745625, 8187891.601369883865118 ], [ 4435011.371786352247, 8187891.601369883865118 ], [ 4435011.371786352247, 8187888.942307502031326 ], [ 4435019.348973497748375, 8187888.942307502031326 ], [ 4435019.348973497748375, 8187886.283245120197535 ], [ 4435040.621472552418709, 8187886.283245120197535 ], [ 4435040.621472552418709, 8187883.624182738363743 ], [ 4435051.257722079753876, 8187883.624182738363743 ], [ 4435051.257722079753876, 8187880.965120356529951 ], [ 4435059.234909226186574, 8187880.965120356529951 ], [ 4435059.234909226186574, 8188104.326360434293747 ], [ 4434663.034614325501025, 8188104.326360434293747 ] ] ] } },
{ "type": "Feature", "properties": { "class": 1 }, "geometry": { "type": "Polygon", "coordinates": [ [ [ 4433772.24871639534831, 8185041.086496506817639 ], [ 4433772.24871639534831, 8185038.427434124983847 ], [ 4433708.431219230405986, 8185038.427434124983847 ], [ 4433708.431219230405986, 8185035.768371743150055 ], [ 4433695.135907320305705, 8185035.768371743150055 ], [ 4433695.135907320305705, 8185033.109309361316264 ], [ 4433687.15872017480433, 8185033.109309361316264 ], [ 4433687.15872017480433, 8185030.450246979482472 ], [ 4433681.840595411136746, 8185030.450246979482472 ], [ 4433681.840595411136746, 8185027.79118459764868 ], [ 4433679.181533029302955, 8185027.79118459764868 ], [ 4433679.181533029302955, 8185025.132122215814888 ], [ 4433673.863408265635371, 8185025.132122215814888 ], [ 4433673.863408265635371, 8185022.473059833981097 ], [ 4433671.204345883801579, 8185022.473059833981097 ], [ 4433671.204345883801579, 8185017.154935070313513 ], [ 4433668.545283501967788, 8185017.154935070313513 ], [ 4433668.545283501967788, 8185014.495872688479722 ], [ 4433671.204345883801579, 8185014.495872688479722 ], [ 4433671.204345883801579, 8185003.859623160213232 ], [ 4433673.863408265635371, 8185003.859623160213232 ], [ 4433673.863408265635371, 8185001.20056077837944 ], [ 4433676.522470647469163, 8185001.20056077837944 ], [ 4433676.522470647469163, 8184993.223373632878065 ], [ 4433679.181533029302955, 8184993.223373632878065 ], [ 4433679.181533029302955, 8184990.564311251044273 ], [ 4433681.840595411136746, 8184990.564311251044273 ], [ 4433681.840595411136746, 8184985.24618648737669 ], [ 4433687.15872017480433, 8184985.24618648737669 ], [ 4433687.15872017480433, 8184982.587124105542898 ], [ 4433689.817782556638122, 8184982.587124105542898 ], [ 4433689.817782556638122, 8184979.928061723709106 ], [ 4433692.476844938471913, 8184979.928061723709106 ], [ 4433692.476844938471913, 8184977.268999341875315 ], [ 4433695.135907320305705, 8184977.268999341875315 ], [ 4433695.135907320305705, 8184971.950874578207731 ], [ 4433697.794969702139497, 8184971.950874578207731 ], [ 4433697.794969702139497, 8184945.360250758938491 ], [ 4433700.454032083973289, 8184945.360250758938491 ], [ 4433700.454032083973289, 8184937.383063613437116 ], [ 4433703.113094466738403, 8184937.383063613437116 ], [ 4433703.113094466738403, 8184929.405876467935741 ], [ 4433705.772156848572195, 8184929.405876467935741 ], [ 4433705.772156848572195, 8184926.746814086101949 ], [ 4433708.431219230405986, 8184926.746814086101949 ], [ 4433708.431219230405986, 8184921.428689322434366 ], [ 4433711.090281612239778, 8184921.428689322434366 ], [ 4433711.090281612239778, 8184918.769626940600574 ], [ 4433713.74934399407357, 8184918.769626940600574 ], [ 4433713.74934399407357, 8184916.110564558766782 ], [ 4433719.067468757741153, 8184916.110564558766782 ], [ 4433719.067468757741153, 8184913.451502176932991 ], [ 4433721.726531139574945, 8184913.451502176932991 ], [ 4433721.726531139574945, 8184910.792439795099199 ], [ 4433724.385593521408737, 8184910.792439795099199 ], [ 4433724.385593521408737, 8184908.133377412334085 ], [ 4433729.70371828507632, 8184908.133377412334085 ], [ 4433729.70371828507632, 8184905.474315030500293 ], [ 4433732.362780666910112, 8184905.474315030500293 ], [ 4433732.362780666910112, 8184902.815252648666501 ], [ 4433735.021843048743904, 8184902.815252648666501 ], [ 4433735.021843048743904, 8184900.156190266832709 ], [ 4433737.680905430577695, 8184900.156190266832709 ], [ 4433737.680905430577695, 8184894.838065503165126 ], [ 4433740.339967812411487, 8184894.838065503165126 ], [ 4433740.339967812411487, 8184886.860878357663751 ], [ 4433742.999030194245279, 8184886.860878357663751 ], [ 4433742.999030194245279, 8184873.565566448494792 ], [ 4433745.658092576079071, 8184873.565566448494792 ], [ 4433745.658092576079071, 8184862.929316921159625 ], [ 4433748.317154957912862, 8184862.929316921159625 ], [ 4433748.317154957912862, 8184857.611192157492042 ], [ 4433750.976217339746654, 8184857.611192157492042 ], [ 4433750.976217339746654, 8184852.293067392893136 ], [ 4433753.635279721580446, 8184852.293067392893136 ], [ 4433753.635279721580446, 8184849.634005011059344 ], [ 4433756.29434210434556, 8184849.634005011059344 ], [ 4433756.29434210434556, 8184844.31588024739176 ], [ 4433758.953404486179352, 8184844.31588024739176 ], [ 4433758.953404486179352, 8184841.656817865557969 ], [ 4433764.271529249846935, 8184841.656817865557969 ], [ 4433764.271529249846935, 8184838.997755483724177 ], [ 4433766.930591631680727, 8184838.997755483724177 ], [ 4433766.930591631680727, 8184836.338693101890385 ], [ 4433772.24871639534831, 8184836.338693101890385 ], [ 4433772.24871639534831, 8184833.679630720056593 ], [ 4433774.907778777182102, 8184833.679630720056593 ], [ 4433774.907778777182102, 8184831.020568338222802 ], [ 4433777.566841159015894, 8184831.020568338222802 ], [ 4433777.566841159015894, 8184828.36150595638901 ], [ 4433780.225903540849686, 8184828.36150595638901 ], [ 4433780.225903540849686, 8184825.702443574555218 ], [ 4433782.884965922683477, 8184825.702443574555218 ], [ 4433782.884965922683477, 8184823.043381192721426 ], [ 4433785.544028304517269, 8184823.043381192721426 ], [ 4433785.544028304517269, 8184820.384318810887635 ], [ 4433788.203090686351061, 8184820.384318810887635 ], [ 4433788.203090686351061, 8184815.066194047220051 ], [ 4433790.862153068184853, 8184815.066194047220051 ], [ 4433790.862153068184853, 8184807.089006901718676 ], [ 4433793.521215450018644, 8184807.089006901718676 ], [ 4433793.521215450018644, 8184801.77088213711977 ], [ 4433796.180277831852436, 8184801.77088213711977 ], [ 4433796.180277831852436, 8184799.111819755285978 ], [ 4433798.839340213686228, 8184799.111819755285978 ], [ 4433798.839340213686228, 8184796.452757373452187 ], [ 4433801.49840259552002, 8184796.452757373452187 ], [ 4433801.49840259552002, 8184793.793694991618395 ], [ 4433806.816527359187603, 8184793.793694991618395 ], [ 4433806.816527359187603, 8184791.134632609784603 ], [ 4433812.134652123786509, 8184791.134632609784603 ], [ 4433812.134652123786509, 8184788.475570227950811 ], [ 4433814.793714505620301, 8184788.475570227950811 ], [ 4433814.793714505620301, 8184785.81650784611702 ], [ 4433820.111839269287884, 8184785.81650784611702 ], [ 4433820.111839269287884, 8184780.498383082449436 ], [ 4433822.770901651121676, 8184780.498383082449436 ], [ 4433822.770901651121676, 8184777.839320700615644 ], [ 4433825.429964032955468, 8184777.839320700615644 ], [ 4433825.429964032955468, 8184772.521195936948061 ], [ 4433828.089026414789259, 8184772.521195936948061 ], [ 4433828.089026414789259, 8184761.884946409612894 ], [ 4433830.748088796623051, 8184761.884946409612894 ], [ 4433830.748088796623051, 8184753.907759264111519 ], [ 4433833.407151178456843, 8184753.907759264111519 ], [ 4433833.407151178456843, 8184748.589634499512613 ], [ 4433836.066213560290635, 8184748.589634499512613 ], [ 4433836.066213560290635, 8184743.271509735845029 ], [ 4433838.725275942124426, 8184743.271509735845029 ], [ 4433838.725275942124426, 8184737.953384972177446 ], [ 4433841.384338323958218, 8184737.953384972177446 ], [ 4433841.384338323958218, 8184735.294322590343654 ], [ 4433844.04340070579201, 8184735.294322590343654 ], [ 4433844.04340070579201, 8184732.635260208509862 ], [ 4433849.361525469459593, 8184732.635260208509862 ], [ 4433849.361525469459593, 8184729.976197826676071 ], [ 4433857.338712614960968, 8184729.976197826676071 ], [ 4433857.338712614960968, 8184732.635260208509862 ], [ 4433862.656837379559875, 8184732.635260208509862 ], [ 4433862.656837379559875, 8184735.294322590343654 ], [ 4433865.315899761393666, 8184735.294322590343654 ], [ 4433865.315899761393666, 8184737.953384972177446 ], [ 4433867.974962143227458, 8184737.953384972177446 ], [ 4433867.974962143227458, 8184743.271509735845029 ], [ 4433870.63402452506125, 8184743.271509735845029 ], [ 4433870.63402452506125, 8184745.930572117678821 ], [ 4433873.293086906895041, 8184745.930572117678821 ], [ 4433873.293086906895041, 8184751.248696881346405 ], [ 4433875.952149288728833, 8184751.248696881346405 ], [ 4433875.952149288728833, 8184753.907759264111519 ], [ 4433878.611211670562625, 8184753.907759264111519 ], [ 4433878.611211670562625, 8184759.225884027779102 ], [ 4433883.929336434230208, 8184759.225884027779102 ], [ 4433883.929336434230208, 8184761.884946409612894 ], [ 4433886.588398816064, 8184761.884946409612894 ], [ 4433886.588398816064, 8184759.225884027779102 ], [ 4433894.565585961565375, 8184759.225884027779102 ], [ 4433894.565585961565375, 8184756.566821645945311 ], [ 4433897.224648343399167, 8184756.566821645945311 ], [ 4433897.224648343399167, 8184753.907759264111519 ], [ 4433902.542773107066751, 8184753.907759264111519 ], [ 4433902.542773107066751, 8184751.248696881346405 ], [ 4433913.17902263533324, 8184751.248696881346405 ], [ 4433913.17902263533324, 8184748.589634499512613 ], [ 4433921.156209780834615, 8184748.589634499512613 ], [ 4433921.156209780834615, 8184745.930572117678821 ], [ 4433929.13339692633599, 8184745.930572117678821 ], [ 4433929.13339692633599, 8184743.271509735845029 ], [ 4433937.110584071837366, 8184743.271509735845029 ], [ 4433937.110584071837366, 8184740.612447354011238 ], [ 4433942.428708835504949, 8184740.612447354011238 ], [ 4433942.428708835504949, 8184737.953384972177446 ], [ 4433947.746833599172533, 8184737.953384972177446 ], [ 4433947.746833599172533, 8184735.294322590343654 ], [ 4433950.405895981006324, 8184735.294322590343654 ], [ 4433950.405895981006324, 8184732.635260208509862 ], [ 4433953.064958362840116, 8184732.635260208509862 ], [ 4433953.064958362840116, 8184729.976197826676071 ], [ 4433955.724020744673908, 8184729.976197826676071 ], [ 4433955.724020744673908, 8184727.317135444842279 ], [ 4433958.383083126507699, 8184727.317135444842279 ], [ 4433958.383083126507699, 8184724.658073063008487 ], [ 4433961.042145508341491, 8184724.658073063008487 ], [ 4433961.042145508341491, 8184721.999010681174695 ], [ 4433963.701207891106606, 8184721.999010681174695 ], [ 4433963.701207891106606, 8184719.339948299340904 ], [ 4433966.360270272940397, 8184719.339948299340904 ], [ 4433966.360270272940397, 8184714.02182353567332 ], [ 4433969.019332654774189, 8184714.02182353567332 ], [ 4433969.019332654774189, 8184711.362761153839529 ], [ 4433971.678395036607981, 8184711.362761153839529 ], [ 4433971.678395036607981, 8184708.703698772005737 ], [ 4433974.337457418441772, 8184708.703698772005737 ], [ 4433974.337457418441772, 8184703.385574008338153 ], [ 4433976.996519800275564, 8184703.385574008338153 ], [ 4433976.996519800275564, 8184700.726511625573039 ], [ 4433974.337457418441772, 8184700.726511625573039 ], [ 4433974.337457418441772, 8184698.067449243739247 ], [ 4433976.996519800275564, 8184698.067449243739247 ], [ 4433976.996519800275564, 8184692.749324480071664 ], [ 4433979.655582182109356, 8184692.749324480071664 ], [ 4433979.655582182109356, 8184687.43119971640408 ], [ 4433982.314644563943148, 8184687.43119971640408 ], [ 4433982.314644563943148, 8184682.113074952736497 ], [ 4433984.973706945776939, 8184682.113074952736497 ], [ 4433984.973706945776939, 8184674.135887807235122 ], [ 4433987.632769327610731, 8184674.135887807235122 ], [ 4433987.632769327610731, 8184671.47682542540133 ], [ 4433990.291831709444523, 8184671.47682542540133 ], [ 4433990.291831709444523, 8184668.817763043567538 ], [ 4433992.950894091278315, 8184668.817763043567538 ], [ 4433992.950894091278315, 8184666.158700661733747 ], [ 4433995.609956473112106, 8184666.158700661733747 ], [ 4433995.609956473112106, 8184663.499638279899955 ], [ 4433998.269018854945898, 8184663.499638279899955 ], [ 4433998.269018854945898, 8184660.840575898066163 ], [ 4434000.92808123677969, 8184660.840575898066163 ], [ 4434000.92808123677969, 8184658.181513516232371 ], [ 4434006.246206000447273, 8184658.181513516232371 ], [ 4434006.246206000447273, 8184655.52245113439858 ], [ 4434019.541517910547554, 8184655.52245113439858 ], [ 4434019.541517910547554, 8184652.863388752564788 ], [ 4434038.154954583384097, 8184652.863388752564788 ], [ 4434038.154954583384097, 8184650.204326370730996 ], [ 4434040.814016965217888, 8184650.204326370730996 ], [ 4434040.814016965217888, 8184647.545263987965882 ], [ 4434048.791204110719264, 8184647.545263987965882 ], [ 4434048.791204110719264, 8184644.88620160613209 ], [ 4434051.450266492553055, 8184644.88620160613209 ], [ 4434051.450266492553055, 8184642.227139224298298 ], [ 4434056.768391256220639, 8184642.227139224298298 ], [ 4434056.768391256220639, 8184639.568076842464507 ], [ 4434059.42745363805443, 8184639.568076842464507 ], [ 4434059.42745363805443, 8184636.909014460630715 ], [ 4434062.086516019888222, 8184636.909014460630715 ], [ 4434062.086516019888222, 8184634.249952078796923 ], [ 4434064.745578401722014, 8184634.249952078796923 ], [ 4434064.745578401722014, 8184631.590889696963131 ], [ 4434067.404640784487128, 8184631.590889696963131 ], [ 4434067.404640784487128, 8184626.272764933295548 ], [ 4434070.06370316632092, 8184626.272764933295548 ], [ 4434070.06370316632092, 8184623.613702551461756 ], [ 4434072.722765548154712, 8184623.613702551461756 ], [ 4434072.722765548154712, 8184618.295577787794173 ], [ 4434078.040890311822295, 8184618.295577787794173 ], [ 4434078.040890311822295, 8184615.636515405960381 ], [ 4434099.313389366492629, 8184615.636515405960381 ], [ 4434099.313389366492629, 8184618.295577787794173 ], [ 4434107.290576511994004, 8184618.295577787794173 ], [ 4434107.290576511994004, 8184620.954640169627964 ], [ 4434112.608701275661588, 8184620.954640169627964 ], [ 4434112.608701275661588, 8184623.613702551461756 ], [ 4434117.926826039329171, 8184623.613702551461756 ], [ 4434117.926826039329171, 8184626.272764933295548 ], [ 4434123.244950803928077, 8184626.272764933295548 ], [ 4434123.244950803928077, 8184628.93182731512934 ], [ 4434128.563075567595661, 8184628.93182731512934 ], [ 4434128.563075567595661, 8184631.590889696963131 ], [ 4434131.222137949429452, 8184631.590889696963131 ], [ 4434131.222137949429452, 8184634.249952078796923 ], [ 4434136.540262713097036, 8184634.249952078796923 ], [ 4434136.540262713097036, 8184636.909014460630715 ], [ 4434139.199325094930828, 8184636.909014460630715 ], [ 4434139.199325094930828, 8184639.568076842464507 ], [ 4434144.517449858598411, 8184639.568076842464507 ], [ 4434144.517449858598411, 8184642.227139224298298 ], [ 4434147.176512240432203, 8184642.227139224298298 ], [ 4434147.176512240432203, 8184644.88620160613209 ], [ 4434149.835574622265995, 8184644.88620160613209 ], [ 4434149.835574622265995, 8184647.545263987965882 ], [ 4434152.494637004099786, 8184647.545263987965882 ], [ 4434152.494637004099786, 8184650.204326370730996 ], [ 4434157.81276176776737, 8184650.204326370730996 ], [ 4434157.81276176776737, 8184652.863388752564788 ], [ 4434160.471824149601161, 8184652.863388752564788 ], [ 4434160.471824149601161, 8184655.52245113439858 ], [ 4434163.130886531434953, 8184655.52245113439858 ], [ 4434163.130886531434953, 8184658.181513516232371 ], [ 4434165.789948913268745, 8184658.181513516232371 ], [ 4434165.789948913268745, 8184660.840575898066163 ], [ 4434168.449011295102537, 8184660.840575898066163 ], [ 4434168.449011295102537, 8184663.499638279899955 ], [ 4434171.108073677867651, 8184663.499638279899955 ], [ 4434171.108073677867651, 8184666.158700661733747 ], [ 4434173.767136059701443, 8184666.158700661733747 ], [ 4434173.767136059701443, 8184668.817763043567538 ], [ 4434176.426198441535234, 8184668.817763043567538 ], [ 4434176.426198441535234, 8184671.47682542540133 ], [ 4434179.085260823369026, 8184671.47682542540133 ], [ 4434179.085260823369026, 8184674.135887807235122 ], [ 4434181.744323205202818, 8184674.135887807235122 ], [ 4434181.744323205202818, 8184676.794950189068913 ], [ 4434184.40338558703661, 8184676.794950189068913 ], [ 4434184.40338558703661, 8184679.454012570902705 ], [ 4434187.062447968870401, 8184679.454012570902705 ], [ 4434187.062447968870401, 8184682.113074952736497 ], [ 4434192.380572732537985, 8184682.113074952736497 ], [ 4434192.380572732537985, 8184684.772137334570289 ], [ 4434195.039635114371777, 8184684.772137334570289 ], [ 4434195.039635114371777, 8184687.43119971640408 ], [ 4434197.698697496205568, 8184687.43119971640408 ], [ 4434197.698697496205568, 8184690.090262098237872 ], [ 4434203.016822259873152, 8184690.090262098237872 ], [ 4434203.016822259873152, 8184692.749324480071664 ], [ 4434205.675884641706944, 8184692.749324480071664 ], [ 4434205.675884641706944, 8184695.408386861905456 ], [ 4434208.334947023540735, 8184695.408386861905456 ], [ 4434208.334947023540735, 8184698.067449243739247 ], [ 4434210.994009405374527, 8184698.067449243739247 ], [ 4434210.994009405374527, 8184700.726511625573039 ], [ 4434213.653071787208319, 8184700.726511625573039 ], [ 4434213.653071787208319, 8184703.385574008338153 ], [ 4434216.31213416904211, 8184703.385574008338153 ], [ 4434216.31213416904211, 8184706.044636390171945 ], [ 4434218.971196550875902, 8184706.044636390171945 ], [ 4434218.971196550875902, 8184708.703698772005737 ], [ 4434221.630258932709694, 8184708.703698772005737 ], [ 4434221.630258932709694, 8184711.362761153839529 ], [ 4434224.289321315474808, 8184711.362761153839529 ], [ 4434224.289321315474808, 8184714.02182353567332 ], [ 4434226.9483836973086, 8184714.02182353567332 ], [ 4434226.9483836973086, 8184716.680885917507112 ], [ 4434229.607446079142392, 8184716.680885917507112 ], [ 4434229.607446079142392, 8184719.339948299340904 ], [ 4434232.266508460976183, 8184719.339948299340904 ], [ 4434232.266508460976183, 8184721.999010681174695 ], [ 4434234.925570842809975, 8184721.999010681174695 ], [ 4434234.925570842809975, 8184724.658073063008487 ], [ 4434237.584633224643767, 8184724.658073063008487 ], [ 4434237.584633224643767, 8184727.317135444842279 ], [ 4434242.90275798831135, 8184727.317135444842279 ], [ 4434242.90275798831135, 8184729.976197826676071 ], [ 4434245.561820370145142, 8184729.976197826676071 ], [ 4434245.561820370145142, 8184732.635260208509862 ], [ 4434248.220882751978934, 8184732.635260208509862 ], [ 4434248.220882751978934, 8184735.294322590343654 ], [ 4434250.879945133812726, 8184735.294322590343654 ], [ 4434250.879945133812726, 8184737.953384972177446 ], [ 4434253.539007515646517, 8184737.953384972177446 ], [ 4434253.539007515646517, 8184743.271509735845029 ], [ 4434256.198069897480309, 8184743.271509735845029 ], [ 4434256.198069897480309, 8184745.930572117678821 ], [ 4434258.857132279314101, 8184745.930572117678821 ], [ 4434258.857132279314101, 8184748.589634499512613 ], [ 4434261.516194661147892, 8184748.589634499512613 ], [ 4434261.516194661147892, 8184753.907759264111519 ], [ 4434264.175257042981684, 8184753.907759264111519 ], [ 4434264.175257042981684, 8184756.566821645945311 ], [ 4434266.834319424815476, 8184756.566821645945311 ], [ 4434266.834319424815476, 8184761.884946409612894 ], [ 4434269.493381806649268, 8184761.884946409612894 ], [ 4434269.493381806649268, 8184764.544008791446686 ], [ 4434272.152444188483059, 8184764.544008791446686 ], [ 4434272.152444188483059, 8184767.203071173280478 ], [ 4434274.811506571248174, 8184767.203071173280478 ], [ 4434274.811506571248174, 8184769.862133555114269 ], [ 4434277.470568953081965, 8184769.862133555114269 ], [ 4434277.470568953081965, 8184772.521195936948061 ], [ 4434280.129631334915757, 8184772.521195936948061 ], [ 4434280.129631334915757, 8184775.180258318781853 ], [ 4434282.788693716749549, 8184775.180258318781853 ], [ 4434282.788693716749549, 8184777.839320700615644 ], [ 4434285.447756098583341, 8184777.839320700615644 ], [ 4434285.447756098583341, 8184780.498383082449436 ], [ 4434290.765880862250924, 8184780.498383082449436 ], [ 4434290.765880862250924, 8184783.157445464283228 ], [ 4434293.424943244084716, 8184783.157445464283228 ], [ 4434293.424943244084716, 8184788.475570227950811 ], [ 4434296.084005625918508, 8184788.475570227950811 ], [ 4434296.084005625918508, 8184791.134632609784603 ], [ 4434298.743068007752299, 8184791.134632609784603 ], [ 4434298.743068007752299, 8184793.793694991618395 ], [ 4434301.402130389586091, 8184793.793694991618395 ], [ 4434301.402130389586091, 8184799.111819755285978 ], [ 4434304.061192771419883, 8184799.111819755285978 ], [ 4434304.061192771419883, 8184801.77088213711977 ], [ 4434306.720255153253675, 8184801.77088213711977 ], [ 4434306.720255153253675, 8184807.089006901718676 ], [ 4434309.379317535087466, 8184807.089006901718676 ], [ 4434309.379317535087466, 8184809.748069283552468 ], [ 4434312.038379916921258, 8184809.748069283552468 ], [ 4434312.038379916921258, 8184812.40713166538626 ], [ 4434314.69744229875505, 8184812.40713166538626 ], [ 4434314.69744229875505, 8184815.066194047220051 ], [ 4434317.356504680588841, 8184815.066194047220051 ], [ 4434317.356504680588841, 8184817.725256429053843 ], [ 4434320.015567062422633, 8184817.725256429053843 ], [ 4434320.015567062422633, 8184820.384318810887635 ], [ 4434325.333691826090217, 8184820.384318810887635 ], [ 4434325.333691826090217, 8184825.702443574555218 ], [ 4434327.992754208855331, 8184825.702443574555218 ], [ 4434327.992754208855331, 8184828.36150595638901 ], [ 4434330.651816590689123, 8184828.36150595638901 ], [ 4434330.651816590689123, 8184831.020568338222802 ], [ 4434333.310878972522914, 8184831.020568338222802 ], [ 4434333.310878972522914, 8184836.338693101890385 ], [ 4434335.969941354356706, 8184836.338693101890385 ], [ 4434335.969941354356706, 8184841.656817865557969 ], [ 4434338.629003736190498, 8184841.656817865557969 ], [ 4434338.629003736190498, 8184846.974942629225552 ], [ 4434341.28806611802429, 8184846.974942629225552 ], [ 4434341.28806611802429, 8184849.634005011059344 ], [ 4434343.947128499858081, 8184849.634005011059344 ], [ 4434343.947128499858081, 8184854.952129774726927 ], [ 4434346.606190881691873, 8184854.952129774726927 ], [ 4434346.606190881691873, 8184857.611192157492042 ], [ 4434349.265253263525665, 8184857.611192157492042 ], [ 4434349.265253263525665, 8184862.929316921159625 ], [ 4434351.924315645359457, 8184862.929316921159625 ], [ 4434351.924315645359457, 8184865.588379302993417 ], [ 4434357.24244040902704, 8184865.588379302993417 ], [ 4434357.24244040902704, 8184868.247441684827209 ], [ 4434359.901502790860832, 8184868.247441684827209 ], [ 4434359.901502790860832, 8184870.906504066661 ], [ 4434362.560565172694623, 8184870.906504066661 ], [ 4434362.560565172694623, 8184873.565566448494792 ], [ 4434367.878689936362207, 8184873.565566448494792 ], [ 4434367.878689936362207, 8184876.224628830328584 ], [ 4434370.537752318195999, 8184876.224628830328584 ], [ 4434370.537752318195999, 8184878.883691212162375 ], [ 4434373.19681470002979, 8184878.883691212162375 ], [ 4434373.19681470002979, 8184881.542753593996167 ], [ 4434375.855877081863582, 8184881.542753593996167 ], [ 4434375.855877081863582, 8184884.201815975829959 ], [ 4434378.514939464628696, 8184884.201815975829959 ], [ 4434378.514939464628696, 8184889.519940739497542 ], [ 4434381.174001846462488, 8184889.519940739497542 ], [ 4434381.174001846462488, 8184892.179003121331334 ], [ 4434383.83306422829628, 8184892.179003121331334 ], [ 4434383.83306422829628, 8184894.838065503165126 ], [ 4434386.492126610130072, 8184894.838065503165126 ], [ 4434386.492126610130072, 8184902.815252648666501 ], [ 4434389.151188991963863, 8184902.815252648666501 ], [ 4434389.151188991963863, 8184905.474315030500293 ], [ 4434391.810251373797655, 8184905.474315030500293 ], [ 4434391.810251373797655, 8184910.792439795099199 ], [ 4434394.469313755631447, 8184910.792439795099199 ], [ 4434394.469313755631447, 8184913.451502176932991 ], [ 4434397.128376137465239, 8184913.451502176932991 ], [ 4434397.128376137465239, 8184918.769626940600574 ], [ 4434399.78743851929903, 8184918.769626940600574 ], [ 4434399.78743851929903, 8184921.428689322434366 ], [ 4434402.446500901132822, 8184921.428689322434366 ], [ 4434402.446500901132822, 8184924.087751704268157 ], [ 4434405.105563282966614, 8184924.087751704268157 ], [ 4434405.105563282966614, 8184926.746814086101949 ], [ 4434407.764625664800406, 8184926.746814086101949 ], [ 4434407.764625664800406, 8184932.064938849769533 ], [ 4434410.423688046634197, 8184932.064938849769533 ], [ 4434410.423688046634197, 8184942.7011883771047 ], [ 4434413.082750428467989, 8184942.7011883771047 ], [ 4434413.082750428467989, 8184966.632749814540148 ], [ 4434415.741812810301781, 8184966.632749814540148 ], [ 4434415.741812810301781, 8184974.609936960041523 ], [ 4434413.082750428467989, 8184974.609936960041523 ], [ 4434413.082750428467989, 8185006.518685542047024 ], [ 4434410.423688046634197, 8185006.518685542047024 ], [ 4434410.423688046634197, 8185014.495872688479722 ], [ 4434407.764625664800406, 8185014.495872688479722 ], [ 4434407.764625664800406, 8185019.813997452147305 ], [ 4434405.105563282966614, 8185019.813997452147305 ], [ 4434405.105563282966614, 8185025.132122215814888 ], [ 4434399.78743851929903, 8185025.132122215814888 ], [ 4434399.78743851929903, 8185027.79118459764868 ], [ 4434394.469313755631447, 8185027.79118459764868 ], [ 4434394.469313755631447, 8185030.450246979482472 ], [ 4434389.151188991963863, 8185030.450246979482472 ], [ 4434389.151188991963863, 8185033.109309361316264 ], [ 4434383.83306422829628, 8185033.109309361316264 ], [ 4434383.83306422829628, 8185035.768371743150055 ], [ 4434378.514939464628696, 8185035.768371743150055 ], [ 4434378.514939464628696, 8185038.427434124983847 ], [ 4434343.947128499858081, 8185038.427434124983847 ], [ 4434343.947128499858081, 8185041.086496506817639 ], [ 4434075.381827929988503, 8185041.086496506817639 ], [ 4434075.381827929988503, 8185038.427434124983847 ], [ 4434046.132141728885472, 8185038.427434124983847 ], [ 4434046.132141728885472, 8185041.086496506817639 ], [ 4433772.24871639534831, 8185041.086496506817639 ] ] ] } }
]
}
